date,ws,wd,pm25,Wind Direction,Events,temperatureC,Dew PointC,Humidity,SeaLevelPressurehPa,Wind Chill,VisibilityKm,Dew PointC
1/1/2013 0:00,4.0000032,320,31,NW,Clear,-5,-10,68,1018,-10.4,-9999,-10
1/1/2013 1:00,4.0000032,350,32,North,Clear,-7,-11,74,1017,-12.9,-9999,-11
1/1/2013 2:00,2.0000016,360,21,North,Clear,-7,-11,74,1017,-10.6,-9999,-11
1/1/2013 3:00,3.0000024,350,16,North,Unknown,-10,-14,73,1018,-15.5,6,-14
1/1/2013 4:00,0,0,15,North,Unknown,-10,-15,67,1018,-999,7,-15
1/1/2013 5:00,3.0000024,350,9,North,Unknown,-12,-15,79,1019,-17.9,7,-15
1/1/2013 6:00,1.0000008,350,9,North,Unknown,-11,-15,73,1019,-999,8,-15
1/1/2013 7:00,5.000004,290,7,WNW,Clear,-6,-16,46,1020,-12.4,-9999,-16
1/1/2013 8:00,4.0000032,310,14,NW,Clear,-6,-18,39,1021,-11.6,-9999,-18
1/1/2013 9:00,5.000004,320,11,NW,Clear,-5,-19,33,1022,-11.2,-9999,-19
1/1/2013 10:00,7.0000056,330,9,NNW,Clear,-3,-22,22,1023,-9.8,-9999,-22
1/1/2013 11:00,9.0000072,340,10,NNW,Clear,-3,-22,22,1024,-10.6,-9999,-22
1/1/2013 12:00,8.0000064,320,16,NW,Clear,-3,-23,21,1023,-10.2,-9999,-23
1/1/2013 13:00,8.0000064,300,17,WNW,Clear,-4,-23,22,1023,-11.5,-9999,-23
1/1/2013 14:00,8.0000064,320,15,NW,Clear,-4,-23,22,1024,-11.5,-9999,-23
1/1/2013 15:00,9.0000072,320,13,NW,Clear,-5,-25,20,1025,-13.3,-9999,-25
1/1/2013 16:00,8.0000064,340,16,NNW,Clear,-6,-25,22,1026,-14.1,-9999,-25
1/1/2013 17:00,8.0000064,340,15,NNW,Clear,-7,-25,23,1027,-15.4,-9999,-25
1/1/2013 18:00,8.0000064,350,20,North,Clear,-8,-27,21,1028,-16.7,-9999,-27
1/1/2013 19:00,9.0000072,350,17,North,Clear,-9,-26,25,1029,-18.5,-9999,-26
1/1/2013 20:00,7.0000056,350,16,North,Clear,-10,-26,27,1030,-18.8,-9999,-26
1/1/2013 21:00,9.0000072,340,19,NNW,Clear,-10,-27,25,1031,-19.8,-9999,-27
1/1/2013 22:00,9.0000072,340,13,NNW,Clear,-10,-27,25,1031,-19.8,-9999,-27
1/1/2013 23:00,7.0000056,340,19,NNW,Clear,-11,-28,24,1032,-20,-9999,-28
2/1/2013 0:00,8.0000064,340,15,NNW,Clear,-12,-28,26,1033,-21.9,-9999,-28
2/1/2013 1:00,7.0000056,340,19,NNW,Clear,-12,-28,26,1033,-21.3,-9999,-28
2/1/2013 2:00,6.0000048,330,16,NNW,Clear,-12,-28,26,1034,-20.7,-9999,-28
2/1/2013 3:00,7.0000056,310,17,NW,Clear,-12,-28,26,1035,-21.3,-9999,-28
2/1/2013 4:00,7.0000056,320,17,NW,Clear,-12,-28,26,1035,-21.3,-9999,-28
2/1/2013 5:00,7.0000056,310,17,NW,Clear,-12,-28,26,1035,-21.3,-9999,-28
2/1/2013 6:00,8.0000064,300,15,WNW,Clear,-13,-28,28,1036,-23.2,-9999,-28
2/1/2013 7:00,8.0000064,320,13,NW,Clear,-13,-28,28,1036,-23.2,-9999,-28
2/1/2013 8:00,9.0000072,320,15,NW,Clear,-12,-27,29,1037,-22.4,-9999,-27
2/1/2013 9:00,8.0000064,320,15,NW,Clear,-11,-27,27,1039,-20.6,-9999,-27
2/1/2013 10:00,10.000008,320,16,NW,Clear,-11,-28,24,1040,-21.6,-9999,-28
2/1/2013 11:00,10.000008,310,13,NW,Clear,-9,-28,21,1041,-18.9,-9999,-28
2/1/2013 12:00,11.0000088,310,19,NW,Clear,-9,-29,19,1041,-19.4,-9999,-29
2/1/2013 13:00,11.0000088,320,20,NW,Clear,-8,-28,19,1040,-18,-9999,-28
2/1/2013 14:00,11.0000088,310,19,NW,Clear,-8,-27,21,1040,-18,-9999,-27
2/1/2013 15:00,11.0000088,300,19,WNW,Clear,-8,-27,21,1040,-18,-9999,-27
2/1/2013 16:00,11.0000088,310,25,NW,Clear,-8,-27,21,1041,-18,-9999,-27
2/1/2013 17:00,10.000008,300,22,WNW,Clear,-8,-27,21,1042,-17.6,-9999,-27
2/1/2013 18:00,7.0000056,310,25,NW,Clear,-9,-27,23,1043,-17.5,-9999,-27
2/1/2013 19:00,10.000008,310,20,NW,Clear,-10,-26,27,1044,-20.3,-9999,-26
2/1/2013 20:00,9.0000072,300,19,WNW,Clear,-10,-28,22,1044,-19.8,-9999,-28
2/1/2013 21:00,10.000008,310,21,NW,Clear,-10,-27,25,1045,-20.3,-9999,-27
2/1/2013 22:00,7.0000056,320,27,NW,Clear,-11,-27,27,1046,-20,-9999,-27
2/1/2013 23:00,9.0000072,300,23,WNW,Clear,-11,-26,29,1046,-21.1,-9999,-26
3/1/2013 0:00,9.0000072,320,21,NW,Clear,-11,-27,27,1046,-21.1,-9999,-27
3/1/2013 1:00,10.000008,310,20,NW,Clear,-11,-28,24,1046,-21.6,-9999,-28
3/1/2013 2:00,7.0000056,320,18,NW,Clear,-11,-28,24,1046,-20,-9999,-28
3/1/2013 3:00,8.0000064,320,20,NW,Clear,-12,-28,26,1046,-21.9,-9999,-28
3/1/2013 4:00,9.0000072,330,20,NNW,Clear,-12,-28,26,1046,-22.4,-9999,-28
3/1/2013 5:00,10.000008,330,13,NNW,Clear,-12,-28,26,1045,-22.9,-9999,-28
3/1/2013 6:00,5.000004,20,13,NNE,Clear,-13,-27,31,1045,-21.2,-9999,-27
3/1/2013 7:00,5.000004,10,17,North,Clear,-13,-26,34,1045,-21.2,-9999,-26
3/1/2013 8:00,3.0000024,30,22,NNE,Clear,-13,-26,34,1046,-19.1,-9999,-26
3/1/2013 9:00,3.0000024,350,29,North,Clear,-10,-25,29,1046,-15.5,-9999,-25
3/1/2013 10:00,5.000004,10,26,North,Clear,-10,-26,27,1046,-17.4,-9999,-26
3/1/2013 11:00,5.000004,10,26,North,Clear,-8,-25,25,1046,-14.9,-9999,-25
3/1/2013 12:00,4.0000032,30,18,NNE,Clear,-7,-25,23,1044,-12.9,-9999,-25
3/1/2013 13:00,4.0000032,10,20,North,Clear,-6,-24,24,1043,-11.6,-9999,-24
3/1/2013 14:00,3.0000024,40,26,NE,Clear,-6,-24,24,1042,-10.7,-9999,-24
3/1/2013 15:00,3.0000024,10,24,North,Clear,-5,-24,22,1041,-9.5,-9999,-24
3/1/2013 16:00,2.0000016,350,18,North,Clear,-5,-23,24,1041,-8.3,-9999,-23
3/1/2013 17:00,1.0000008,0,25,Variable,Clear,-8,-23,30,1041,-999,-9999,-23
3/1/2013 18:00,2.0000016,20,34,NNE,Clear,-9,-20,41,1041,-12.9,-9999,-20
3/1/2013 19:00,2.0000016,360,37,North,Clear,-10,-21,41,1041,-14.1,-9999,-21
3/1/2013 20:00,2.0000016,350,36,North,Clear,-12,-21,48,1040,-16.4,-9999,-21
3/1/2013 21:00,2.0000016,10,42,North,Clear,-13,-20,57,1040,-17.6,-9999,-20
3/1/2013 22:00,2.0000016,350,40,North,Clear,-12,-21,48,1040,-16.4,-9999,-21
3/1/2013 23:00,2.0000016,350,37,North,Clear,-11,-22,41,1040,-15.3,-9999,-22
4/1/2013 0:00,3.0000024,360,33,North,Clear,-13,-21,52,1039,-19.1,-9999,-21
4/1/2013 1:00,3.0000024,350,35,North,Clear,-15,-21,61,1039,-21.5,-9999,-21
4/1/2013 2:00,2.0000016,10,58,North,Clear,-15,-20,66,1039,-19.9,-9999,-20
4/1/2013 3:00,2.0000016,360,56,North,Clear,-17,-22,66,1038,-22.3,-9999,-22
4/1/2013 4:00,3.0000024,340,62,NNW,Clear,-14,-21,56,1037,-20.3,-9999,-21
4/1/2013 5:00,3.0000024,350,37,North,Clear,-15,-22,56,1036,-21.5,-9999,-22
4/1/2013 6:00,2.0000016,340,37,NNW,Clear,-16,-22,61,1036,-21.1,-9999,-22
4/1/2013 7:00,2.0000016,350,41,North,Clear,-15,-22,56,1035,-19.9,-9999,-22
4/1/2013 8:00,2.0000016,350,41,North,Clear,-16,-22,61,1035,-21.1,-9999,-22
4/1/2013 9:00,3.0000024,340,39,NNW,Clear,-11,-20,48,1035,-16.7,-9999,-20
4/1/2013 10:00,3.0000024,350,48,North,Clear,-8,-21,35,1035,-13.1,-9999,-21
4/1/2013 11:00,1.0000008,0,59,Variable,Clear,-7,-22,30,1034,-999,-9999,-22
4/1/2013 12:00,2.0000016,310,63,NW,Clear,-6,-22,28,1033,-9.4,-9999,-22
4/1/2013 13:00,3.0000024,290,74,WNW,Clear,-5,-22,26,1031,-9.5,-9999,-22
4/1/2013 14:00,2.0000016,0,69,Variable,Clear,-3,-22,22,1029,-5.9,-9999,-22
4/1/2013 15:00,3.0000024,270,79,West,Clear,-3,-23,21,1029,-7.1,-9999,-23
4/1/2013 16:00,3.0000024,210,89,SSW,Clear,-4,-23,22,1029,-8.3,-9999,-23
4/1/2013 17:00,2.0000016,250,94,WSW,Clear,-4,-22,24,1028,-7.1,-9999,-22
4/1/2013 18:00,2.0000016,70,113,ENE,Clear,-9,-21,38,1028,-12.9,-9999,-21
4/1/2013 19:00,0,0,132,North,Clear,-9,-20,41,1028,-999,-9999,-20
4/1/2013 20:00,0,0,186,North,Unknown,-10,-18,53,1029,-999,7,-18
4/1/2013 21:00,1.0000008,0,205,Variable,Unknown,-12,-18,62,1029,-999,6,-18
4/1/2013 22:00,1.0000008,0,204,Variable,Unknown,-13,-18,67,1029,-999,6,-18
4/1/2013 23:00,2.0000016,10,198,North,Haze,-15,-19,72,1029,-19.9,5,-19
5/1/2013 0:00,1.0000008,360,176,North,Unknown,-14,-18,72,1029,-999,6,-18
5/1/2013 1:00,1.0000008,0,111,Variable,Unknown,-14,-20,61,1028,-999,6,-20
5/1/2013 2:00,3.0000024,20,140,NNE,Clear,-11,-20,48,1028,-16.7,-9999,-20
5/1/2013 3:00,3.0000024,360,78,North,Clear,-14,-22,52,1028,-20.3,-9999,-22
5/1/2013 4:00,5.000004,360,30,North,Clear,-14,-21,56,1028,-22.4,-9999,-21
5/1/2013 5:00,5.000004,350,31,North,Clear,-12,-21,48,1028,-19.9,-9999,-21
5/1/2013 6:00,5.000004,20,34,NNE,Clear,-10,-22,38,1028,-17.4,-9999,-22
5/1/2013 7:00,4.0000032,10,29,North,Clear,-10,-23,35,1029,-16.6,-9999,-23
5/1/2013 8:00,4.0000032,20,40,NNE,Clear,-10,-22,38,1029,-16.6,-9999,-22
5/1/2013 9:00,5.000004,30,43,NNE,Clear,-7,-22,30,1030,-13.7,-9999,-22
5/1/2013 10:00,5.000004,20,43,NNE,Clear,-6,-22,28,1030,-12.4,-9999,-22
5/1/2013 11:00,5.000004,30,39,NNE,Clear,-4,-23,22,1030,-9.9,-9999,-23
5/1/2013 12:00,5.000004,30,38,NNE,Clear,-3,-22,22,1029,-8.7,-9999,-22
5/1/2013 13:00,5.000004,20,37,NNE,Clear,-2,-22,21,1028,-7.4,-9999,-22
5/1/2013 14:00,4.0000032,20,37,NNE,Clear,-1,-22,19,1027,-5.5,-9999,-22
5/1/2013 15:00,3.0000024,40,36,NE,Clear,0,-22,18,1028,-3.5,-9999,-22
5/1/2013 16:00,2.0000016,40,41,NE,Clear,-1,-22,19,1028,-3.6,-9999,-22
5/1/2013 17:00,1.0000008,60,49,ENE,Clear,-3,-21,24,1028,-999,-9999,-21
5/1/2013 18:00,1.0000008,20,69,NNE,Clear,-5,-20,31,1029,-999,-9999,-20
5/1/2013 19:00,1.0000008,0,86,Variable,Clear,-5,-20,31,1029,-999,-9999,-20
5/1/2013 20:00,3.0000024,360,73,North,Clear,-10,-19,49,1029,-15.5,-9999,-19
5/1/2013 21:00,3.0000024,10,64,North,Clear,-9,-20,41,1029,-14.3,-9999,-20
5/1/2013 22:00,3.0000024,10,72,North,Clear,-9,-20,41,1030,-14.3,-9999,-20
5/1/2013 23:00,3.0000024,340,72,NNW,Clear,-9,-18,49,1030,-14.3,-9999,-18
6/1/2013 0:00,2.0000016,20,49,NNE,Clear,-10,-19,49,1030,-14.1,-9999,-19
6/1/2013 1:00,3.0000024,20,48,NNE,Clear,-8,-18,45,1030,-13.1,-9999,-18
6/1/2013 2:00,3.0000024,10,34,North,Clear,-10,-19,49,1030,-15.5,-9999,-19
6/1/2013 3:00,4.0000032,340,40,NNW,Clear,-11,-18,57,1030,-17.8,-9999,-18
6/1/2013 4:00,3.0000024,330,39,NNW,Clear,-13,-18,67,1029,-19.1,-9999,-18
6/1/2013 5:00,4.0000032,350,30,North,Clear,-13,-18,67,1029,-20.2,-9999,-18
6/1/2013 6:00,5.000004,350,32,North,Clear,-13,-19,62,1029,-21.2,-9999,-19
6/1/2013 7:00,4.0000032,340,41,NNW,Clear,-12,-18,62,1029,-19,-9999,-18
6/1/2013 8:00,3.0000024,340,45,NNW,Clear,-11,-18,57,1029,-16.7,-9999,-18
6/1/2013 9:00,2.0000016,360,61,North,Clear,-9,-16,58,1030,-12.9,-9999,-16
6/1/2013 10:00,3.0000024,340,50,NNW,Clear,-6,-17,42,1030,-10.7,-9999,-17
6/1/2013 11:00,2.0000016,360,65,North,Clear,-4,-18,34,1030,-7.1,-9999,-18
6/1/2013 12:00,2.0000016,20,70,NNE,Clear,-3,-19,29,1028,-5.9,-9999,-19
6/1/2013 13:00,2.0000016,310,78,NW,Clear,-2,-19,27,1027,-4.8,-9999,-19
6/1/2013 14:00,2.0000016,300,108,WNW,Clear,-1,-19,25,1026,-3.6,-9999,-19
6/1/2013 15:00,3.0000024,200,142,SSW,Clear,-1,-19,25,1025,-4.7,-9999,-19
6/1/2013 16:00,3.0000024,210,193,SSW,Unknown,-1,-18,27,1025,-4.7,8,-18
6/1/2013 17:00,3.0000024,210,204,SSW,Haze,-1,-18,27,1025,-4.7,5,-18
6/1/2013 18:00,3.0000024,200,266,SSW,Haze,-3,-17,34,1025,-7.1,5,-17
6/1/2013 19:00,3.0000024,240,335,WSW,Haze,-3,-17,34,1025,-7.1,5,-17
6/1/2013 20:00,0,0,392,North,Haze,-6,-16,46,1025,-999,4,-16
6/1/2013 21:00,1.0000008,70,413,ENE,Haze,-7,-15,54,1026,-999,4,-15
6/1/2013 22:00,1.0000008,0,339,Variable,Haze,-9,-14,68,1026,-999,3.5,-14
6/1/2013 23:00,1.0000008,0,285,Variable,Haze,-10,-15,67,1026,-999,3.5,-15
7/1/2013 0:00,0,0,236,North,Haze,-10,-14,73,1026,-999,-9999,-14
7/1/2013 1:00,3.0000024,360,173,North,Haze,-12,-16,73,1026,-17.9,4,-16
7/1/2013 2:00,2.0000016,360,159,North,Haze,-12,-16,73,1026,-16.4,5,-16
7/1/2013 3:00,3.0000024,360,128,North,Unknown,-12,-16,73,1025,-17.9,6,-16
7/1/2013 4:00,3.0000024,340,99,NNW,Unknown,-12,-16,73,1025,-17.9,7,-16
7/1/2013 5:00,2.0000016,340,89,NNW,Unknown,-12,-16,73,1025,-16.4,8,-16
7/1/2013 6:00,3.0000024,350,88,North,Clear,-14,-17,79,1025,-20.3,-9999,-17
7/1/2013 7:00,2.0000016,340,84,NNW,Clear,-12,-17,67,1025,-16.4,-9999,-17
7/1/2013 8:00,5.000004,350,71,North,Clear,-11,-16,67,1025,-18.7,-9999,-16
7/1/2013 9:00,4.0000032,350,76,North,Clear,-9,-16,58,1026,-15.3,-9999,-16
7/1/2013 10:00,2.0000016,300,78,WNW,Clear,-7,-16,49,1026,-10.6,-9999,-16
7/1/2013 11:00,1.0000008,0,89,Variable,Clear,-5,-16,43,1026,-999,-9999,-16
7/1/2013 12:00,3.0000024,310,102,NW,Clear,-3,-15,40,1025,-7.1,-9999,-15
7/1/2013 13:00,2.0000016,0,113,Variable,Clear,-1,-15,34,1025,-3.6,-9999,-15
7/1/2013 14:00,2.0000016,340,134,NNW,Clear,1,-18,23,1024,-1.3,-9999,-18
7/1/2013 15:00,1.0000008,0,33,Variable,Clear,1,-19,22,1024,-999,-9999,-19
7/1/2013 16:00,0,0,133,North,Clear,0,-19,23,1024,-999,-9999,-19
7/1/2013 17:00,1.0000008,0,150,Variable,Unknown,-3,-16,37,1024,-999,8,-16
7/1/2013 18:00,1.0000008,130,164,SE,Unknown,-4,-15,43,1024,-999,8,-15
7/1/2013 19:00,1.0000008,50,194,NE,Unknown,-7,-14,58,1025,-999,7,-14
7/1/2013 20:00,1.0000008,0,233,Variable,Unknown,-8,-14,63,1025,-999,6,-14
7/1/2013 21:00,1.0000008,90,250,East,Unknown,-8,-14,63,1026,-999,6,-14
7/1/2013 22:00,0,0,299,North,Haze,-7,-14,58,1027,-999,5,-14
7/1/2013 23:00,0,0,333,North,Haze,-8,-13,68,1027,-999,4.5,-13
8/1/2013 0:00,2.0000016,10,357,North,Haze,-10,-14,73,1028,-14.1,4,-14
8/1/2013 1:00,1.0000008,70,390,ENE,Haze,-10,-14,73,1028,-999,3.5,-14
8/1/2013 2:00,2.0000016,80,326,East,Haze,-8,-13,68,1029,-11.8,4,-13
8/1/2013 3:00,1.0000008,50,402,NE,Haze,-9,-14,68,1029,-999,3,-14
8/1/2013 4:00,1.0000008,50,365,NE,Haze,-10,-14,73,1029,-999,3,-14
8/1/2013 5:00,1.0000008,20,257,NNE,Haze,-12,-15,79,1029,-999,4,-15
8/1/2013 6:00,3.0000024,10,135,North,Haze,-12,-14,85,1030,-17.9,4.5,-14
8/1/2013 7:00,2.0000016,340,159,NNW,Haze,-11,-15,73,1030,-15.3,4.5,-15
8/1/2013 8:00,2.0000016,10,170,North,Haze,-12,-15,79,1031,-16.4,3.5,-15
8/1/2013 9:00,1.0000008,0,36,Variable,Haze,-7,-11,74,1033,-999,3.5,-11
8/1/2013 10:00,8.0000064,310,19,NW,Clear,-4,-16,40,1033,-11.5,-9999,-16
8/1/2013 11:00,7.0000056,320,20,NW,Clear,-3,-17,34,1033,-9.8,-9999,-17
8/1/2013 12:00,8.0000064,300,18,WNW,Clear,-3,-18,31,1032,-10.2,-9999,-18
8/1/2013 13:00,10.000008,300,19,WNW,Clear,-2,-19,27,1031,-9.7,-9999,-19
8/1/2013 14:00,7.0000056,320,14,NW,Clear,-2,-20,25,1031,-8.5,-9999,-20
8/1/2013 15:00,5.000004,320,11,NW,Clear,-2,-20,25,1031,-7.4,-9999,-20
8/1/2013 16:00,7.0000056,310,16,NW,Clear,-2,-21,23,1031,-8.5,-9999,-21
8/1/2013 17:00,6.0000048,300,19,WNW,Clear,-3,-22,22,1031,-9.3,-9999,-22
8/1/2013 18:00,5.000004,310,18,NW,Clear,-4,-21,26,1031,-9.9,-9999,-21
8/1/2013 19:00,5.000004,330,21,NNW,Clear,-5,-21,28,1032,-11.2,-9999,-21
8/1/2013 20:00,4.0000032,360,21,North,Clear,-10,-22,38,1032,-16.6,-9999,-22
8/1/2013 21:00,4.0000032,340,17,NNW,Clear,-9,-21,38,1033,-15.3,-9999,-21
8/1/2013 22:00,3.0000024,340,19,NNW,Clear,-9,-23,32,1033,-14.3,-9999,-23
8/1/2013 23:00,4.0000032,310,23,NW,Clear,-7,-23,28,1034,-12.9,-9999,-23
9/1/2013 0:00,3.0000024,340,29,NNW,Clear,-9,-23,32,1034,-14.3,-9999,-23
9/1/2013 1:00,3.0000024,360,22,North,Clear,-11,-23,38,1033,-16.7,-9999,-23
9/1/2013 2:00,4.0000032,340,18,NNW,Clear,-9,-22,35,1033,-15.3,-9999,-22
9/1/2013 3:00,4.0000032,340,24,NNW,Clear,-12,-21,48,1033,-19,-9999,-21
9/1/2013 4:00,3.0000024,360,22,North,Clear,-12,-22,44,1032,-17.9,-9999,-22
9/1/2013 5:00,2.0000016,350,17,North,Clear,-12,-21,48,1032,-16.4,-9999,-21
9/1/2013 6:00,1.0000008,0,27,Variable,Clear,-13,-21,52,1032,-999,-9999,-21
9/1/2013 7:00,2.0000016,340,44,NNW,Clear,-13,-20,57,1032,-17.6,-9999,-20
9/1/2013 8:00,2.0000016,70,46,ENE,Clear,-15,-20,66,1032,-19.9,-9999,-20
9/1/2013 9:00,1.0000008,0,35,Variable,Clear,-9,-18,49,1033,-999,-9999,-18
9/1/2013 10:00,2.0000016,350,48,North,Clear,-6,-19,36,1033,-9.4,-9999,-19
9/1/2013 11:00,1.0000008,0,59,Variable,Clear,-4,-20,28,1032,-999,-9999,-20
9/1/2013 12:00,2.0000016,300,69,WNW,Clear,-3,-19,29,1031,-5.9,-9999,-19
9/1/2013 13:00,1.0000008,0,72,Variable,Clear,-1,-19,25,1029,-999,-9999,-19
9/1/2013 14:00,5.000004,310,59,NW,Clear,1,-23,15,1028,-3.7,-9999,-23
9/1/2013 15:00,5.000004,320,57,NW,Clear,1,-23,15,1028,-3.7,-9999,-23
9/1/2013 16:00,4.0000032,310,67,NW,Clear,0,-23,17,1028,-4.3,-9999,-23
9/1/2013 17:00,4.0000032,250,75,WSW,Clear,-1,-18,27,1028,-5.5,-9999,-18
9/1/2013 18:00,3.0000024,180,15,South,Clear,-3,-18,31,1028,-7.1,-9999,-18
9/1/2013 19:00,3.0000024,170,38,South,Clear,-5,-15,46,1028,-9.5,-9999,-15
9/1/2013 20:00,2.0000016,180,41,South,Clear,-4,-15,43,1029,-7.1,-9999,-15
9/1/2013 21:00,1.0000008,0,63,Variable,Clear,-7,-14,58,1029,-999,-9999,-14
9/1/2013 22:00,1.0000008,160,234,SSE,Clear,-8,-15,58,1029,-999,-9999,-15
9/1/2013 23:00,1.0000008,0,305,Variable,Clear,-11,-15,73,1029,-999,-9999,-15
10/1/2013 0:00,1.0000008,60,304,ENE,Clear,-12,-15,79,1029,-999,-9999,-15
10/1/2013 1:00,1.0000008,60,303,ENE,Clear,-12,-16,73,1029,-999,-9999,-16
10/1/2013 2:00,2.0000016,360,221,North,Unknown,-13,-17,73,1029,-17.6,7,-17
10/1/2013 3:00,1.0000008,10,179,North,Unknown,-13,-17,73,1029,-999,6,-17
10/1/2013 4:00,3.0000024,350,162,North,Unknown,-14,-18,72,1028,-20.3,7,-18
10/1/2013 5:00,3.0000024,350,111,North,Unknown,-14,-18,72,1028,-20.3,7,-18
10/1/2013 6:00,2.0000016,350,114,North,Unknown,-13,-17,73,1028,-17.6,8,-17
10/1/2013 7:00,3.0000024,360,81,North,Unknown,-13,-17,73,1028,-19.1,8,-17
10/1/2013 8:00,3.0000024,350,56,North,Clear,-13,-17,73,1029,-19.1,-9999,-17
10/1/2013 9:00,4.0000032,340,63,NNW,Clear,-10,-15,67,1029,-16.6,-9999,-15
10/1/2013 10:00,1.0000008,0,79,Variable,Clear,-7,-15,54,1029,-999,-9999,-15
10/1/2013 11:00,1.0000008,0,84,Variable,Clear,-6,-15,50,1029,-999,-9999,-15
10/1/2013 12:00,1.0000008,0,97,Variable,Unknown,-4,-14,46,1028,-999,8,-14
10/1/2013 13:00,2.0000016,120,111,ESE,Unknown,-3,-13,47,1027,-5.9,6,-13
10/1/2013 14:00,2.0000016,140,167,SE,Haze,-3,-11,55,1027,-5.9,3,-11
10/1/2013 15:00,2.0000016,140,279,SE,Haze,-3,-11,55,1026,-5.9,2.5,-11
10/1/2013 16:00,2.0000016,130,395,SE,Haze,-3,-10,59,1026,-5.9,1.6,-10
10/1/2013 17:00,2.0000016,120,449,ESE,Haze,-5,-9,74,1026,-8.3,1.6,-9
10/1/2013 18:00,1.0000008,90,389,East,Mist,-7,-10,80,1026,-999,2,-10
10/1/2013 19:00,1.0000008,120,421,ESE,Mist,-7,-9,86,1027,-999,2,-9
10/1/2013 20:00,2.0000016,140,486,SE,Mist,-7,-9,86,1027,-10.6,1.8,-9
10/1/2013 21:00,3.0000024,170,486,South,Mist,-7,-8,93,1027,-11.9,1.2,-8
10/1/2013 22:00,1.0000008,0,488,Variable,Mist,-6,-7,93,1027,-999,1,-7
10/1/2013 23:00,1.0000008,0,434,Variable,Mist,-6,-8,86,1027,-999,1,-8
11/1/2013 0:00,1.0000008,0,425,Variable,Mist,-6,-7,93,1026,-999,1,-7
11/1/2013 1:00,2.0000016,80,418,East,Mist,-5,-7,86,1026,-8.3,1.2,-7
11/1/2013 2:00,1.0000008,0,416,Variable,Mist,-5,-7,86,1026,-999,1.2,-7
11/1/2013 3:00,1.0000008,10,402,North,Mist,-5,-7,86,1025,-999,1.2,-7
11/1/2013 4:00,1.0000008,10,429,North,Mist,-5,-7,86,1024,-999,1.2,-7
11/1/2013 5:00,2.0000016,350,408,North,Mist,-5,-7,86,1024,-8.3,1.2,-7
11/1/2013 6:00,2.0000016,330,456,NNW,Mist,-5,-7,86,1024,-8.3,1.3,-7
11/1/2013 7:00,2.0000016,340,434,NNW,Mist,-5,-7,86,1024,-8.3,1.3,-7
11/1/2013 8:00,2.0000016,360,391,North,Mist,-5,-7,86,1025,-8.3,1.2,-7
11/1/2013 9:00,1.0000008,30,377,NNE,Light Snow,-5,-6,93,1025,-999,1,-6
11/1/2013 10:00,3.0000024,340,377,NNW,Mostly Cloudy,-4,-7,80,1025,-8.3,1,-7
11/1/2013 11:00,3.0000024,340,361,NNW,Mostly Cloudy,-3,-7,74,1024,-7.1,1,-7
11/1/2013 12:00,3.0000024,350,343,North,Haze,-2,-7,69,1023,-5.9,1.3,-7
11/1/2013 13:00,1.0000008,0,356,Variable,Haze,-1,-7,64,1022,-999,1.7,-7
11/1/2013 14:00,1.0000008,0,353,Variable,Haze,-1,-7,64,1022,-999,1.8,-7
11/1/2013 15:00,1.0000008,0,340,Variable,Haze,0,-8,55,1022,-999,1.8,-8
11/1/2013 16:00,1.0000008,0,146,Variable,Haze,1,-9,48,1022,-999,2.4,-9
11/1/2013 17:00,1.0000008,0,216,Variable,Haze,-2,-9,59,1023,-999,2.5,-9
11/1/2013 18:00,3.0000024,100,291,East,Haze,-2,-8,64,1023,-5.9,3,-8
11/1/2013 19:00,2.0000016,180,325,South,Haze,-4,-9,69,1024,-7.1,3.5,-9
11/1/2013 20:00,2.0000016,0,292,Variable,Haze,-7,-11,74,1025,-10.6,5,-11
11/1/2013 21:00,1.0000008,0,371,Variable,Mist,-6,-9,80,1025,-999,3,-9
11/1/2013 22:00,1.0000008,0,369,Variable,Mist,-9,-11,86,1025,-999,2.5,-11
11/1/2013 23:00,1.0000008,0,374,Variable,Mist,-8,-10,86,1025,-999,2.5,-10
12/1/2013 0:00,1.0000008,0,391,Variable,Mist,-9,-10,93,1025,-999,2,-10
12/1/2013 1:00,1.0000008,0,442,Variable,Mist,-10,-12,86,1025,-999,2.5,-12
12/1/2013 2:00,1.0000008,0,425,Variable,Mist,-10,-12,86,1025,-999,2,-12
12/1/2013 3:00,1.0000008,0,442,Variable,Mist,-10,-11,93,1025,-999,3.5,-11
12/1/2013 4:00,1.0000008,0,287,Variable,Mist,-11,-12,92,1025,-999,4,-12
12/1/2013 5:00,1.0000008,0,275,Variable,Mist,-12,-13,92,1024,-999,4,-13
12/1/2013 6:00,1.0000008,0,174,Variable,Mist,-12,-13,92,1024,-999,4.5,-13
12/1/2013 7:00,1.0000008,0,278,Variable,Mist,-12,-14,85,1024,-999,5,-14
12/1/2013 8:00,2.0000016,10,,North,Mist,-13,-15,85,1024,-17.6,3.5,-15
12/1/2013 9:00,2.0000016,10,319,North,Mist,-10,-12,86,1024,-14.1,3.5,-12
12/1/2013 10:00,2.0000016,360,383,North,Mist,-6,-10,74,1024,-9.4,5,-10
12/1/2013 11:00,1.0000008,0,472,Variable,Unknown,-3,-9,64,1024,-999,7,-9
12/1/2013 12:00,2.0000016,90,458,East,Haze,-3,-9,64,1022,-5.9,2.5,-9
12/1/2013 13:00,2.0000016,130,529,SE,Haze,-2,-9,59,1021,-4.8,2.2,-9
12/1/2013 14:00,2.0000016,150,802,SSE,Haze,-1,-7,64,1021,-3.6,1.5,-7
12/1/2013 15:00,2.0000016,120,845,ESE,Haze,-1,-7,64,1021,-3.6,1.1,-7
12/1/2013 16:00,2.0000016,140,810,SE,Haze,-2,-7,69,1021,-4.8,1,-7
12/1/2013 17:00,1.0000008,160,776,SSE,Haze,-4,-7,80,1021,-999,0.9,-7
12/1/2013 18:00,2.0000016,90,824,East,Mist,-6,-8,86,1021,-9.4,1,-8
12/1/2013 19:00,1.0000008,0,886,Variable,Mist,-6,-8,86,1022,-999,1,-8
12/1/2013 20:00,1.0000008,0,852,Variable,Light Freezing Fog,-7,-8,93,1023,-999,0.9,-8
12/1/2013 21:00,1.0000008,70,858,ENE,Light Freezing Fog,-8,-9,93,1023,-999,0.8,-9
12/1/2013 22:00,1.0000008,0,805,Variable,Light Freezing Fog,-8,-8,100,1024,-999,0.8,-8
12/1/2013 23:00,2.0000016,360,744,North,Light Freezing Fog,-9,-10,93,1024,-12.9,0.8,-10
13/1/2013 0:00,0,0,731,North,Light Freezing Fog,-6,-7,93,1024,-999,0.8,-7
13/1/2013 1:00,2.0000016,360,722,North,Light Freezing Fog,-7,-8,93,1025,-10.6,0.8,-8
13/1/2013 2:00,1.0000008,340,684,NNW,Light Freezing Fog,-5,-6,93,1025,-999,0.8,-6
13/1/2013 3:00,2.0000016,360,651,North,Light Freezing Fog,-5,-6,93,1025,-8.3,0.8,-6
13/1/2013 4:00,2.0000016,320,673,NW,Light Freezing Fog,-5,-6,93,1025,-8.3,0.8,-6
13/1/2013 5:00,1.0000008,0,584,Variable,Light Freezing Fog,-5,-6,93,1025,-999,0.8,-6
13/1/2013 6:00,1.0000008,0,475,Variable,Light Freezing Fog,-4,-6,86,1025,-999,0.9,-6
13/1/2013 7:00,3.0000024,300,341,WNW,Mist,-3,-6,80,1025,-7.1,1,-6
13/1/2013 8:00,4.0000032,310,288,NW,Mist,-3,-6,80,1025,-8,1,-6
13/1/2013 9:00,3.0000024,310,266,NW,Mist,-2,-6,74,1026,-5.9,1,-6
13/1/2013 10:00,3.0000024,330,236,NNW,Mist,-2,-5,80,1026,-5.9,1,-5
13/1/2013 11:00,2.0000016,290,295,WNW,Mist,-2,-6,74,1026,-4.8,1.2,-6
13/1/2013 12:00,2.0000016,260,419,West,Mist,-1,-6,69,1025,-3.6,1.2,-6
13/1/2013 13:00,2.0000016,0,,Variable,Haze,0,-5,69,1024,-2.5,1.2,-5
13/1/2013 14:00,2.0000016,180,323,South,Haze,0,-5,69,1023,-2.5,1.2,-5
13/1/2013 15:00,3.0000024,190,326,South,Haze,0,-6,64,1023,-3.5,1.5,-6
13/1/2013 16:00,2.0000016,180,325,South,Haze,0,-6,64,1023,-2.5,1.5,-6
13/1/2013 17:00,1.0000008,150,334,SSE,Mist,-3,-5,86,1023,-999,1.6,-5
13/1/2013 18:00,1.0000008,0,343,Variable,Mist,-4,-6,86,1023,-999,2.5,-6
13/1/2013 19:00,3.0000024,170,333,South,Mist,-4,-7,80,1024,-8.3,2,-7
13/1/2013 20:00,1.0000008,0,311,Variable,Mist,-4,-7,80,1024,-999,1.8,-7
13/1/2013 21:00,2.0000016,200,304,SSW,Mist,-3,-7,74,1024,-5.9,1.8,-7
13/1/2013 22:00,0,0,301,North,Mist,-7,-9,86,1024,-999,1.8,-9
13/1/2013 23:00,0,0,309,North,Mist,-8,-9,93,1024,-999,1.6,-9
14/1/2013 0:00,0,0,298,North,Mist,-8,-10,86,1024,-999,1.5,-10
14/1/2013 1:00,0,0,362,North,Mist,-10,-10,100,1024,-999,1.4,-10
14/1/2013 2:00,1.0000008,350,523,North,Mist,-10,-11,93,1025,-999,1.3,-11
14/1/2013 3:00,2.0000016,330,468,NNW,Mist,-10,-10,100,1025,-14.1,2.2,-10
14/1/2013 4:00,5.000004,360,447,North,Mist,-9,-10,93,1024,-16.2,3.5,-10
14/1/2013 5:00,4.0000032,360,328,North,Mist,-9,-10,93,1024,-15.3,4,-10
14/1/2013 6:00,3.0000024,340,308,NNW,Mist,-9,-10,93,1024,-14.3,4.5,-10
14/1/2013 7:00,4.0000032,350,358,North,Mist,-9,-10,93,1025,-15.3,4.5,-10
14/1/2013 8:00,0,0,296,North,Mist,-9,-11,86,1027,-999,-9999,-11
14/1/2013 9:00,2.0000016,360,257,North,Mist,-6,-8,86,1027,-9.4,2.8,-8
14/1/2013 10:00,2.0000016,140,291,SE,Mist,-4,-7,80,1028,-7.1,2,-7
14/1/2013 11:00,2.0000016,120,335,ESE,Mist,-3,-7,74,1029,-5.9,1.6,-7
14/1/2013 12:00,2.0000016,70,345,ENE,Mist,-2,-6,74,1029,-4.8,1.4,-6
14/1/2013 13:00,2.0000016,140,307,SE,Mist,0,-6,64,1028,-2.5,1.4,-6
14/1/2013 14:00,4.0000032,130,271,SE,Haze,0,-6,64,1028,-4.3,1.7,-6
14/1/2013 15:00,3.0000024,180,267,South,Haze,0,-6,64,1029,-3.5,2,-6
14/1/2013 16:00,4.0000032,170,277,South,Mist,-1,-6,69,1029,-5.5,2.2,-6
14/1/2013 17:00,3.0000024,190,278,South,Mist,-2,-5,80,1029,-5.9,2,-5
14/1/2013 18:00,2.0000016,210,285,SSW,Mist,-1,-5,75,1030,-3.6,2.3,-5
14/1/2013 19:00,2.0000016,220,282,SW,Light Snow,-1,-5,75,1029,-3.6,2.1,-5
14/1/2013 20:00,3.0000024,170,217,South,Mist,-2,-4,86,1029,-5.9,2.1,-4
14/1/2013 21:00,4.0000032,140,169,SE,Light Snow,-3,-6,80,1029,-8,2.5,-6
14/1/2013 22:00,4.0000032,140,68,SE,Overcast,-4,-6,86,1029,-9.2,5,-6
14/1/2013 23:00,4.0000032,150,151,SSE,Unknown,-4,-6,86,1029,-9.2,7,-6
15/1/2013 0:00,4.0000032,140,66,SE,Unknown,-4,-7,80,1029,-9.2,8,-7
15/1/2013 1:00,2.0000016,120,58,ESE,Scattered Clouds,-5,-8,80,1029,-8.3,8,-8
15/1/2013 2:00,2.0000016,120,61,ESE,Partly Cloudy,-5,-8,80,1028,-8.3,8,-8
15/1/2013 3:00,3.0000024,130,61,SE,Unknown,-5,-8,80,1028,-9.5,8,-8
15/1/2013 4:00,2.0000016,160,71,SSE,Unknown,-6,-9,80,1027,-9.4,8,-9
15/1/2013 5:00,2.0000016,140,79,SE,Partly Cloudy,-5,-8,80,1027,-8.3,7,-8
15/1/2013 6:00,4.0000032,140,74,SE,Light Snow,-6,-8,86,1027,-11.6,7,-8
15/1/2013 7:00,2.0000016,120,71,ESE,Light Snow,-6,-8,86,1027,-9.4,6,-8
15/1/2013 8:00,2.0000016,120,80,ESE,Light Snow,-6,-8,86,1027,-9.4,4,-8
15/1/2013 9:00,1.0000008,0,79,Variable,Light Snow,-6,-7,93,1027,-999,3,-7
15/1/2013 10:00,2.0000016,140,69,SE,Light Snow,-5,-7,86,1027,-8.3,3.5,-7
15/1/2013 11:00,2.0000016,150,90,SSE,Overcast,-4,-6,86,1026,-7.1,4,-6
15/1/2013 12:00,2.0000016,150,109,SSE,Mostly Cloudy,-4,-6,86,1025,-7.1,3.5,-6
15/1/2013 13:00,2.0000016,150,120,SSE,Mostly Cloudy,-3,-6,80,1024,-5.9,3.5,-6
15/1/2013 14:00,1.0000008,0,,Variable,Scattered Clouds,-2,-6,74,1023,-999,4,-6
15/1/2013 15:00,1.0000008,0,132,Variable,Haze,-1,-6,69,1024,-999,5,-6
15/1/2013 16:00,1.0000008,0,134,Variable,Haze,-2,-6,74,1024,-999,5,-6
15/1/2013 17:00,2.0000016,50,155,NE,Haze,-3,-7,74,1024,-5.9,5,-7
15/1/2013 18:00,1.0000008,70,166,ENE,Mist,-5,-8,80,1025,-999,4,-8
15/1/2013 19:00,1.0000008,0,183,Variable,Mist,-6,-8,86,1025,-999,4,-8
15/1/2013 20:00,0,0,181,North,Mist,-7,-8,93,1026,-999,4,-8
15/1/2013 21:00,0,0,201,North,Mist,-8,-9,93,1026,-999,3.5,-9
15/1/2013 22:00,1.0000008,0,227,Variable,Mist,-6,-7,93,1027,-999,3,-7
15/1/2013 23:00,3.0000024,350,177,North,Mist,-9,-10,93,1028,-14.3,3,-10
16/1/2013 0:00,2.0000016,340,189,NNW,Mist,-9,-10,93,1028,-12.9,3,-10
16/1/2013 1:00,3.0000024,330,,NNW,Mist,-8,-9,93,1028,-13.1,4.5,-9
16/1/2013 2:00,5.000004,30,76,NNE,Clear,-5,-11,63,1029,-11.2,-9999,-11
16/1/2013 3:00,3.0000024,40,46,NE,Clear,-4,-12,54,1029,-8.3,-9999,-12
16/1/2013 4:00,6.0000048,40,38,NE,Clear,-4,-14,46,1029,-10.5,-9999,-14
16/1/2013 5:00,6.0000048,30,35,NNE,Clear,-4,-14,46,1030,-10.5,-9999,-14
16/1/2013 6:00,5.000004,40,25,NE,Clear,-5,-15,46,1031,-11.2,-9999,-15
16/1/2013 7:00,2.0000016,110,82,ESE,Clear,-8,-13,68,1032,-11.8,-9999,-13
16/1/2013 8:00,1.0000008,0,245,Variable,Mist,-10,-12,86,1034,-999,2,-12
16/1/2013 9:00,1.0000008,90,269,East,Mist,-8,-10,86,1034,-999,1.6,-10
16/1/2013 10:00,1.0000008,0,240,Variable,Haze,-6,-9,80,1035,-999,2.2,-9
16/1/2013 11:00,1.0000008,0,194,Variable,Haze,-3,-10,59,1034,-999,2.8,-10
16/1/2013 12:00,3.0000024,40,169,NE,Clear,-1,-14,37,1033,-4.7,-9999,-14
16/1/2013 13:00,3.0000024,10,53,North,Clear,0,-17,27,1032,-3.5,-9999,-17
16/1/2013 14:00,3.0000024,30,39,NNE,Clear,1,-16,28,1032,-2.3,-9999,-16
16/1/2013 15:00,3.0000024,30,45,NNE,Clear,1,-16,28,1032,-2.3,-9999,-16
16/1/2013 16:00,3.0000024,40,61,NE,Clear,1,-17,25,1033,-2.3,-9999,-17
16/1/2013 17:00,2.0000016,50,227,NE,Clear,-1,-16,32,1034,-3.6,-9999,-16
16/1/2013 18:00,3.0000024,350,219,North,Clear,-3,-15,40,1035,-7.1,-9999,-15
16/1/2013 19:00,3.0000024,360,193,North,Clear,-5,-15,46,1036,-9.5,-9999,-15
16/1/2013 20:00,5.000004,320,47,NW,Clear,-2,-16,34,1036,-7.4,-9999,-16
16/1/2013 21:00,5.000004,320,26,NW,Clear,-2,-17,31,1037,-7.4,-9999,-17
16/1/2013 22:00,3.0000024,330,28,NNW,Clear,-4,-17,36,1037,-8.3,-9999,-17
16/1/2013 23:00,1.0000008,0,30,Variable,Clear,-6,-18,39,1037,-999,-9999,-18
17/1/2013 0:00,2.0000016,20,25,NNE,Clear,-8,-16,53,1038,-11.8,-9999,-16
17/1/2013 1:00,3.0000024,50,24,NE,Clear,-7,-15,54,1038,-11.9,-9999,-15
17/1/2013 2:00,5.000004,350,26,North,Clear,-7,-16,49,1038,-13.7,-9999,-16
17/1/2013 3:00,2.0000016,30,19,NNE,Clear,-9,-16,58,1038,-12.9,-9999,-16
17/1/2013 4:00,2.0000016,40,35,NE,Clear,-8,-16,53,1038,-11.8,-9999,-16
17/1/2013 5:00,3.0000024,10,37,North,Clear,-10,-17,57,1038,-15.5,-9999,-17
17/1/2013 6:00,2.0000016,10,34,North,Clear,-9,-17,53,1038,-12.9,-9999,-17
17/1/2013 7:00,5.000004,20,33,NNE,Clear,-8,-16,53,1039,-14.9,-9999,-16
17/1/2013 8:00,4.0000032,30,33,NNE,Clear,-7,-15,54,1039,-12.9,-9999,-15
17/1/2013 9:00,4.0000032,30,34,NNE,Clear,-5,-16,43,1040,-10.4,-9999,-16
17/1/2013 10:00,4.0000032,20,38,NNE,Clear,-3,-16,37,1040,-8,-9999,-16
17/1/2013 11:00,4.0000032,20,38,NNE,Clear,-1,-15,34,1040,-5.5,-9999,-15
17/1/2013 12:00,3.0000024,50,41,NE,Clear,0,-17,27,1038,-3.5,-9999,-17
17/1/2013 13:00,2.0000016,330,37,NNW,Clear,2,-18,22,1037,-0.1,-9999,-18
17/1/2013 14:00,1.0000008,0,45,Variable,Clear,2,-18,22,1036,-999,-9999,-18
17/1/2013 15:00,2.0000016,160,71,SSE,Clear,3,-17,22,1035,1,-9999,-17
17/1/2013 16:00,3.0000024,180,92,South,Clear,3,-18,20,1035,0.1,-9999,-18
17/1/2013 17:00,3.0000024,180,78,South,Clear,1,-16,28,1035,-2.3,-9999,-16
17/1/2013 18:00,3.0000024,190,86,South,Clear,0,-16,30,1036,-3.5,-9999,-16
17/1/2013 19:00,4.0000032,200,107,SSW,Clear,-1,-13,40,1036,-5.5,-9999,-13
17/1/2013 20:00,2.0000016,230,167,SW,Unknown,-1,-13,40,1035,-3.6,8,-13
17/1/2013 21:00,2.0000016,230,208,SW,Unknown,-1,-12,44,1035,-3.6,8,-12
17/1/2013 22:00,1.0000008,120,226,ESE,Unknown,-7,-12,68,1034,-999,7,-12
17/1/2013 23:00,1.0000008,0,285,Variable,Unknown,-8,-13,68,1034,-999,6,-13
18/1/2013 0:00,1.0000008,70,283,ENE,Haze,-8,-12,73,1033,-999,5,-12
18/1/2013 1:00,1.0000008,80,214,East,Mist,-10,-13,79,1032,-999,3.5,-13
18/1/2013 2:00,1.0000008,20,193,NNE,Mist,-10,-14,73,1032,-999,4,-14
18/1/2013 3:00,1.0000008,0,231,Variable,Mist,-9,-13,73,1032,-999,4,-13
18/1/2013 4:00,1.0000008,350,213,North,Mist,-10,-14,73,1031,-999,4,-14
18/1/2013 5:00,2.0000016,360,180,North,Mist,-12,-14,85,1030,-16.4,5,-14
18/1/2013 6:00,1.0000008,360,149,North,Mist,-11,-14,79,1029,-999,5,-14
18/1/2013 7:00,2.0000016,340,86,NNW,Unknown,-12,-14,85,1029,-16.4,6,-14
18/1/2013 8:00,2.0000016,10,82,North,Unknown,-11,-14,79,1029,-15.3,6,-14
18/1/2013 9:00,2.0000016,10,87,North,Unknown,-8,-12,73,1029,-11.8,6,-12
18/1/2013 10:00,3.0000024,330,94,NNW,Unknown,-5,-12,59,1029,-9.5,6,-12
18/1/2013 11:00,2.0000016,330,122,NNW,Unknown,-3,-12,51,1028,-5.9,6,-12
18/1/2013 12:00,2.0000016,350,138,North,Unknown,0,-11,44,1026,-2.5,6,-11
18/1/2013 13:00,2.0000016,0,138,Variable,Unknown,1,-12,38,1025,-1.3,6,-12
18/1/2013 14:00,2.0000016,230,176,SW,Unknown,1,-13,35,1024,-1.3,6,-13
18/1/2013 15:00,3.0000024,220,450,SW,Unknown,2,-14,30,1023,-1.1,6,-14
18/1/2013 16:00,1.0000008,0,372,Variable,Haze,2,-13,33,1023,-999,5,-13
18/1/2013 17:00,2.0000016,100,358,East,Haze,0,-11,44,1024,-2.5,-9999,-11
18/1/2013 18:00,1.0000008,0,448,Variable,Haze,-3,-10,59,1024,-999,3.5,-10
18/1/2013 19:00,1.0000008,90,485,East,Haze,-3,-11,55,1025,-999,4,-11
18/1/2013 20:00,0,0,557,North,Haze,-4,-10,64,1025,-999,3.5,-10
18/1/2013 21:00,1.0000008,0,573,Variable,Mist,-5,-9,74,1025,-999,2.5,-9
18/1/2013 22:00,1.0000008,10,603,North,Mist,-6,-10,74,1026,-999,2.5,-10
18/1/2013 23:00,2.0000016,360,412,North,Mist,-6,-10,74,1026,-9.4,2.5,-10
19/1/2013 0:00,2.0000016,350,300,North,Mist,-6,-10,74,1026,-9.4,3,-10
19/1/2013 1:00,3.0000024,300,312,WNW,Mist,-3,-10,59,1026,-7.1,3,-10
19/1/2013 2:00,4.0000032,350,253,North,Haze,-6,-11,68,1026,-11.6,5,-11
19/1/2013 3:00,3.0000024,360,285,North,Unknown,-5,-11,63,1026,-9.5,6,-11
19/1/2013 4:00,2.0000016,30,277,NNE,Unknown,-5,-11,63,1027,-8.3,7,-11
19/1/2013 5:00,2.0000016,80,236,East,Unknown,-7,-11,74,1027,-10.6,7,-11
19/1/2013 6:00,1.0000008,0,157,Variable,Unknown,-8,-12,73,1027,-999,6,-12
19/1/2013 7:00,1.0000008,0,237,Variable,Mist,-9,-11,86,1028,-999,-9999,-11
19/1/2013 8:00,1.0000008,10,290,North,Mist,-10,-12,86,1029,-999,1.7,-12
19/1/2013 9:00,2.0000016,350,371,North,Mist,-6,-9,80,1030,-9.4,2,-9
19/1/2013 10:00,1.0000008,0,353,Variable,Haze,-1,-9,55,1031,-999,2.5,-9
19/1/2013 11:00,3.0000024,170,227,South,Haze,1,-11,41,1031,-2.3,3,-11
19/1/2013 12:00,1.0000008,0,201,Variable,Haze,1,-10,44,1031,-999,3,-10
19/1/2013 13:00,3.0000024,100,98,East,Haze,2,-10,41,1030,-1.1,3,-10
19/1/2013 14:00,2.0000016,110,76,ESE,Haze,2,-10,41,1030,-0.1,3,-10
19/1/2013 15:00,2.0000016,140,71,SE,Haze,3,-12,33,1030,1,5,-12
19/1/2013 16:00,2.0000016,90,73,East,Haze,2,-11,38,1030,-0.1,5,-11
19/1/2013 17:00,1.0000008,80,85,East,Haze,1,-10,44,1030,-999,4,-10
19/1/2013 18:00,1.0000008,70,100,ENE,Haze,-1,-8,60,1031,-999,4,-8
19/1/2013 19:00,1.0000008,90,115,East,Haze,-1,-8,60,1031,-999,4.5,-8
19/1/2013 20:00,1.0000008,0,128,Variable,Haze,-1,-9,55,1031,-999,5,-9
19/1/2013 21:00,2.0000016,150,141,SSE,Haze,0,-9,51,1032,-2.5,7,-9
19/1/2013 22:00,2.0000016,120,72,ESE,Unknown,-1,-10,51,1032,-3.6,8,-10
19/1/2013 23:00,3.0000024,180,88,South,Clear,-1,-10,51,1032,-4.7,-9999,-10
20/1/2013 0:00,3.0000024,150,91,SSE,Clear,-1,-12,44,1032,-4.7,-9999,-12
20/1/2013 1:00,2.0000016,160,69,SSE,Partly Cloudy,-2,-12,47,1032,-4.8,10,-12
20/1/2013 2:00,1.0000008,90,59,East,Mostly Cloudy,-2,-11,51,1032,-999,10,-11
20/1/2013 3:00,1.0000008,0,53,Variable,Overcast,-2,-11,51,1032,-999,10,-11
20/1/2013 4:00,1.0000008,0,57,Variable,Overcast,-3,-11,55,1032,-999,10,-11
20/1/2013 5:00,1.0000008,0,64,Variable,Light Snow,-3,-11,55,1032,-999,10,-11
20/1/2013 6:00,1.0000008,0,78,Variable,Light Snow,-4,-7,80,1032,-999,5,-7
20/1/2013 7:00,1.0000008,180,87,South,Light Snow,-4,-6,86,1032,-999,5,-6
20/1/2013 8:00,1.0000008,0,88,Variable,Light Snow,-4,-5,93,1032,-999,1.6,-5
20/1/2013 9:00,2.0000016,360,80,North,Light Snow,-4,-4,100,1032,-7.1,1.4,-4
20/1/2013 10:00,3.0000024,320,84,NW,Light Snow,-3,-4,93,1032,-7.1,1.7,-4
20/1/2013 11:00,2.0000016,360,100,North,Light Snow,-2,-3,93,1032,-4.8,1.7,-3
20/1/2013 12:00,2.0000016,10,129,North,Light Snow,-1,-3,86,1031,-3.6,2.8,-3
20/1/2013 13:00,1.0000008,10,128,North,Mostly Cloudy,-1,-4,80,1030,-999,4,-4
20/1/2013 14:00,1.0000008,0,114,Variable,Mostly Cloudy,-1,-3,86,1029,-999,4.5,-3
20/1/2013 15:00,1.0000008,0,110,Variable,Scattered Clouds,-1,-4,80,1029,-999,4.5,-4
20/1/2013 16:00,1.0000008,0,122,Variable,Scattered Clouds,-1,-4,80,1029,-999,4,-4
20/1/2013 17:00,1.0000008,0,142,Variable,Overcast,-2,-4,86,1029,-999,4,-4
20/1/2013 18:00,1.0000008,150,150,SSE,Overcast,-3,-4,93,1030,-999,3.5,-4
20/1/2013 19:00,1.0000008,0,138,Variable,Overcast,-2,-4,86,1030,-999,3.5,-4
20/1/2013 20:00,1.0000008,90,156,East,Overcast,-3,-4,93,1030,-999,3.5,-4
20/1/2013 21:00,2.0000016,350,145,North,Overcast,-2,-4,86,1030,-4.8,3.5,-4
20/1/2013 22:00,1.0000008,0,169,Variable,Overcast,-3,-4,93,1030,-999,3.5,-4
20/1/2013 23:00,0,0,161,North,Overcast,-3,-4,93,1030,-999,3.5,-4
21/1/2013 0:00,2.0000016,30,160,NNE,Mist,-3,-4,93,1030,-5.9,3.5,-4
21/1/2013 1:00,2.0000016,20,156,NNE,Mist,-3,-4,93,1029,-5.9,3.5,-4
21/1/2013 2:00,2.0000016,360,198,North,Mist,-3,-4,93,1029,-5.9,3.5,-4
21/1/2013 3:00,1.0000008,30,188,NNE,Mist,-3,-4,93,1028,-999,3,-4
21/1/2013 4:00,2.0000016,340,176,NNW,Mist,-4,-4,100,1028,-7.1,2,-4
21/1/2013 5:00,2.0000016,340,187,NNW,Mist,-4,-5,93,1028,-7.1,2,-5
21/1/2013 6:00,2.0000016,320,154,NW,Mist,-4,-5,93,1028,-7.1,2,-5
21/1/2013 7:00,2.0000016,330,179,NNW,Mist,-5,-6,93,1028,-8.3,2.3,-6
21/1/2013 8:00,2.0000016,360,198,North,Mist,-6,-7,93,1029,-9.4,2.5,-7
21/1/2013 9:00,4.0000032,330,159,NNW,Mist,-3,-5,86,1029,-8,2.5,-5
21/1/2013 10:00,3.0000024,360,164,North,Mist,-2,-4,86,1030,-5.9,2.5,-4
21/1/2013 11:00,3.0000024,20,156,NNE,Haze,0,-5,69,1029,-3.5,3,-5
21/1/2013 12:00,3.0000024,20,144,NNE,Haze,2,-6,56,1029,-1.1,5,-6
21/1/2013 13:00,3.0000024,20,104,NNE,Unknown,3,-4,60,1028,0.1,6,-4
21/1/2013 14:00,3.0000024,30,88,NNE,Unknown,3,-7,48,1028,0.1,7,-7
21/1/2013 15:00,2.0000016,40,72,NE,Unknown,4,-7,45,1028,2.2,8,-7
21/1/2013 16:00,1.0000008,80,93,East,Clear,3,-7,48,1028,-999,-9999,-7
21/1/2013 17:00,1.0000008,60,98,ENE,Clear,1,-7,56,1028,-999,-9999,-7
21/1/2013 18:00,0,0,114,North,Clear,-1,-6,69,1029,-999,-9999,-6
21/1/2013 19:00,1.0000008,30,184,NNE,Clear,-1,-6,69,1029,-999,-9999,-6
21/1/2013 20:00,1.0000008,0,162,Variable,Clear,-4,-7,80,1030,-999,-9999,-7
21/1/2013 21:00,1.0000008,0,179,Variable,Clear,-6,-8,86,1030,-999,-9999,-8
21/1/2013 22:00,2.0000016,10,131,North,Clear,-5,-7,86,1030,-8.3,-9999,-7
21/1/2013 23:00,4.0000032,10,104,North,Clear,-6,-9,80,1031,-11.6,-9999,-9
22/1/2013 0:00,2.0000016,70,84,ENE,Clear,-5,-8,80,1031,-8.3,-9999,-8
22/1/2013 1:00,1.0000008,0,88,Variable,Mist,-6,-8,86,1031,-999,5,-8
22/1/2013 2:00,1.0000008,160,60,SSE,Mist,-8,-9,93,1032,-999,5,-9
22/1/2013 3:00,1.0000008,0,45,Variable,Unknown,-8,-8,100,1031,-999,6,-8
22/1/2013 4:00,1.0000008,0,38,Variable,Unknown,-8,-9,93,1031,-999,8,-9
22/1/2013 5:00,1.0000008,130,37,SE,Light Freezing Fog,-11,-12,92,1031,-999,0.1,-12
22/1/2013 6:00,1.0000008,150,40,SSE,Light Freezing Fog,-11,-12,92,1031,-999,0.1,-12
22/1/2013 7:00,0,0,52,North,Light Freezing Fog,-13,-14,92,1031,-999,0.1,-14
22/1/2013 8:00,1.0000008,0,46,Variable,Clear,-14,-15,92,1032,-999,-9999,-15
22/1/2013 9:00,1.0000008,0,48,Variable,Mist,-9,-9,100,1032,-999,2.2,-9
22/1/2013 10:00,1.0000008,0,55,Variable,Unknown,-6,-6,100,1032,-999,8,-6
22/1/2013 11:00,3.0000024,60,46,ENE,Clear,-3,-9,64,1031,-7.1,-9999,-9
22/1/2013 12:00,2.0000016,140,111,SE,Haze,-2,-7,69,1030,-4.8,3.5,-7
22/1/2013 13:00,1.0000008,0,127,Variable,Haze,-1,-6,69,1029,-999,3,-6
22/1/2013 14:00,3.0000024,150,326,SSE,Mist,-1,-5,75,1028,-4.7,2,-5
22/1/2013 15:00,3.0000024,140,382,SE,Light Freezing Fog,-3,-5,86,1027,-7.1,0.8,-5
22/1/2013 16:00,3.0000024,140,352,SE,Light Freezing Fog,-4,-5,93,1026,-8.3,0.7,-5
22/1/2013 17:00,3.0000024,160,366,SSE,Light Snow,-5,-6,93,1026,-9.5,0.7,-6
22/1/2013 18:00,3.0000024,160,396,SSE,Light Snow,-5,-6,93,1026,-9.5,0.8,-6
22/1/2013 19:00,2.0000016,140,398,SE,Light Snow,-5,-5,100,1026,-8.3,0.9,-5
22/1/2013 20:00,2.0000016,120,374,ESE,Light Snow,-5,-5,100,1026,-8.3,0.9,-5
22/1/2013 21:00,2.0000016,130,412,SE,Light Snow,-5,-5,100,1025,-8.3,0.9,-5
22/1/2013 22:00,3.0000024,190,437,South,Light Snow,-5,-6,93,1025,-9.5,0.8,-6
22/1/2013 23:00,2.0000016,150,453,SSE,Light Snow,-6,-6,100,1025,-9.4,0.8,-6
23/1/2013 0:00,2.0000016,160,439,SSE,Light Snow,-6,-6,100,1024,-9.4,0.9,-6
23/1/2013 1:00,1.0000008,150,439,SSE,Light Freezing Fog,-6,-7,93,1023,-999,0.9,-7
23/1/2013 2:00,2.0000016,150,437,SSE,Light Freezing Fog,-6,-7,93,1023,-9.4,0.9,-7
23/1/2013 3:00,2.0000016,130,411,SE,Partly Cloudy,-6,-7,93,1022,-9.4,1,-7
23/1/2013 4:00,1.0000008,0,424,Variable,Mist,-6,-7,93,1021,-999,1.1,-7
23/1/2013 5:00,1.0000008,0,417,Variable,Mist,-5,-7,86,1020,-999,1.1,-7
23/1/2013 6:00,1.0000008,0,422,Variable,Mist,-5,-6,93,1020,-999,1.2,-6
23/1/2013 7:00,1.0000008,70,394,ENE,Mist,-5,-7,86,1020,-999,1.3,-7
23/1/2013 8:00,1.0000008,0,388,Variable,Partly Cloudy,-5,-6,93,1020,-999,1.3,-6
23/1/2013 9:00,1.0000008,80,401,East,Partly Cloudy,-5,-6,93,1019,-999,1.2,-6
23/1/2013 10:00,1.0000008,0,402,Variable,Light Snow,-5,-6,93,1019,-999,1.1,-6
23/1/2013 11:00,1.0000008,0,396,Variable,Light Snow,-4,-6,86,1019,-999,1.1,-6
23/1/2013 12:00,2.0000016,100,395,East,Scattered Clouds,-4,-6,86,1018,-7.1,1.2,-6
23/1/2013 13:00,2.0000016,90,392,East,Scattered Clouds,-4,-6,86,1017,-7.1,1.2,-6
23/1/2013 14:00,2.0000016,130,359,SE,Scattered Clouds,-3,-5,86,1016,-5.9,1.2,-5
23/1/2013 15:00,2.0000016,170,301,South,Scattered Clouds,-3,-5,86,1016,-5.9,1.2,-5
23/1/2013 16:00,2.0000016,130,273,SE,Scattered Clouds,-3,-5,86,1016,-5.9,1.3,-5
23/1/2013 17:00,1.0000008,140,297,SE,Mist,-4,-6,86,1017,-999,1.3,-6
23/1/2013 18:00,1.0000008,90,321,East,Mist,-6,-7,93,1017,-999,1.5,-7
23/1/2013 19:00,1.0000008,60,336,ENE,Mist,-8,-8,100,1018,-999,1.6,-8
23/1/2013 20:00,1.0000008,0,399,Variable,Mist,-7,-7,100,1019,-999,1.5,-7
23/1/2013 21:00,0,0,378,North,Mist,-8,-8,100,1020,-999,1.6,-8
23/1/2013 22:00,2.0000016,310,398,NW,Mist,-5,-6,93,1021,-8.3,2,-6
23/1/2013 23:00,5.000004,330,255,NNW,Mist,-3,-9,64,1021,-8.7,-9999,-9
24/1/2013 0:00,9.0000072,330,29,NNW,Clear,0,-14,35,1022,-6.7,-9999,-14
24/1/2013 1:00,6.0000048,330,17,NNW,Clear,-1,-13,40,1022,-6.7,-9999,-13
24/1/2013 2:00,7.0000056,320,18,NW,Clear,-2,-14,40,1023,-8.5,-9999,-14
24/1/2013 3:00,5.000004,310,11,NW,Clear,-2,-14,40,1023,-7.4,-9999,-14
24/1/2013 4:00,6.0000048,310,16,NW,Clear,-3,-13,47,1023,-9.3,-9999,-13
24/1/2013 5:00,5.000004,330,12,NNW,Clear,-4,-14,46,1023,-9.9,-9999,-14
24/1/2013 6:00,3.0000024,320,13,NW,Clear,-5,-14,50,1023,-9.5,-9999,-14
24/1/2013 7:00,1.0000008,0,14,Variable,Clear,-7,-14,58,1023,-999,-9999,-14
24/1/2013 8:00,3.0000024,280,20,West,Clear,-5,-13,54,1023,-9.5,-9999,-13
24/1/2013 9:00,7.0000056,300,29,WNW,Clear,1,-16,28,1023,-4.6,-9999,-16
24/1/2013 10:00,9.0000072,290,32,WNW,Clear,2,-17,24,1023,-4.1,-9999,-17
24/1/2013 11:00,10.000008,290,12,WNW,Clear,3,-17,22,1023,-3.1,-9999,-17
24/1/2013 12:00,10.000008,290,16,WNW,Clear,4,-17,21,1022,-1.7,-9999,-17
24/1/2013 13:00,9.0000072,300,17,WNW,Clear,4,-18,19,1022,-1.4,-9999,-18
24/1/2013 14:00,9.0000072,300,13,WNW,Clear,5,-18,18,1021,-0.1,-9999,-18
24/1/2013 15:00,6.0000048,360,16,North,Clear,5,-17,19,1021,0.9,-9999,-17
24/1/2013 16:00,7.0000056,10,14,North,Clear,3,-17,22,1022,-2.1,-9999,-17
24/1/2013 17:00,6.0000048,10,10,North,Clear,1,-17,25,1022,-4.2,-9999,-17
24/1/2013 18:00,5.000004,10,23,North,Clear,-1,-16,32,1023,-6.2,-9999,-16
24/1/2013 19:00,4.0000032,20,30,NNE,Clear,-1,-17,29,1024,-5.5,-9999,-17
24/1/2013 20:00,2.0000016,60,27,ENE,Clear,-3,-19,29,1024,-5.9,-9999,-19
24/1/2013 21:00,2.0000016,50,23,NE,Clear,-3,-19,29,1024,-5.9,-9999,-19
24/1/2013 22:00,1.0000008,0,27,Variable,Clear,-6,-19,36,1024,-999,-9999,-19
24/1/2013 23:00,0,0,27,North,Clear,-5,-21,28,1025,-999,-9999,-21
25/1/2013 0:00,2.0000016,360,31,North,Clear,-9,-17,53,1025,-12.9,-9999,-17
25/1/2013 1:00,3.0000024,10,47,North,Clear,-9,-18,49,1025,-14.3,-9999,-18
25/1/2013 2:00,3.0000024,350,46,North,Clear,-10,-18,53,1026,-15.5,-9999,-18
25/1/2013 3:00,2.0000016,360,42,North,Clear,-11,-18,57,1025,-15.3,-9999,-18
25/1/2013 4:00,1.0000008,30,47,NNE,Clear,-12,-17,67,1025,-999,-9999,-17
25/1/2013 5:00,3.0000024,20,64,NNE,Clear,-13,-17,73,1025,-19.1,-9999,-17
25/1/2013 6:00,2.0000016,20,68,NNE,Clear,-11,-18,57,1024,-15.3,-9999,-18
25/1/2013 7:00,3.0000024,360,48,North,Clear,-13,-18,67,1024,-19.1,-9999,-18
25/1/2013 8:00,3.0000024,350,40,North,Clear,-11,-18,57,1025,-16.7,-9999,-18
25/1/2013 9:00,3.0000024,340,50,NNW,Clear,-8,-18,45,1025,-13.1,-9999,-18
25/1/2013 10:00,3.0000024,340,55,NNW,Clear,-6,-18,39,1025,-10.7,-9999,-18
25/1/2013 11:00,3.0000024,330,53,NNW,Clear,-4,-18,34,1025,-8.3,-9999,-18
25/1/2013 12:00,2.0000016,0,65,Variable,Clear,-3,-19,29,1024,-5.9,-9999,-19
25/1/2013 13:00,2.0000016,170,71,South,Clear,-2,-16,34,1023,-4.8,-9999,-16
25/1/2013 14:00,2.0000016,20,84,NNE,Clear,-1,-15,34,1022,-3.6,-9999,-15
25/1/2013 15:00,1.0000008,0,78,Variable,Clear,-1,-15,34,1022,-999,-9999,-15
25/1/2013 16:00,1.0000008,0,73,Variable,Clear,-2,-14,40,1022,-999,-9999,-14
25/1/2013 17:00,1.0000008,0,84,Variable,Clear,-3,-13,47,1022,-999,-9999,-13
25/1/2013 18:00,1.0000008,70,109,ENE,Clear,-5,-13,54,1022,-999,-9999,-13
25/1/2013 19:00,1.0000008,80,130,East,Clear,-6,-12,63,1023,-999,-9999,-12
25/1/2013 20:00,1.0000008,80,113,East,Clear,-7,-12,68,1023,-999,-9999,-12
25/1/2013 21:00,1.0000008,50,118,NE,Clear,-9,-13,73,1024,-999,-9999,-13
25/1/2013 22:00,0,0,124,North,Clear,-8,-12,73,1024,-999,-9999,-12
25/1/2013 23:00,1.0000008,0,135,Variable,Clear,-9,-12,79,1025,-999,-9999,-12
26/1/2013 0:00,1.0000008,70,174,ENE,Clear,-9,-13,73,1025,-999,-9999,-13
26/1/2013 1:00,1.0000008,70,161,ENE,Clear,-10,-13,79,1026,-999,-9999,-13
26/1/2013 2:00,1.0000008,10,186,North,Unknown,-11,-13,85,1026,-999,7,-13
26/1/2013 3:00,1.0000008,0,189,Variable,Unknown,-11,-12,92,1026,-999,7,-12
26/1/2013 4:00,0,0,169,North,Unknown,-12,-14,85,1026,-999,7,-14
26/1/2013 5:00,2.0000016,350,155,North,Unknown,-12,-14,85,1027,-16.4,7,-14
26/1/2013 6:00,2.0000016,350,138,North,Unknown,-13,-14,92,1027,-17.6,6,-14
26/1/2013 7:00,2.0000016,350,126,North,Unknown,-12,-14,85,1028,-16.4,7,-14
26/1/2013 8:00,2.0000016,360,124,North,Unknown,-11,-13,85,1028,-15.3,8,-13
26/1/2013 9:00,3.0000024,350,96,North,Clear,-8,-11,79,1029,-13.1,-9999,-11
26/1/2013 10:00,2.0000016,340,94,NNW,Clear,-6,-11,68,1029,-9.4,-9999,-11
26/1/2013 11:00,1.0000008,0,122,Variable,Clear,-3,-11,55,1029,-999,-9999,-11
26/1/2013 12:00,1.0000008,0,156,Variable,Clear,-1,-11,47,1028,-999,-9999,-11
26/1/2013 13:00,2.0000016,200,198,SSW,Clear,0,-10,48,1027,-2.5,-9999,-10
26/1/2013 14:00,2.0000016,0,162,Variable,Unknown,2,-11,38,1027,-0.1,7,-11
26/1/2013 15:00,2.0000016,0,162,Variable,Haze,2,-10,41,1026,-0.1,4,-10
26/1/2013 16:00,3.0000024,180,172,South,Haze,2,-10,41,1026,-1.1,3.5,-10
26/1/2013 17:00,3.0000024,190,195,South,Haze,0,-9,51,1027,-3.5,5,-9
26/1/2013 18:00,4.0000032,190,177,South,Haze,-1,-8,60,1027,-5.5,5,-8
26/1/2013 19:00,1.0000008,0,174,Variable,Haze,-4,-8,74,1028,-999,5,-8
26/1/2013 20:00,1.0000008,0,165,Variable,Haze,-5,-8,80,1028,-999,4,-8
26/1/2013 21:00,0,0,170,North,Mist,-5,-8,80,1029,-999,3.5,-8
26/1/2013 22:00,1.0000008,0,179,Variable,Mist,-5,-8,80,1029,-999,-9999,-8
26/1/2013 23:00,1.0000008,0,229,Variable,Mist,-7,-9,86,1029,-999,3,-9
27/1/2013 0:00,2.0000016,80,307,East,Mist,-5,-8,80,1030,-8.3,3,-8
27/1/2013 1:00,1.0000008,70,347,ENE,Mist,-5,-8,80,1029,-999,2.5,-8
27/1/2013 2:00,1.0000008,70,318,ENE,Mist,-5,-8,80,1030,-999,2.5,-8
27/1/2013 3:00,1.0000008,60,293,ENE,Mist,-7,-10,80,1029,-999,3,-10
27/1/2013 4:00,1.0000008,0,258,Variable,Mist,-8,-10,86,1029,-999,3,-10
27/1/2013 5:00,1.0000008,30,284,NNE,Mist,-9,-10,93,1029,-999,3,-10
27/1/2013 6:00,2.0000016,70,312,ENE,Mist,-10,-11,93,1029,-14.1,2.5,-11
27/1/2013 7:00,2.0000016,80,310,East,Mist,-8,-9,93,1029,-11.8,1.7,-9
27/1/2013 8:00,2.0000016,100,261,East,Light Freezing Fog,-8,-9,93,1030,-11.8,0.3,-9
27/1/2013 9:00,2.0000016,100,387,East,Light Freezing Fog,-7,-8,93,1030,-10.6,0.4,-8
27/1/2013 10:00,2.0000016,110,340,ESE,Light Freezing Fog,-6,-7,93,1030,-9.4,0.8,-7
27/1/2013 11:00,2.0000016,110,306,ESE,Mist,-5,-6,93,1030,-8.3,1,-6
27/1/2013 12:00,2.0000016,110,321,ESE,Mist,-5,-5,100,1029,-8.3,1,-5
27/1/2013 13:00,2.0000016,80,322,East,Mist,-4,-5,93,1028,-7.1,1.2,-5
27/1/2013 14:00,1.0000008,0,313,Variable,Mist,-2,-5,80,1027,-999,1.6,-5
27/1/2013 15:00,2.0000016,120,320,ESE,Mist,-1,-5,75,1027,-3.6,1.8,-5
27/1/2013 16:00,2.0000016,80,288,East,Mist,-2,-5,80,1026,-4.8,2,-5
27/1/2013 17:00,2.0000016,60,300,ENE,Mist,-3,-5,86,1025,-5.9,1.6,-5
27/1/2013 18:00,2.0000016,70,314,ENE,Mist,-3,-5,86,1025,-5.9,2.5,-5
27/1/2013 19:00,2.0000016,60,317,ENE,Mist,-3,-5,86,1025,-5.9,2.5,-5
27/1/2013 20:00,1.0000008,0,329,Variable,Mist,-3,-5,86,1025,-999,2.5,-5
27/1/2013 21:00,1.0000008,140,306,SE,Mist,-3,-5,86,1025,-999,2.5,-5
27/1/2013 22:00,1.0000008,0,318,Variable,Mist,-3,-5,86,1025,-999,2.5,-5
27/1/2013 23:00,1.0000008,90,340,East,Mist,-3,-5,86,1024,-999,2.5,-5
28/1/2013 0:00,1.0000008,80,359,East,Mist,-3,-5,86,1024,-999,2.5,-5
28/1/2013 1:00,1.0000008,0,362,Variable,Mist,-3,-5,86,1023,-999,2.2,-5
28/1/2013 2:00,1.0000008,110,369,ESE,Mist,-3,-5,86,1023,-999,2,-5
28/1/2013 3:00,1.0000008,60,364,ENE,Mist,-4,-5,93,1022,-999,2,-5
28/1/2013 4:00,1.0000008,80,364,East,Mist,-3,-5,86,1022,-999,1.8,-5
28/1/2013 5:00,0,0,357,North,Mist,-3,-5,86,1021,-999,1.7,-5
28/1/2013 6:00,1.0000008,60,362,ENE,Mist,-4,-5,93,1021,-999,1.7,-5
28/1/2013 7:00,0,0,369,North,Mist,-4,-5,93,1021,-999,1.7,-5
28/1/2013 8:00,2.0000016,20,348,NNE,Mist,-3,-5,86,1021,-5.9,1.4,-5
28/1/2013 9:00,3.0000024,10,348,North,Partly Cloudy,-3,-5,86,1021,-7.1,1.3,-5
28/1/2013 10:00,2.0000016,330,357,NNW,Mist,-2,-5,80,1022,-4.8,1.6,-5
28/1/2013 11:00,2.0000016,310,367,NW,Mist,0,-5,69,1022,-2.5,1.7,-5
28/1/2013 12:00,2.0000016,0,384,Variable,Haze,2,-5,60,1021,-0.1,1.8,-5
28/1/2013 13:00,1.0000008,0,394,Variable,Haze,2,-5,60,1020,-999,2,-5
28/1/2013 14:00,1.0000008,0,409,Variable,Haze,3,-5,56,1019,-999,2.1,-5
28/1/2013 15:00,2.0000016,0,496,Variable,Haze,4,-6,49,1019,2.2,2.1,-6
28/1/2013 16:00,2.0000016,150,490,SSE,Haze,3,-5,56,1019,1,2,-5
28/1/2013 17:00,3.0000024,190,459,South,Haze,1,-4,70,1020,-2.3,1.4,-4
28/1/2013 18:00,3.0000024,160,446,SSE,Mist,-2,-5,80,1021,-5.9,1.4,-5
28/1/2013 19:00,2.0000016,160,444,SSE,Mist,-3,-5,86,1022,-5.9,1.4,-5
28/1/2013 20:00,2.0000016,210,443,SSW,Mist,-1,-4,80,1022,-3.6,1.4,-4
28/1/2013 21:00,1.0000008,90,444,East,Mist,-5,-6,93,1023,-999,1.4,-6
28/1/2013 22:00,1.0000008,0,510,Variable,Mist,-4,-5,93,1024,-999,1.4,-5
28/1/2013 23:00,0,0,508,North,Mist,-5,-5,100,1024,-999,1.3,-5
29/1/2013 0:00,1.0000008,0,490,Variable,Mist,-6,-6,100,1024,-999,1.2,-6
29/1/2013 1:00,1.0000008,90,472,East,Mist,-6,-7,93,1024,-999,1.2,-7
29/1/2013 2:00,0,0,451,North,Mist,-6,-6,100,1024,-999,1.1,-6
29/1/2013 3:00,0,0,448,North,Mist,-7,-7,100,1025,-999,1,-7
29/1/2013 4:00,1.0000008,40,,NE,Mist,-8,-8,100,1024,-999,1,-8
29/1/2013 5:00,1.0000008,0,526,Variable,Light Freezing Fog,-8,-9,93,1024,-999,0.9,-9
29/1/2013 6:00,2.0000016,160,460,SSE,Light Freezing Fog,-6,-7,93,1025,-9.4,0.4,-7
29/1/2013 7:00,0,0,438,North,Light Freezing Fog,-6,-6,100,1025,-999,0.1,-6
29/1/2013 8:00,1.0000008,80,425,East,Light Freezing Fog,-5,-6,93,1026,-999,0.4,-6
29/1/2013 9:00,2.0000016,130,462,SE,Light Freezing Fog,-5,-5,100,1026,-8.3,0.5,-5
29/1/2013 10:00,2.0000016,140,493,SE,Light Snow,-5,-5,100,1026,-8.3,0.5,-5
29/1/2013 11:00,2.0000016,130,484,SE,Light Snow,-4,-5,93,1026,-7.1,0.5,-5
29/1/2013 12:00,1.0000008,0,463,Variable,Light Snow,-4,-4,100,1025,-999,0.7,-4
29/1/2013 13:00,2.0000016,130,476,SE,Light Snow,-3,-4,93,1025,-5.9,0.8,-4
29/1/2013 14:00,2.0000016,110,445,ESE,Light Snow,-3,-4,93,1024,-5.9,0.8,-4
29/1/2013 15:00,2.0000016,120,441,ESE,Light Snow,-3,-4,93,1025,-5.9,0.8,-4
29/1/2013 16:00,2.0000016,150,436,SSE,Light Snow,-3,-4,93,1025,-5.9,0.9,-4
29/1/2013 17:00,3.0000024,140,411,SE,Light Snow,-3,-4,93,1025,-7.1,0.9,-4
29/1/2013 18:00,2.0000016,150,389,SSE,Light Snow,-3,-4,93,1026,-5.9,1,-4
29/1/2013 19:00,2.0000016,140,357,SE,Light Snow,-3,-4,93,1026,-5.9,1.4,-4
29/1/2013 20:00,2.0000016,120,345,ESE,Overcast,-3,-4,93,1026,-5.9,1.5,-4
29/1/2013 21:00,2.0000016,110,335,ESE,Overcast,-3,-4,93,1027,-5.9,1.6,-4
29/1/2013 22:00,2.0000016,110,322,ESE,Overcast,-3,-4,93,1027,-5.9,1.7,-4
29/1/2013 23:00,2.0000016,120,316,ESE,Overcast,-3,-5,86,1028,-5.9,1.6,-5
30/1/2013 0:00,2.0000016,90,315,East,Overcast,-4,-5,93,1027,-7.1,1.6,-5
30/1/2013 1:00,2.0000016,100,304,East,Overcast,-4,-5,93,1027,-7.1,1.7,-5
30/1/2013 2:00,2.0000016,110,282,ESE,Overcast,-4,-5,93,1027,-7.1,1.8,-5
30/1/2013 3:00,2.0000016,80,260,East,Overcast,-4,-5,93,1027,-7.1,1.7,-5
30/1/2013 4:00,2.0000016,80,266,East,Overcast,-4,-5,93,1027,-7.1,1.7,-5
30/1/2013 5:00,2.0000016,80,278,East,Overcast,-4,-5,93,1026,-7.1,1.7,-5
30/1/2013 6:00,1.0000008,0,273,Variable,Overcast,-4,-5,93,1026,-999,1.6,-5
30/1/2013 7:00,2.0000016,80,275,East,Overcast,-4,-5,93,1026,-7.1,1.6,-5
30/1/2013 8:00,2.0000016,80,287,East,Overcast,-4,-5,93,1027,-7.1,1.4,-5
30/1/2013 9:00,2.0000016,80,302,East,Overcast,-3,-5,86,1027,-5.9,1.4,-5
30/1/2013 10:00,2.0000016,90,299,East,Overcast,-3,-5,86,1027,-5.9,1.2,-5
30/1/2013 11:00,1.0000008,0,297,Variable,Overcast,-3,-5,86,1027,-999,1.2,-5
30/1/2013 12:00,1.0000008,0,286,Variable,Overcast,-3,-5,86,1026,-999,1.3,-5
30/1/2013 13:00,1.0000008,0,297,Variable,Overcast,-3,-4,93,1025,-999,1.3,-4
30/1/2013 14:00,1.0000008,0,288,Variable,Overcast,-2,-4,86,1025,-999,1.4,-4
30/1/2013 15:00,2.0000016,80,281,East,Overcast,-2,-4,86,1024,-4.8,1.5,-4
30/1/2013 16:00,1.0000008,0,251,Variable,Overcast,-2,-4,86,1024,-999,1.5,-4
30/1/2013 17:00,1.0000008,30,248,NNE,Overcast,-2,-4,86,1025,-999,1.6,-4
30/1/2013 18:00,2.0000016,20,222,NNE,Overcast,-2,-4,86,1025,-4.8,2,-4
30/1/2013 19:00,1.0000008,10,199,North,Overcast,-2,-4,86,1026,-999,2,-4
30/1/2013 20:00,3.0000024,350,265,North,Overcast,-2,-4,86,1026,-5.9,2,-4
30/1/2013 21:00,3.0000024,360,288,North,Overcast,-2,-4,86,1026,-5.9,1.8,-4
30/1/2013 22:00,3.0000024,350,296,North,Overcast,-2,-4,86,1026,-5.9,2,-4
30/1/2013 23:00,2.0000016,10,311,North,Overcast,-2,-4,86,1026,-4.8,2,-4
31/1/2013 0:00,0,0,276,North,Overcast,-2,-4,86,1026,-999,2,-4
31/1/2013 1:00,1.0000008,0,259,Variable,Overcast,-2,-4,86,1026,-999,2,-4
31/1/2013 2:00,1.0000008,10,205,North,Overcast,-2,-4,86,1026,-999,2,-4
31/1/2013 3:00,1.0000008,360,181,North,Overcast,-2,-4,86,1026,-999,2,-4
31/1/2013 4:00,1.0000008,20,213,NNE,Overcast,-2,-4,86,1025,-999,1.9,-4
31/1/2013 5:00,2.0000016,360,208,North,Overcast,-2,-4,86,1025,-4.8,1.9,-4
31/1/2013 6:00,2.0000016,350,206,North,Overcast,-2,-4,86,1025,-4.8,2.2,-4
31/1/2013 7:00,1.0000008,0,183,Variable,Overcast,-2,-4,86,1025,-999,2.5,-4
31/1/2013 8:00,1.0000008,0,178,Variable,Freezing Rain,-2,-3,93,1026,-999,1.3,-3
31/1/2013 9:00,1.0000008,30,178,NNE,Light Freezing Drizzle,-2,-2,100,1026,-999,1.2,-2
31/1/2013 10:00,3.0000024,360,169,North,Light Freezing Rain,-1,-2,93,1026,-4.7,1,-2
31/1/2013 11:00,1.0000008,30,177,NNE,Light Freezing Rain,-1,-2,93,1025,-999,0.9,-2
31/1/2013 12:00,2.0000016,70,174,ENE,Light Freezing Rain,-1,-1,100,1024,-3.6,0.9,-1
31/1/2013 13:00,2.0000016,10,172,North,Light Snow,-1,-1,100,1023,-3.6,1.1,-1
31/1/2013 14:00,1.0000008,0,157,Variable,Light Snow,-1,-1,100,1022,-999,1.1,-1
31/1/2013 15:00,2.0000016,20,143,NNE,Light Snow Grains,-1,-1,100,1022,-3.6,1.1,-1
31/1/2013 16:00,1.0000008,0,147,Variable,Overcast,-1,-1,100,1022,-999,1.1,-1
31/1/2013 17:00,1.0000008,0,136,Variable,Overcast,-1,-1,100,1022,-999,1.4,-1
31/1/2013 18:00,4.0000032,340,144,NNW,Overcast,0,-1,93,1022,-4.3,1.4,-1
31/1/2013 19:00,3.0000024,360,146,North,Light Snow,-1,-1,100,1022,-4.7,1.2,-1
31/1/2013 20:00,3.0000024,360,149,North,Light Snow,0,-1,93,1022,-3.5,1.2,-1
31/1/2013 21:00,2.0000016,360,129,North,Light Snow,0,-1,93,1022,-2.5,1.4,-1
31/1/2013 22:00,3.0000024,340,111,NNW,Overcast,0,-1,93,1022,-3.5,1.8,-1
31/1/2013 23:00,3.0000024,350,123,North,Mostly Cloudy,-2,-2,100,1023,-5.9,2,-2
1/2/2013 0:00,3.0000024,20,155,NNE,Partly Cloudy,-4,-4,100,1022,-8.3,2,-4
1/2/2013 1:00,3.0000024,340,134,NNW,Mist,-3,-3,100,1023,-7.1,2.5,-3
1/2/2013 2:00,4.0000032,350,98,North,Mist,-5,-5,100,1023,-10.4,3,-5
1/2/2013 3:00,2.0000016,20,53,NNE,Mist,-5,-5,100,1023,-8.3,3,-5
1/2/2013 4:00,7.0000056,340,26,NNW,Unknown,-2,-4,86,1023,-8.5,8,-4
1/2/2013 5:00,9.0000072,340,15,NNW,Clear,0,-7,60,1023,-6.7,-9999,-7
1/2/2013 6:00,4.0000032,20,21,NNE,Clear,-2,-7,69,1024,-6.7,-9999,-7
1/2/2013 7:00,7.0000056,360,29,North,Clear,-3,-8,69,1026,-9.8,-9999,-8
1/2/2013 8:00,4.0000032,350,14,North,Clear,-2,-8,64,1028,-6.7,-9999,-8
1/2/2013 9:00,7.0000056,30,18,NNE,Clear,-2,-10,55,1029,-8.5,-9999,-10
1/2/2013 10:00,6.0000048,10,20,North,Clear,-1,-11,47,1030,-6.7,-9999,-11
1/2/2013 11:00,6.0000048,20,24,NNE,Clear,1,-10,44,1030,-4.2,-9999,-10
1/2/2013 12:00,5.000004,20,22,NNE,Clear,0,-13,38,1030,-4.9,-9999,-13
1/2/2013 13:00,4.0000032,30,19,NNE,Clear,1,-14,32,1030,-3,-9999,-14
1/2/2013 14:00,4.0000032,350,21,North,Clear,2,-14,30,1030,-1.8,-9999,-14
1/2/2013 15:00,6.0000048,350,15,North,Clear,3,-15,26,1030,-1.6,-9999,-15
1/2/2013 16:00,5.000004,10,16,North,Clear,2,-15,28,1030,-2.4,-9999,-15
1/2/2013 17:00,5.000004,20,22,NNE,Clear,2,-18,22,1030,-2.4,-9999,-18
1/2/2013 18:00,3.0000024,20,23,NNE,Clear,-1,-15,34,1031,-4.7,-9999,-15
1/2/2013 19:00,3.0000024,20,27,NNE,Clear,-1,-16,32,1032,-4.7,-9999,-16
1/2/2013 20:00,3.0000024,30,21,NNE,Clear,-2,-16,34,1032,-5.9,-9999,-16
1/2/2013 21:00,4.0000032,40,9,NE,Clear,-2,-16,34,1033,-6.7,-9999,-16
1/2/2013 22:00,5.000004,40,14,NE,Clear,-3,-17,34,1033,-8.7,-9999,-17
1/2/2013 23:00,5.000004,20,14,NNE,Clear,-4,-17,36,1033,-9.9,-9999,-17
2/2/2013 0:00,3.0000024,30,10,NNE,Clear,-4,-17,36,1034,-8.3,-9999,-17
2/2/2013 1:00,2.0000016,30,9,NNE,Clear,-5,-17,39,1034,-8.3,-9999,-17
2/2/2013 2:00,1.0000008,40,16,NE,Clear,-6,-17,42,1034,-999,-9999,-17
2/2/2013 3:00,3.0000024,360,16,North,Clear,-8,-17,49,1034,-13.1,-9999,-17
2/2/2013 4:00,3.0000024,340,15,NNW,Clear,-9,-16,58,1034,-14.3,-9999,-16
2/2/2013 5:00,3.0000024,340,19,NNW,Clear,-11,-16,67,1034,-16.7,-9999,-16
2/2/2013 6:00,3.0000024,10,17,North,Clear,-11,-16,67,1034,-16.7,-9999,-16
2/2/2013 7:00,3.0000024,360,38,North,Clear,-10,-16,62,1034,-15.5,-9999,-16
2/2/2013 8:00,4.0000032,340,32,NNW,Clear,-8,-15,58,1034,-14.1,-9999,-15
2/2/2013 9:00,3.0000024,360,46,North,Clear,-5,-14,50,1034,-9.5,-9999,-14
2/2/2013 10:00,2.0000016,320,50,NW,Clear,-3,-15,40,1034,-5.9,-9999,-15
2/2/2013 11:00,2.0000016,320,52,NW,Clear,-1,-15,34,1034,-3.6,-9999,-15
2/2/2013 12:00,1.0000008,0,55,Variable,Clear,1,-16,28,1033,-999,-9999,-16
2/2/2013 13:00,1.0000008,0,51,Variable,Clear,2,-16,26,1031,-999,-9999,-16
2/2/2013 14:00,2.0000016,0,63,Variable,Clear,3,-15,26,1030,1,-9999,-15
2/2/2013 15:00,2.0000016,140,55,SE,Clear,4,-15,24,1029,2.2,-9999,-15
2/2/2013 16:00,3.0000024,190,57,South,Clear,4,-15,24,1029,1.3,-9999,-15
2/2/2013 17:00,2.0000016,190,59,South,Clear,2,-15,28,1029,-0.1,-9999,-15
2/2/2013 18:00,2.0000016,150,66,SSE,Clear,0,-13,38,1029,-2.5,-9999,-13
2/2/2013 19:00,3.0000024,0,81,Variable,Clear,1,-12,38,1029,-2.3,-9999,-12
2/2/2013 20:00,3.0000024,180,84,South,Clear,-1,-10,51,1028,-4.7,-9999,-10
2/2/2013 21:00,2.0000016,170,83,South,Clear,-2,-10,55,1029,-4.8,-9999,-10
2/2/2013 22:00,1.0000008,0,90,Variable,Unknown,-3,-8,69,1029,-999,8,-8
2/2/2013 23:00,1.0000008,80,114,East,Unknown,-4,-9,69,1028,-999,6,-9
3/2/2013 0:00,2.0000016,100,129,East,Unknown,-4,-9,69,1027,-7.1,6,-9
3/2/2013 1:00,2.0000016,110,150,ESE,Haze,-3,-10,59,1027,-5.9,5,-10
3/2/2013 2:00,1.0000008,110,161,ESE,Haze,-4,-10,64,1026,-999,5,-10
3/2/2013 3:00,2.0000016,60,166,ENE,Haze,-4,-9,69,1026,-7.1,5,-9
3/2/2013 4:00,1.0000008,0,191,Variable,Mist,-3,-6,80,1024,-999,5,-6
3/2/2013 5:00,2.0000016,120,135,ESE,Unknown,-3,-6,80,1023,-5.9,6,-6
3/2/2013 6:00,3.0000024,150,126,SSE,Light Snow,-3,-4,93,1023,-7.1,-9999,-4
3/2/2013 7:00,2.0000016,130,126,SE,Light Snow,-3,-4,93,1023,-5.9,2.8,-4
3/2/2013 8:00,2.0000016,120,138,ESE,Light Snow,-3,-3,100,1022,-5.9,1.5,-3
3/2/2013 9:00,2.0000016,110,165,ESE,Light Snow,-3,-3,100,1022,-5.9,1.3,-3
3/2/2013 10:00,2.0000016,110,181,ESE,Light Snow,-3,-3,100,1022,-5.9,0.9,-3
3/2/2013 11:00,2.0000016,120,194,ESE,Light Snow,-2,-3,93,1021,-4.8,0.9,-3
3/2/2013 12:00,1.0000008,120,201,ESE,Light Snow,-2,-3,93,1020,-999,0.9,-3
3/2/2013 13:00,1.0000008,0,202,Variable,Light Snow,-2,-2,100,1019,-999,0.8,-2
3/2/2013 14:00,2.0000016,80,223,East,Light Snow,-2,-3,93,1018,-4.8,0.9,-3
3/2/2013 15:00,2.0000016,60,228,ENE,Light Snow,-2,-2,100,1017,-4.8,1,-2
3/2/2013 16:00,1.0000008,30,227,NNE,Light Snow,-2,-2,100,1017,-999,1.1,-2
3/2/2013 17:00,1.0000008,50,227,NE,Overcast,-2,-2,100,1017,-999,1.1,-2
3/2/2013 18:00,2.0000016,20,232,NNE,Overcast,-2,-2,100,1017,-4.8,1.4,-2
3/2/2013 19:00,2.0000016,10,219,North,Overcast,-2,-2,100,1018,-4.8,1.7,-2
3/2/2013 20:00,1.0000008,10,239,North,Overcast,-2,-3,93,1018,-999,1.7,-3
3/2/2013 21:00,3.0000024,350,233,North,Overcast,-2,-3,93,1018,-5.9,1.8,-3
3/2/2013 22:00,3.0000024,360,225,North,Overcast,-5,-6,93,1019,-9.5,1.6,-6
3/2/2013 23:00,3.0000024,360,215,North,Overcast,-6,-7,93,1020,-10.7,1.3,-7
4/2/2013 0:00,3.0000024,10,217,North,Light Freezing Fog,-7,-7,100,1020,-11.9,0.9,-7
4/2/2013 1:00,3.0000024,360,100,North,Mist,-7,-7,100,1022,-11.9,1.4,-7
4/2/2013 2:00,3.0000024,330,25,NNW,Mist,-5,-5,100,1022,-9.5,2.5,-5
4/2/2013 3:00,9.0000072,360,12,North,Unknown,-3,-5,86,1024,-10.6,6,-5
4/2/2013 4:00,8.0000064,360,16,North,Clear,-3,-10,59,1026,-10.2,-9999,-10
4/2/2013 5:00,8.0000064,350,14,North,Clear,-4,-11,59,1027,-11.5,-9999,-11
4/2/2013 6:00,5.000004,360,20,North,Clear,-6,-13,58,1028,-12.4,-9999,-13
4/2/2013 7:00,2.0000016,350,12,North,Clear,-6,-14,54,1030,-9.4,-9999,-14
4/2/2013 8:00,4.0000032,10,18,North,Clear,-7,-15,54,1031,-12.9,-9999,-15
4/2/2013 9:00,3.0000024,20,15,NNE,Clear,-4,-15,43,1032,-8.3,-9999,-15
4/2/2013 10:00,4.0000032,10,18,North,Clear,-3,-14,43,1033,-8,-9999,-14
4/2/2013 11:00,4.0000032,40,21,NE,Clear,-3,-15,40,1033,-8,-9999,-15
4/2/2013 12:00,3.0000024,40,17,NE,Clear,-2,-13,43,1032,-5.9,-9999,-13
4/2/2013 13:00,3.0000024,70,19,ENE,Clear,-1,-13,40,1031,-4.7,-9999,-13
4/2/2013 14:00,3.0000024,60,21,ENE,Clear,0,-14,35,1029,-3.5,-9999,-14
4/2/2013 15:00,3.0000024,50,22,NE,Clear,0,-16,30,1029,-3.5,-9999,-16
4/2/2013 16:00,1.0000008,0,27,Variable,Clear,1,-15,30,1029,-999,-9999,-15
4/2/2013 17:00,2.0000016,170,29,South,Clear,-1,-12,44,1028,-3.6,-9999,-12
4/2/2013 18:00,0,,27,,,,,,,,,
4/2/2013 19:00,4.0000032,180,31,South,Clear,-3,-12,51,1029,-8,-9999,-12
4/2/2013 20:00,3.0000024,190,32,South,Clear,-2,-12,47,1029,-5.9,-9999,-12
4/2/2013 21:00,2.0000016,150,29,SSE,Clear,-3,-12,51,1029,-5.9,-9999,-12
4/2/2013 22:00,1.0000008,160,65,SSE,Clear,-3,-11,55,1028,-999,-9999,-11
4/2/2013 23:00,3.0000024,160,94,SSE,Clear,-3,-8,69,1028,-7.1,-9999,-8
5/2/2013 0:00,3.0000024,150,77,SSE,Clear,-3,-6,80,1027,-7.1,-9999,-6
5/2/2013 1:00,2.0000016,150,60,SSE,Clear,-3,-6,80,1026,-5.9,-9999,-6
5/2/2013 2:00,3.0000024,160,52,SSE,Clear,-3,-6,80,1026,-7.1,-9999,-6
5/2/2013 3:00,2.0000016,100,49,East,Clear,-3,-6,80,1026,-5.9,-9999,-6
5/2/2013 4:00,2.0000016,120,50,ESE,Clear,-4,-6,86,1026,-7.1,-9999,-6
5/2/2013 5:00,2.0000016,120,57,ESE,Clear,-4,-7,80,1025,-7.1,-9999,-7
5/2/2013 6:00,2.0000016,130,72,SE,Clear,-4,-7,80,1024,-7.1,-9999,-7
5/2/2013 7:00,3.0000024,120,85,ESE,Partly Cloudy,-4,-7,80,1024,-8.3,10,-7
5/2/2013 8:00,2.0000016,140,89,SE,Partly Cloudy,-4,-6,86,1025,-7.1,10,-6
5/2/2013 9:00,3.0000024,170,85,South,Light Snow,-3,-5,86,1025,-7.1,3.5,-5
5/2/2013 10:00,2.0000016,200,80,SSW,Light Snow,-3,-4,93,1025,-5.9,1.4,-4
5/2/2013 11:00,3.0000024,200,82,SSW,Light Snow,-3,-3,100,1024,-7.1,2.7,-3
5/2/2013 12:00,1.0000008,0,90,Variable,Overcast,-2,-4,86,1024,-999,4.5,-4
5/2/2013 13:00,2.0000016,0,89,Variable,Overcast,-2,-3,93,1023,-4.8,-9999,-3
5/2/2013 14:00,2.0000016,150,90,SSE,Mostly Cloudy,-2,-3,93,1022,-4.8,-9999,-3
5/2/2013 15:00,2.0000016,0,96,Variable,Mostly Cloudy,-1,-4,80,1022,-3.6,4.5,-4
5/2/2013 16:00,2.0000016,140,99,SE,Mostly Cloudy,-1,-4,80,1022,-3.6,5,-4
5/2/2013 17:00,3.0000024,180,105,South,Mostly Cloudy,-2,-5,80,1022,-5.9,5,-5
5/2/2013 18:00,2.0000016,180,115,South,Unknown,-3,-6,80,1022,-5.9,7,-6
5/2/2013 19:00,3.0000024,210,128,SSW,Unknown,-3,-5,86,1023,-7.1,7,-5
5/2/2013 20:00,2.0000016,170,136,South,Unknown,-4,-6,86,1024,-7.1,8,-6
5/2/2013 21:00,1.0000008,0,148,Variable,Unknown,-6,-7,93,1024,-999,8,-7
5/2/2013 22:00,1.0000008,90,152,East,Unknown,-8,-8,100,1024,-999,7,-8
5/2/2013 23:00,1.0000008,0,156,Variable,Mist,-8,-9,93,1024,-999,5,-9
6/2/2013 0:00,1.0000008,0,192,Variable,Mist,-7,-8,93,1024,-999,3.5,-8
6/2/2013 1:00,2.0000016,50,214,NE,Mist,-10,-11,93,1024,-14.1,2.8,-11
6/2/2013 2:00,2.0000016,360,234,North,Mist,-11,-12,92,1024,-15.3,2.5,-12
6/2/2013 3:00,2.0000016,360,229,North,Mist,-8,-9,93,1024,-11.8,2.5,-9
6/2/2013 4:00,3.0000024,340,212,NNW,Mist,-10,-11,93,1023,-15.5,2.5,-11
6/2/2013 5:00,1.0000008,0,208,Variable,Mist,-9,-9,100,1023,-999,2.8,-9
6/2/2013 6:00,2.0000016,350,227,North,Mist,-11,-12,92,1023,-15.3,2.8,-12
6/2/2013 7:00,3.0000024,350,220,North,Mist,-11,-12,92,1024,-16.7,2.8,-12
6/2/2013 8:00,1.0000008,0,203,Variable,Mist,-9,-10,93,1024,-999,3,-10
6/2/2013 9:00,2.0000016,10,188,North,Mist,-6,-7,93,1025,-9.4,3,-7
6/2/2013 10:00,2.0000016,360,11,North,Mist,-2,-4,86,1025,-4.8,3,-4
6/2/2013 11:00,1.0000008,0,9,Variable,Unknown,2,-5,60,1024,-999,7,-5
6/2/2013 12:00,6.0000048,300,9,WNW,Clear,3,-13,30,1024,-1.6,-9999,-13
6/2/2013 13:00,8.0000064,310,9,NW,Clear,4,-15,24,1023,-1.1,-9999,-15
6/2/2013 14:00,8.0000064,310,6,NW,Clear,4,-19,17,1023,-1.1,-9999,-19
6/2/2013 15:00,9.0000072,350,10,North,Clear,3,-18,20,1024,-2.8,-9999,-18
6/2/2013 16:00,12.0000096,360,8,North,Clear,0,-20,21,1026,-7.6,-9999,-20
6/2/2013 17:00,13.0000104,360,5,North,Clear,-3,-24,19,1027,-12,-9999,-24
6/2/2013 18:00,10.000008,360,8,North,Clear,-5,-24,22,1029,-13.6,-9999,-24
6/2/2013 19:00,11.0000088,360,9,North,Clear,-6,-26,20,1031,-15.3,-9999,-26
6/2/2013 20:00,12.0000096,360,12,North,Clear,-8,-26,23,1033,-18.4,-9999,-26
6/2/2013 21:00,10.000008,340,9,NNW,Clear,-8,-26,23,1033,-17.6,-9999,-26
6/2/2013 22:00,6.0000048,350,9,North,Clear,-9,-25,27,1034,-16.9,-9999,-25
6/2/2013 23:00,9.0000072,340,9,NNW,Clear,-9,-27,23,1035,-18.5,-9999,-27
7/2/2013 0:00,10.000008,330,7,NNW,Clear,-10,-29,21,1036,-20.3,-9999,-29
7/2/2013 1:00,8.0000064,330,7,NNW,Clear,-10,-28,22,1036,-19.3,-9999,-28
7/2/2013 2:00,6.0000048,350,7,North,Clear,-11,-26,29,1037,-19.4,-9999,-26
7/2/2013 3:00,2.0000016,30,6,NNE,Clear,-13,-26,34,1037,-17.6,-9999,-26
7/2/2013 4:00,4.0000032,360,9,North,Clear,-14,-25,40,1037,-21.5,-9999,-25
7/2/2013 5:00,3.0000024,30,8,NNE,Clear,-15,-25,43,1037,-21.5,-9999,-25
7/2/2013 6:00,3.0000024,30,11,NNE,Clear,-13,-27,31,1038,-19.1,-9999,-27
7/2/2013 7:00,3.0000024,20,11,NNE,Clear,-16,-26,43,1039,-22.7,-9999,-26
7/2/2013 8:00,4.0000032,360,8,North,Clear,-14,-26,37,1040,-21.5,-9999,-26
7/2/2013 9:00,4.0000032,360,10,North,Clear,-12,-26,31,1040,-19,-9999,-26
7/2/2013 10:00,6.0000048,20,10,NNE,Clear,-11,-27,27,1040,-19.4,-9999,-27
7/2/2013 11:00,4.0000032,30,15,NNE,Clear,-9,-27,23,1040,-15.3,-9999,-27
7/2/2013 12:00,3.0000024,350,13,North,Clear,-8,-26,23,1040,-13.1,-9999,-26
7/2/2013 13:00,4.0000032,20,11,NNE,Clear,-7,-25,23,1039,-12.9,-9999,-25
7/2/2013 14:00,3.0000024,30,10,NNE,Clear,-5,-25,20,1038,-9.5,-9999,-25
7/2/2013 15:00,3.0000024,70,9,ENE,Clear,-5,-23,24,1037,-9.5,-9999,-23
7/2/2013 16:00,2.0000016,30,12,NNE,Clear,-4,-23,22,1036,-7.1,-9999,-23
7/2/2013 17:00,2.0000016,30,18,NNE,Clear,-5,-23,24,1037,-8.3,-9999,-23
7/2/2013 18:00,3.0000024,10,24,North,Clear,-9,-22,35,1037,-14.3,-9999,-22
7/2/2013 19:00,3.0000024,20,18,NNE,Clear,-9,-22,35,1038,-14.3,-9999,-22
7/2/2013 20:00,3.0000024,20,18,NNE,Clear,-8,-22,32,1039,-13.1,-9999,-22
7/2/2013 21:00,4.0000032,40,20,NE,Clear,-8,-23,30,1040,-14.1,-9999,-23
7/2/2013 22:00,5.000004,20,27,NNE,Clear,-8,-23,30,1040,-14.9,-9999,-23
7/2/2013 23:00,5.000004,30,15,NNE,Clear,-9,-24,30,1041,-16.2,-9999,-24
8/2/2013 0:00,5.000004,30,10,NNE,Clear,-9,-24,30,1040,-16.2,-9999,-24
8/2/2013 1:00,3.0000024,30,12,NNE,Clear,-10,-23,35,1040,-15.5,-9999,-23
8/2/2013 2:00,3.0000024,30,9,NNE,Clear,-10,-24,32,1040,-15.5,-9999,-24
8/2/2013 3:00,2.0000016,30,13,NNE,Clear,-10,-24,32,1040,-14.1,-9999,-24
8/2/2013 4:00,3.0000024,10,11,North,Clear,-12,-23,41,1039,-17.9,-9999,-23
8/2/2013 5:00,2.0000016,350,10,North,Clear,-13,-22,48,1039,-17.6,-9999,-22
8/2/2013 6:00,3.0000024,350,15,North,Clear,-13,-21,52,1039,-19.1,-9999,-21
8/2/2013 7:00,1.0000008,0,19,Variable,Clear,-13,-22,48,1039,-999,-9999,-22
8/2/2013 8:00,1.0000008,20,26,NNE,Clear,-13,-20,57,1038,-999,-9999,-20
8/2/2013 9:00,2.0000016,360,26,North,Clear,-9,-21,38,1039,-12.9,-9999,-21
8/2/2013 10:00,1.0000008,0,15,Variable,Clear,-7,-22,30,1038,-999,-9999,-22
8/2/2013 11:00,2.0000016,120,26,ESE,Clear,-6,-23,26,1038,-9.4,-9999,-23
8/2/2013 12:00,2.0000016,150,48,SSE,Clear,-5,-22,26,1037,-8.3,-9999,-22
8/2/2013 13:00,2.0000016,0,64,Variable,Clear,-5,-22,26,1035,-8.3,-9999,-22
8/2/2013 14:00,1.0000008,0,56,Variable,Clear,-3,-20,26,1034,-999,-9999,-20
8/2/2013 15:00,3.0000024,130,57,SE,Clear,-3,-19,29,1033,-7.1,-9999,-19
8/2/2013 16:00,3.0000024,200,66,SSW,Clear,-3,-19,29,1032,-7.1,-9999,-19
8/2/2013 17:00,4.0000032,190,106,South,Clear,-4,-17,36,1032,-9.2,-9999,-17
8/2/2013 18:00,3.0000024,200,166,SSW,Clear,-5,-16,43,1032,-9.5,-9999,-16
8/2/2013 19:00,3.0000024,0,174,Variable,Clear,-5,-15,46,1032,-9.5,-9999,-15
8/2/2013 20:00,1.0000008,0,152,Variable,Clear,-6,-14,54,1031,-999,-9999,-14
8/2/2013 21:00,1.0000008,0,144,Variable,Clear,-8,-13,68,1031,-999,-9999,-13
8/2/2013 22:00,3.0000024,150,115,SSE,Clear,-8,-14,63,1030,-13.1,-9999,-14
8/2/2013 23:00,2.0000016,160,108,SSE,Clear,-8,-14,63,1030,-11.8,-9999,-14
9/2/2013 0:00,2.0000016,150,111,SSE,Clear,-8,-14,63,1030,-11.8,-9999,-14
9/2/2013 1:00,2.0000016,160,111,SSE,Clear,-8,-14,63,1029,-11.8,-9999,-14
9/2/2013 2:00,2.0000016,150,125,SSE,Clear,-9,-14,68,1029,-12.9,-9999,-14
9/2/2013 3:00,2.0000016,140,128,SE,Unknown,-9,-14,68,1028,-12.9,8,-14
9/2/2013 4:00,1.0000008,0,156,Variable,Unknown,-11,-15,73,1027,-999,8,-15
9/2/2013 5:00,1.0000008,50,168,NE,Unknown,-12,-15,79,1027,-999,7,-15
9/2/2013 6:00,1.0000008,80,175,East,Unknown,-12,-15,79,1026,-999,6,-15
9/2/2013 7:00,1.0000008,50,172,NE,Mist,-13,-15,85,1026,-999,5,-15
9/2/2013 8:00,1.0000008,50,192,NE,Mist,-11,-13,85,1026,-999,4.5,-13
9/2/2013 9:00,2.0000016,20,185,NNE,Haze,-9,-13,73,1026,-12.9,4.5,-13
9/2/2013 10:00,2.0000016,10,184,North,Unknown,-6,-13,58,1026,-9.4,6,-13
9/2/2013 11:00,2.0000016,20,172,NNE,Unknown,-4,-13,50,1026,-7.1,6,-13
9/2/2013 12:00,3.0000024,10,167,North,Unknown,-2,-14,40,1025,-5.9,6,-14
9/2/2013 13:00,2.0000016,30,155,NNE,Unknown,0,-13,38,1024,-2.5,6,-13
9/2/2013 14:00,1.0000008,0,163,Variable,Unknown,2,-14,30,1023,-999,8,-14
9/2/2013 15:00,2.0000016,220,156,SW,Unknown,2,-14,30,1022,-0.1,8,-14
9/2/2013 16:00,1.0000008,0,161,Variable,Unknown,3,-14,28,1023,-999,8,-14
9/2/2013 17:00,2.0000016,210,175,SSW,Unknown,1,-13,35,1023,-1.3,7,-13
9/2/2013 18:00,3.0000024,230,210,SW,Unknown,1,-14,32,1024,-2.3,6,-14
9/2/2013 19:00,2.0000016,300,282,WNW,Unknown,-1,-12,44,1024,-3.6,7,-12
9/2/2013 20:00,2.0000016,290,428,WNW,Unknown,-1,-11,47,1025,-3.6,6,-11
9/2/2013 21:00,3.0000024,360,512,North,Haze,-5,-12,59,1026,-9.5,5,-12
9/2/2013 22:00,2.0000016,60,167,ENE,Clear,-2,-16,34,1027,-4.8,-9999,-16
9/2/2013 23:00,4.0000032,50,71,NE,Clear,-3,-17,34,1027,-8,-9999,-17
10/2/2013 0:00,3.0000024,40,419,NE,Clear,-3,-18,31,1028,-7.1,-9999,-18
10/2/2013 1:00,2.0000016,20,209,NNE,Clear,-5,-18,36,1028,-8.3,-9999,-18
10/2/2013 2:00,2.0000016,10,185,North,Clear,-7,-16,49,1028,-10.6,-9999,-16
10/2/2013 3:00,2.0000016,360,78,North,Clear,-6,-15,50,1028,-9.4,-9999,-15
10/2/2013 4:00,2.0000016,40,23,NE,Clear,-4,-18,34,1028,-7.1,-9999,-18
10/2/2013 5:00,3.0000024,30,17,NNE,Clear,-4,-19,31,1029,-8.3,-9999,-19
10/2/2013 6:00,5.000004,30,10,NNE,Clear,-4,-19,31,1029,-9.9,-9999,-19
10/2/2013 7:00,5.000004,30,17,NNE,Clear,-4,-19,31,1030,-9.9,-9999,-19
10/2/2013 8:00,4.0000032,40,20,NE,Clear,-4,-18,34,1030,-9.2,-9999,-18
10/2/2013 9:00,4.0000032,40,25,NE,Clear,-3,-18,31,1032,-8,-9999,-18
10/2/2013 10:00,6.0000048,40,20,NE,Clear,-3,-19,29,1032,-9.3,-9999,-19
10/2/2013 11:00,5.000004,30,16,NNE,Clear,-2,-19,27,1032,-7.4,-9999,-19
10/2/2013 12:00,5.000004,40,20,NE,Clear,0,-19,23,1032,-4.9,-9999,-19
10/2/2013 13:00,5.000004,50,14,NE,Clear,0,-20,21,1031,-4.9,-9999,-20
10/2/2013 14:00,3.0000024,40,13,NE,Clear,0,-22,18,1031,-3.5,-9999,-22
10/2/2013 15:00,3.0000024,20,16,NNE,Clear,0,-23,17,1031,-3.5,-9999,-23
10/2/2013 16:00,3.0000024,10,16,North,Clear,1,-24,14,1031,-2.3,-9999,-24
10/2/2013 17:00,2.0000016,360,14,North,Clear,0,-23,17,1031,-2.5,-9999,-23
10/2/2013 18:00,3.0000024,360,23,North,Clear,-2,-19,27,1031,-5.9,-9999,-19
10/2/2013 19:00,3.0000024,340,31,NNW,Clear,-3,-20,26,1031,-7.1,-9999,-20
10/2/2013 20:00,2.0000016,350,58,North,Clear,-5,-19,33,1032,-8.3,-9999,-19
10/2/2013 21:00,2.0000016,340,67,NNW,Clear,-5,-19,33,1033,-8.3,-9999,-19
10/2/2013 22:00,2.0000016,350,70,North,Clear,-6,-18,39,1033,-9.4,-9999,-18
10/2/2013 23:00,1.0000008,0,55,Variable,Clear,-8,-17,49,1034,-999,-9999,-17
11/2/2013 0:00,2.0000016,20,36,NNE,Clear,-8,-19,42,1034,-11.8,-9999,-19
11/2/2013 1:00,4.0000032,20,21,NNE,Clear,-6,-19,36,1034,-11.6,-9999,-19
11/2/2013 2:00,1.0000008,0,20,Variable,Clear,-7,-20,36,1034,-999,-9999,-20
11/2/2013 3:00,2.0000016,40,21,NE,Clear,-7,-19,39,1034,-10.6,-9999,-19
11/2/2013 4:00,1.0000008,0,17,Variable,Clear,-9,-17,53,1034,-999,-9999,-17
11/2/2013 5:00,2.0000016,10,41,North,Clear,-7,-16,49,1035,-10.6,-9999,-16
11/2/2013 6:00,2.0000016,10,46,North,Clear,-7,-17,46,1034,-10.6,-9999,-17
11/2/2013 7:00,2.0000016,360,23,North,Clear,-9,-17,53,1034,-12.9,-9999,-17
11/2/2013 8:00,3.0000024,360,24,North,Scattered Clouds,-7,-18,42,1035,-11.9,10,-18
11/2/2013 9:00,3.0000024,360,36,North,Partly Cloudy,-6,-18,39,1035,-10.7,10,-18
11/2/2013 10:00,2.0000016,50,43,NE,Clear,-5,-17,39,1035,-8.3,-9999,-17
11/2/2013 11:00,1.0000008,0,59,Variable,Clear,-4,-13,50,1035,-999,-9999,-13
11/2/2013 12:00,1.0000008,0,77,Variable,Unknown,-3,-11,55,1034,-999,8,-11
11/2/2013 13:00,2.0000016,150,93,SSE,Unknown,-2,-11,51,1033,-4.8,8,-11
11/2/2013 14:00,2.0000016,240,103,WSW,Unknown,-2,-10,55,1032,-4.8,6,-10
11/2/2013 15:00,2.0000016,160,100,SSE,Unknown,-1,-10,51,1031,-3.6,6,-10
11/2/2013 16:00,4.0000032,200,87,SSW,Unknown,-1,-11,47,1031,-5.5,7,-11
11/2/2013 17:00,3.0000024,200,107,SSW,Unknown,-1,-12,44,1030,-4.7,7,-12
11/2/2013 18:00,2.0000016,190,124,South,Unknown,-2,-12,47,1030,-4.8,7,-12
11/2/2013 19:00,1.0000008,0,121,Variable,Unknown,-2,-11,51,1030,-999,7,-11
11/2/2013 20:00,1.0000008,0,113,Variable,Unknown,-3,-10,59,1030,-999,7,-10
11/2/2013 21:00,1.0000008,100,113,East,Unknown,-4,-9,69,1031,-999,6,-9
11/2/2013 22:00,1.0000008,20,75,NNE,Unknown,-4,-9,69,1030,-999,6,-9
11/2/2013 23:00,0,0,67,North,Mist,-5,-9,74,1030,-999,5,-9
12/2/2013 0:00,1.0000008,90,68,East,Mist,-5,-9,74,1029,-999,4,-9
12/2/2013 1:00,0,0,78,North,Mist,-6,-9,80,1029,-999,4,-9
12/2/2013 2:00,1.0000008,0,145,Variable,Mist,-6,-9,80,1029,-999,3.5,-9
12/2/2013 3:00,3.0000024,360,129,North,Light Snow,-4,-9,69,1029,-8.3,4,-9
12/2/2013 4:00,1.0000008,0,132,Variable,Mist,-6,-8,86,1028,-999,4,-8
12/2/2013 5:00,2.0000016,180,130,South,Mist,-8,-10,86,1027,-11.8,4,-10
12/2/2013 6:00,0,,138,,,,,,,,,
12/2/2013 7:00,1.0000008,170,133,South,Mist,-9,-10,93,1027,-999,-9999,-10
12/2/2013 8:00,2.0000016,60,70,ENE,Mist,-8,-9,93,1027,-11.8,2.8,-9
12/2/2013 9:00,2.0000016,60,83,ENE,Mist,-3,-7,74,1028,-5.9,5,-7
12/2/2013 10:00,1.0000008,0,38,Variable,Haze,-1,-7,64,1028,-999,3.5,-7
12/2/2013 11:00,1.0000008,0,94,Variable,Clear,3,-14,28,1027,-999,-9999,-14
12/2/2013 12:00,4.0000032,300,78,WNW,Clear,4,-19,17,1026,0.6,-9999,-19
12/2/2013 13:00,7.0000056,280,101,West,Clear,5,-19,16,1025,0.5,-9999,-19
12/2/2013 14:00,6.0000048,290,71,WNW,Clear,6,-20,14,1024,2.2,-9999,-20
12/2/2013 15:00,7.0000056,210,71,SSW,Clear,5,-16,21,1023,0.5,-9999,-16
12/2/2013 16:00,7.0000056,210,115,SSW,Clear,4,-17,21,1023,-0.8,-9999,-17
12/2/2013 17:00,6.0000048,220,123,SW,Clear,3,-16,24,1023,-1.6,-9999,-16
12/2/2013 18:00,5.000004,210,163,SSW,Clear,2,-13,33,1023,-2.4,-9999,-13
12/2/2013 19:00,4.0000032,200,162,SSW,Unknown,1,-12,38,1024,-3,7,-12
12/2/2013 20:00,5.000004,200,167,SSW,Unknown,1,-10,44,1024,-3.7,6,-10
12/2/2013 21:00,3.0000024,200,183,SSW,Unknown,1,-10,44,1024,-2.3,6,-10
12/2/2013 22:00,3.0000024,200,190,SSW,Unknown,0,-8,55,1024,-3.5,6,-8
12/2/2013 23:00,3.0000024,170,197,South,Unknown,-2,-7,69,1024,-5.9,6,-7
13/2/2013 0:00,2.0000016,140,229,SE,Haze,-5,-9,74,1024,-8.3,5,-9
13/2/2013 1:00,2.0000016,80,246,East,Haze,-4,-7,80,1023,-7.1,3.5,-7
13/2/2013 2:00,1.0000008,0,263,Variable,Mist,-6,-8,86,1023,-999,3,-8
13/2/2013 3:00,1.0000008,0,267,Variable,Mist,-6,-8,86,1023,-999,3,-8
13/2/2013 4:00,2.0000016,60,282,ENE,Mist,-7,-8,93,1022,-10.6,3,-8
13/2/2013 5:00,1.0000008,80,290,East,Mist,-6,-7,93,1022,-999,3,-7
13/2/2013 6:00,1.0000008,90,304,East,Mist,-7,-8,93,1022,-999,3,-8
13/2/2013 7:00,1.0000008,0,307,Variable,Mist,-8,-8,100,1022,-999,2,-8
13/2/2013 8:00,1.0000008,0,326,Variable,Mist,-9,-10,93,1023,-999,1.5,-10
13/2/2013 9:00,2.0000016,110,352,ESE,Mist,-5,-6,93,1023,-8.3,1.2,-6
13/2/2013 10:00,1.0000008,0,341,Variable,Mist,-3,-5,86,1023,-999,1.2,-5
13/2/2013 11:00,1.0000008,0,344,Variable,Mist,0,-5,69,1023,-999,1.3,-5
13/2/2013 12:00,2.0000016,130,365,SE,Haze,1,-5,65,1022,-1.3,2,-5
13/2/2013 13:00,2.0000016,180,348,South,Haze,3,-6,52,1021,1,2.2,-6
13/2/2013 14:00,3.0000024,190,330,South,Haze,4,-6,49,1020,1.3,2.3,-6
13/2/2013 15:00,3.0000024,170,334,South,Haze,5,-6,45,1019,2.5,2.3,-6
13/2/2013 16:00,4.0000032,180,320,South,Haze,5,-6,45,1019,1.9,2.3,-6
13/2/2013 17:00,3.0000024,190,292,South,Haze,4,-6,49,1019,1.3,2.3,-6
13/2/2013 18:00,3.0000024,170,312,South,Haze,2,-7,52,1020,-1.1,3,-7
13/2/2013 19:00,2.0000016,90,296,East,Haze,-2,-6,74,1021,-4.8,3.5,-6
13/2/2013 20:00,2.0000016,80,293,East,Mist,-3,-6,80,1022,-5.9,3.5,-6
13/2/2013 21:00,2.0000016,80,344,East,Mist,-2,-5,80,1022,-4.8,-9999,-5
13/2/2013 22:00,1.0000008,120,384,ESE,Mist,-4,-6,86,1023,-999,-9999,-6
13/2/2013 23:00,2.0000016,350,392,North,Mist,-5,-6,93,1023,-8.3,-9999,-6
14/2/2013 0:00,4.0000032,360,374,North,Mist,-4,-6,86,1023,-9.2,-9999,-6
14/2/2013 1:00,3.0000024,30,208,NNE,Unknown,-2,-7,69,1023,-5.9,8,-7
14/2/2013 2:00,4.0000032,20,143,NNE,Clear,0,-11,44,1024,-4.3,-9999,-11
14/2/2013 3:00,4.0000032,20,38,NNE,Clear,0,-11,44,1024,-4.3,-9999,-11
14/2/2013 4:00,6.0000048,20,15,NNE,Clear,0,-13,38,1024,-5.4,-9999,-13
14/2/2013 5:00,6.0000048,20,9,NNE,Clear,0,-14,35,1025,-5.4,-9999,-14
14/2/2013 6:00,7.0000056,20,11,NNE,Clear,-1,-13,40,1025,-7.2,-9999,-13
14/2/2013 7:00,6.0000048,30,13,NNE,Clear,-1,-14,37,1026,-6.7,-9999,-14
14/2/2013 8:00,6.0000048,30,13,NNE,Clear,-1,-14,37,1026,-6.7,-9999,-14
14/2/2013 9:00,6.0000048,30,15,NNE,Clear,-1,-15,34,1027,-6.7,-9999,-15
14/2/2013 10:00,6.0000048,20,,NNE,Clear,1,-19,22,1028,-4.2,-9999,-19
14/2/2013 11:00,5.000004,20,9,NNE,Clear,1,-20,20,1028,-3.7,-9999,-20
14/2/2013 12:00,5.000004,40,7,NE,Clear,1,-22,17,1027,-3.7,-9999,-22
14/2/2013 13:00,4.0000032,40,9,NE,Clear,2,-23,14,1026,-1.8,-9999,-23
14/2/2013 14:00,3.0000024,30,14,NNE,Clear,2,-24,13,1026,-1.1,-9999,-24
14/2/2013 15:00,2.0000016,20,18,NNE,Clear,3,-23,13,1025,1,-9999,-23
14/2/2013 16:00,1.0000008,0,16,Variable,Clear,3,-23,13,1026,-999,-9999,-23
14/2/2013 17:00,1.0000008,0,21,Variable,Clear,3,-23,13,1026,-999,-9999,-23
14/2/2013 18:00,1.0000008,0,22,Variable,Clear,1,-20,20,1027,-999,-9999,-20
14/2/2013 19:00,1.0000008,0,54,Variable,Clear,0,-16,30,1028,-999,-9999,-16
14/2/2013 20:00,2.0000016,210,126,SSW,Clear,1,-21,18,1028,-1.3,-9999,-21
14/2/2013 21:00,2.0000016,0,237,Variable,Clear,1,-21,18,1029,-1.3,-9999,-21
14/2/2013 22:00,4.0000032,320,197,NW,Clear,0,-17,27,1030,-4.3,-9999,-17
14/2/2013 23:00,3.0000024,350,48,North,Clear,-4,-16,40,1030,-8.3,-9999,-16
15/2/2013 0:00,4.0000032,340,17,NNW,Clear,-4,-16,40,1031,-9.2,-9999,-16
15/2/2013 1:00,4.0000032,340,12,NNW,Clear,-3,-17,34,1031,-8,-9999,-17
15/2/2013 2:00,4.0000032,330,15,NNW,Clear,-5,-17,39,1030,-10.4,-9999,-17
15/2/2013 3:00,4.0000032,310,16,NW,Clear,-3,-18,31,1030,-8,-9999,-18
15/2/2013 4:00,3.0000024,340,17,NNW,Clear,-6,-18,39,1030,-10.7,-9999,-18
15/2/2013 5:00,2.0000016,350,14,North,Clear,-8,-18,45,1030,-11.8,-9999,-18
15/2/2013 6:00,3.0000024,360,12,North,Clear,-10,-18,53,1030,-15.5,-9999,-18
15/2/2013 7:00,4.0000032,10,16,North,Clear,-11,-17,62,1030,-17.8,-9999,-17
15/2/2013 8:00,3.0000024,10,16,North,Clear,-5,-16,43,1030,-9.5,-9999,-16
15/2/2013 9:00,2.0000016,140,11,SE,Clear,-2,-17,31,1031,-4.8,-9999,-17
15/2/2013 10:00,1.0000008,0,26,Variable,Clear,0,-20,21,1030,-999,-9999,-20
15/2/2013 11:00,1.0000008,0,27,Variable,Clear,1,-22,17,1030,-999,-9999,-22
15/2/2013 12:00,2.0000016,0,47,Variable,Clear,3,-21,16,1029,1,-9999,-21
15/2/2013 13:00,3.0000024,200,75,SSW,Clear,3,-19,19,1028,0.1,-9999,-19
15/2/2013 14:00,5.000004,180,66,South,Clear,3,-14,28,1027,-1.2,-9999,-14
15/2/2013 15:00,6.0000048,200,54,SSW,Clear,3,-12,33,1026,-1.6,-9999,-12
15/2/2013 16:00,6.0000048,220,59,SW,Clear,2,-13,33,1025,-2.9,-9999,-13
15/2/2013 17:00,4.0000032,190,69,South,Clear,1,-12,38,1025,-3,-9999,-12
15/2/2013 18:00,4.0000032,180,63,South,Clear,-1,-10,51,1025,-5.5,-9999,-10
15/2/2013 19:00,2.0000016,170,57,South,Clear,-1,-10,51,1025,-3.6,-9999,-10
15/2/2013 20:00,2.0000016,160,66,SSE,Clear,-2,-10,55,1025,-4.8,-9999,-10
15/2/2013 21:00,4.0000032,180,75,South,Clear,-1,-10,51,1026,-5.5,-9999,-10
15/2/2013 22:00,3.0000024,160,77,SSE,Clear,-3,-10,59,1026,-7.1,-9999,-10
15/2/2013 23:00,3.0000024,140,66,SE,Clear,-3,-10,59,1025,-7.1,-9999,-10
16/2/2013 0:00,3.0000024,150,87,SSE,Unknown,-3,-11,55,1025,-7.1,8,-11
16/2/2013 1:00,2.0000016,140,96,SE,Unknown,-4,-11,59,1025,-7.1,8,-11
16/2/2013 2:00,1.0000008,0,75,Variable,Clear,-5,-11,63,1025,-999,-9999,-11
16/2/2013 3:00,1.0000008,50,80,NE,Clear,-8,-12,73,1025,-999,-9999,-12
16/2/2013 4:00,1.0000008,40,78,NE,Clear,-7,-11,74,1024,-999,-9999,-11
16/2/2013 5:00,1.0000008,90,81,East,Clear,-6,-11,68,1024,-999,-9999,-11
16/2/2013 6:00,1.0000008,0,86,Variable,Clear,-6,-12,63,1024,-999,-9999,-12
16/2/2013 7:00,2.0000016,90,112,East,Clear,-6,-12,63,1024,-9.4,-9999,-12
16/2/2013 8:00,1.0000008,0,97,Variable,Clear,-5,-11,63,1024,-999,-9999,-11
16/2/2013 9:00,1.0000008,0,118,Variable,Clear,-3,-10,59,1024,-999,-9999,-10
16/2/2013 10:00,1.0000008,0,121,Variable,Clear,-1,-9,55,1024,-999,-9999,-9
16/2/2013 11:00,2.0000016,160,135,SSE,Mostly Cloudy,-1,-7,64,1024,-3.6,10,-7
16/2/2013 12:00,1.0000008,0,139,Variable,Mostly Cloudy,1,-7,56,1023,-999,10,-7
16/2/2013 13:00,2.0000016,90,144,East,Scattered Clouds,2,-7,52,1021,-0.1,8,-7
16/2/2013 14:00,2.0000016,110,149,ESE,Unknown,2,-7,52,1021,-0.1,7,-7
16/2/2013 15:00,2.0000016,150,159,SSE,Unknown,3,-7,48,1020,1,7,-7
16/2/2013 16:00,3.0000024,160,167,SSE,Unknown,2,-6,56,1020,-1.1,6,-6
16/2/2013 17:00,4.0000032,130,167,SE,Haze,1,-6,60,1020,-3,5,-6
16/2/2013 18:00,3.0000024,140,192,SE,Haze,1,-5,65,1019,-2.3,5,-5
16/2/2013 19:00,3.0000024,160,208,SSE,Haze,1,-5,65,1020,-2.3,5,-5
16/2/2013 20:00,3.0000024,190,227,South,Haze,1,-5,65,1020,-2.3,5,-5
16/2/2013 21:00,3.0000024,190,241,South,Haze,1,-4,70,1020,-2.3,5,-4
16/2/2013 22:00,2.0000016,120,259,ESE,Haze,0,-4,75,1019,-2.5,5,-4
16/2/2013 23:00,1.0000008,0,271,Variable,Mist,0,-4,75,1019,-999,5,-4
17/2/2013 0:00,2.0000016,160,281,SSE,Mist,0,-3,80,1019,-2.5,5,-3
17/2/2013 1:00,1.0000008,110,296,ESE,Mist,0,-2,87,1019,-999,4,-2
17/2/2013 2:00,1.0000008,0,220,Variable,Mist,-1,-2,93,1018,-999,3,-2
17/2/2013 3:00,1.0000008,0,255,Variable,Mist,-1,-1,100,1018,-999,2,-1
17/2/2013 4:00,1.0000008,0,253,Variable,Mist,-1,-2,93,1018,-999,1.7,-2
17/2/2013 5:00,1.0000008,130,247,SE,Light Freezing Fog,-3,-3,100,1017,-999,0.9,-3
17/2/2013 6:00,1.0000008,0,274,Variable,Light Freezing Fog,-3,-3,100,1017,-999,0.4,-3
17/2/2013 7:00,1.0000008,0,276,Variable,Light Freezing Fog,-3,-3,100,1018,-999,0,-3
17/2/2013 8:00,4.0000032,350,231,North,Mostly Cloudy,-4,-5,93,1019,-9.2,1.1,-5
17/2/2013 9:00,3.0000024,330,215,NNW,Light Freezing Fog,-2,-2,100,1020,-5.9,0.8,-2
17/2/2013 10:00,3.0000024,360,167,North,Mostly Cloudy,0,-1,93,1020,-3.5,1.5,-1
17/2/2013 11:00,2.0000016,0,74,Variable,Haze,3,-9,41,1020,1,4,-9
17/2/2013 12:00,8.0000064,320,22,NW,Clear,5,-16,21,1020,0.2,-9999,-16
17/2/2013 13:00,7.0000056,310,14,NW,Clear,6,-21,13,1019,1.8,-9999,-21
17/2/2013 14:00,7.0000056,350,13,North,Clear,6,-25,9,1019,1.8,-9999,-25
17/2/2013 15:00,7.0000056,360,12,North,Clear,6,-23,11,1019,1.8,-9999,-23
17/2/2013 16:00,10.000008,350,11,North,Clear,5,-24,11,1020,-0.4,-9999,-24
17/2/2013 17:00,6.0000048,350,10,North,Clear,4,-22,14,1021,-0.4,-9999,-22
17/2/2013 18:00,8.0000064,360,12,North,Clear,3,-21,16,1022,-2.4,-9999,-21
17/2/2013 19:00,6.0000048,360,20,North,Clear,2,-20,18,1023,-2.9,-9999,-20
17/2/2013 20:00,5.000004,10,8,North,Clear,2,-18,22,1023,-2.4,-9999,-18
17/2/2013 21:00,4.0000032,10,21,North,Clear,1,-18,23,1025,-3,-9999,-18
17/2/2013 22:00,4.0000032,30,26,NNE,Clear,1,-18,23,1026,-3,-9999,-18
17/2/2013 23:00,3.0000024,30,19,NNE,Clear,0,-16,30,1027,-3.5,-9999,-16
18/2/2013 0:00,3.0000024,50,14,NE,Clear,0,-16,30,1027,-3.5,-9999,-16
18/2/2013 1:00,2.0000016,60,14,ENE,Clear,-1,-16,32,1027,-3.6,-9999,-16
18/2/2013 2:00,3.0000024,20,10,NNE,Clear,-2,-15,37,1027,-5.9,-9999,-15
18/2/2013 3:00,3.0000024,20,10,NNE,Clear,-3,-15,40,1027,-7.1,-9999,-15
18/2/2013 4:00,4.0000032,10,11,North,Clear,-4,-15,43,1027,-9.2,-9999,-15
18/2/2013 5:00,3.0000024,20,12,NNE,Clear,-3,-15,40,1028,-7.1,-9999,-15
18/2/2013 6:00,1.0000008,350,15,North,Clear,-4,-15,43,1028,-999,-9999,-15
18/2/2013 7:00,2.0000016,20,13,NNE,Clear,-5,-14,50,1028,-8.3,-9999,-14
18/2/2013 8:00,2.0000016,30,16,NNE,Clear,-3,-13,47,1028,-5.9,-9999,-13
18/2/2013 9:00,1.0000008,0,15,Variable,Clear,0,-15,32,1029,-999,-9999,-15
18/2/2013 10:00,2.0000016,150,18,SSE,Clear,1,-18,23,1029,-1.3,-9999,-18
18/2/2013 11:00,2.0000016,0,19,Variable,Clear,2,-18,22,1028,-0.1,-9999,-18
18/2/2013 12:00,2.0000016,0,23,Variable,Clear,3,-19,19,1027,1,-9999,-19
18/2/2013 13:00,2.0000016,0,34,Variable,Clear,4,-21,15,1026,2.2,-9999,-21
18/2/2013 14:00,3.0000024,210,31,SSW,Clear,4,-19,17,1025,1.3,-9999,-19
18/2/2013 15:00,4.0000032,200,38,SSW,Clear,4,-19,17,1025,0.6,-9999,-19
18/2/2013 16:00,5.000004,200,41,SSW,Clear,4,-15,24,1025,0.1,-9999,-15
18/2/2013 17:00,4.0000032,160,52,SSE,Clear,3,-15,26,1025,-0.6,-9999,-15
18/2/2013 18:00,1.0000008,0,52,Variable,Clear,1,-15,30,1025,-999,-9999,-15
18/2/2013 19:00,5.000004,360,46,North,Clear,0,-20,21,1027,-4.9,-9999,-20
18/2/2013 20:00,4.0000032,10,13,North,Clear,0,-18,25,1028,-4.3,-9999,-18
18/2/2013 21:00,5.000004,360,22,North,Clear,-2,-16,34,1028,-7.4,-9999,-16
18/2/2013 22:00,6.0000048,360,9,North,Clear,-2,-18,29,1029,-8,-9999,-18
18/2/2013 23:00,4.0000032,360,9,North,Clear,-4,-20,28,1030,-9.2,-9999,-20
19/2/2013 0:00,7.0000056,350,6,North,Clear,-4,-20,28,1030,-11,-9999,-20
19/2/2013 1:00,6.0000048,350,5,North,Clear,-5,-20,31,1030,-11.8,-9999,-20
19/2/2013 2:00,5.000004,360,8,North,Clear,-7,-20,36,1030,-13.7,-9999,-20
19/2/2013 3:00,3.0000024,20,8,NNE,Clear,-7,-21,33,1031,-11.9,-9999,-21
19/2/2013 4:00,4.0000032,10,12,North,Clear,-7,-20,36,1030,-12.9,-9999,-20
19/2/2013 5:00,4.0000032,10,9,North,Clear,-8,-20,38,1030,-14.1,-9999,-20
19/2/2013 6:00,3.0000024,20,9,NNE,Clear,-8,-22,32,1031,-13.1,-9999,-22
19/2/2013 7:00,5.000004,30,11,NNE,Clear,-7,-23,28,1031,-13.7,-9999,-23
19/2/2013 8:00,4.0000032,30,13,NNE,Clear,-6,-22,28,1032,-11.6,-9999,-22
19/2/2013 9:00,3.0000024,80,24,East,Clear,-4,-23,22,1032,-8.3,-9999,-23
19/2/2013 10:00,2.0000016,20,14,NNE,Clear,-2,-23,19,1032,-4.8,-9999,-23
19/2/2013 11:00,2.0000016,340,18,NNW,Clear,-1,-24,16,1032,-3.6,-9999,-24
19/2/2013 12:00,2.0000016,60,30,ENE,Clear,0,-24,15,1031,-2.5,-9999,-24
19/2/2013 13:00,3.0000024,200,31,SSW,Clear,1,-26,12,1030,-2.3,-9999,-26
19/2/2013 14:00,5.000004,210,41,SSW,Clear,1,-24,14,1029,-3.7,-9999,-24
19/2/2013 15:00,6.0000048,200,39,SSW,Clear,2,-22,16,1028,-2.9,-9999,-22
19/2/2013 16:00,5.000004,200,42,SSW,Clear,1,-21,18,1027,-3.7,-9999,-21
19/2/2013 17:00,5.000004,200,45,SSW,Clear,1,-19,22,1027,-3.7,-9999,-19
19/2/2013 18:00,4.0000032,190,57,South,Clear,-1,-16,32,1027,-5.5,-9999,-16
19/2/2013 19:00,3.0000024,200,62,SSW,Clear,-2,-15,37,1028,-5.9,-9999,-15
19/2/2013 20:00,2.0000016,190,72,South,Clear,-1,-14,37,1028,-3.6,-9999,-14
19/2/2013 21:00,2.0000016,180,68,South,Clear,-2,-13,43,1028,-4.8,-9999,-13
19/2/2013 22:00,2.0000016,150,90,SSE,Clear,-4,-13,50,1028,-7.1,-9999,-13
19/2/2013 23:00,3.0000024,150,77,SSE,Clear,-4,-12,54,1028,-8.3,-9999,-12
20/2/2013 0:00,2.0000016,160,73,SSE,Clear,-4,-11,59,1028,-7.1,-9999,-11
20/2/2013 1:00,2.0000016,140,73,SE,Clear,-5,-11,63,1028,-8.3,-9999,-11
20/2/2013 2:00,2.0000016,140,63,SE,Clear,-6,-11,68,1027,-9.4,-9999,-11
20/2/2013 3:00,1.0000008,80,65,East,Clear,-8,-12,73,1027,-999,-9999,-12
20/2/2013 4:00,1.0000008,0,81,Variable,Clear,-9,-12,79,1027,-999,-9999,-12
20/2/2013 5:00,1.0000008,0,104,Variable,Unknown,-10,-13,79,1027,-999,8,-13
20/2/2013 6:00,0,0,109,North,Unknown,-9,-12,79,1027,-999,8,-12
20/2/2013 7:00,1.0000008,0,140,Variable,Mist,-10,-13,79,1027,-999,5,-13
20/2/2013 8:00,0,,133,,,,,,,,,
20/2/2013 9:00,2.0000016,360,126,North,Unknown,-3,-9,64,1029,-5.9,8,-9
20/2/2013 10:00,2.0000016,350,129,North,Clear,-1,-9,55,1029,-3.6,-9999,-9
20/2/2013 11:00,3.0000024,320,117,NW,Clear,0,-11,44,1028,-3.5,-9999,-11
20/2/2013 12:00,2.0000016,0,126,Variable,Clear,2,-12,35,1028,-0.1,-9999,-12
20/2/2013 13:00,2.0000016,320,107,NW,Clear,4,-13,28,1027,2.2,-9999,-13
20/2/2013 14:00,2.0000016,0,68,Variable,Clear,6,-18,16,1026,4.5,-9999,-18
20/2/2013 15:00,1.0000008,0,8,Variable,Clear,6,-18,16,1025,-999,-9999,-18
20/2/2013 16:00,3.0000024,50,12,NE,Clear,6,-19,15,1025,3.7,-9999,-19
20/2/2013 17:00,2.0000016,100,42,East,Clear,5,-20,15,1025,3.4,-9999,-20
20/2/2013 18:00,2.0000016,90,58,East,Clear,2,-18,22,1026,-0.1,-9999,-18
20/2/2013 19:00,0,0,67,North,Clear,1,-18,23,1027,-999,-9999,-18
20/2/2013 20:00,3.0000024,80,77,East,Clear,1,-20,20,1028,-2.3,-9999,-20
20/2/2013 21:00,1.0000008,90,68,East,Clear,-1,-18,27,1029,-999,-9999,-18
20/2/2013 22:00,1.0000008,80,76,East,Clear,-3,-14,43,1029,-999,-9999,-14
20/2/2013 23:00,1.0000008,360,80,North,Clear,-4,-17,36,1030,-999,-9999,-17
21/2/2013 0:00,2.0000016,360,67,North,Clear,-5,-17,39,1030,-8.3,-9999,-17
21/2/2013 1:00,2.0000016,120,66,ESE,Clear,-6,-15,50,1030,-9.4,-9999,-15
21/2/2013 2:00,3.0000024,120,175,ESE,Unknown,-4,-7,80,1030,-8.3,6,-7
21/2/2013 3:00,2.0000016,60,159,ENE,Mist,-5,-7,86,1030,-8.3,5,-7
21/2/2013 4:00,2.0000016,90,147,East,Mist,-4,-5,93,1030,-7.1,5,-5
21/2/2013 5:00,3.0000024,110,153,ESE,Mist,-3,-5,86,1030,-7.1,4,-5
21/2/2013 6:00,2.0000016,110,153,ESE,Mist,-3,-5,86,1030,-5.9,4,-5
21/2/2013 7:00,2.0000016,100,162,East,Partly Cloudy,-3,-5,86,1030,-5.9,-9999,-5
21/2/2013 8:00,2.0000016,100,171,East,Mostly Cloudy,-3,-5,86,1031,-5.9,2.5,-5
21/2/2013 9:00,2.0000016,80,186,East,Partly Cloudy,-3,-5,86,1031,-5.9,2.7,-5
21/2/2013 10:00,1.0000008,0,191,Variable,Overcast,-2,-5,80,1030,-999,-9999,-5
21/2/2013 11:00,2.0000016,120,200,ESE,Overcast,-2,-5,80,1030,-4.8,2.9,-5
21/2/2013 12:00,2.0000016,110,212,ESE,Overcast,0,-5,69,1029,-2.5,2.7,-5
21/2/2013 13:00,2.0000016,0,222,Variable,Haze,0,-5,69,1027,-2.5,2.8,-5
21/2/2013 14:00,2.0000016,0,237,Variable,Haze,2,-5,60,1026,-0.1,3,-5
21/2/2013 15:00,2.0000016,170,250,South,Haze,3,-5,56,1025,1,3,-5
21/2/2013 16:00,2.0000016,160,264,SSE,Haze,3,-5,56,1025,1,3,-5
21/2/2013 17:00,2.0000016,100,271,East,Haze,2,-5,60,1024,-0.1,2.7,-5
21/2/2013 18:00,2.0000016,90,268,East,Haze,1,-4,70,1025,-1.3,2.5,-4
21/2/2013 19:00,2.0000016,90,278,East,Mist,-1,-5,75,1025,-3.6,3.5,-5
21/2/2013 20:00,1.0000008,80,285,East,Mist,-2,-5,80,1026,-999,3.5,-5
21/2/2013 21:00,1.0000008,100,316,East,Mist,-4,-6,86,1026,-999,3.5,-6
21/2/2013 22:00,2.0000016,40,332,NE,Mist,-5,-7,86,1027,-8.3,-9999,-7
21/2/2013 23:00,1.0000008,0,339,Variable,Mist,-5,-7,86,1027,-999,2.7,-7
22/2/2013 0:00,1.0000008,0,322,Variable,Mist,-5,-6,93,1027,-999,2.7,-6
22/2/2013 1:00,2.0000016,360,321,North,Mist,-7,-8,93,1027,-10.6,2.7,-8
22/2/2013 2:00,4.0000032,350,266,North,Mist,-7,-8,93,1028,-12.9,2.7,-8
22/2/2013 3:00,2.0000016,360,219,North,Mist,-6,-8,86,1028,-9.4,2.7,-8
22/2/2013 4:00,4.0000032,350,222,North,Mist,-7,-9,86,1028,-12.9,3,-9
22/2/2013 5:00,4.0000032,320,259,NW,Haze,-3,-8,69,1028,-8,4.5,-8
22/2/2013 6:00,5.000004,300,28,WNW,Haze,-2,-8,64,1029,-7.4,5,-8
22/2/2013 7:00,3.0000024,290,8,WNW,Unknown,-2,-10,55,1030,-5.9,7,-10
22/2/2013 8:00,5.000004,300,10,WNW,Clear,0,-14,35,1031,-4.9,-9999,-14
22/2/2013 9:00,5.000004,310,9,NW,Clear,3,-17,22,1032,-1.2,-9999,-17
22/2/2013 10:00,7.0000056,330,10,NNW,Clear,4,-22,14,1033,-0.8,-9999,-22
22/2/2013 11:00,5.000004,320,14,NW,Clear,5,-23,12,1033,1.3,-9999,-23
22/2/2013 12:00,5.000004,0,11,Variable,Clear,5,-25,10,1032,1.3,-9999,-25
22/2/2013 13:00,7.0000056,300,10,WNW,Clear,5,-23,12,1031,0.5,-9999,-23
22/2/2013 14:00,6.0000048,320,14,NW,Clear,7,-24,9,1030,3.4,-9999,-24
22/2/2013 15:00,4.0000032,310,10,NW,Clear,7,-25,9,1029,4.3,-9999,-25
22/2/2013 16:00,6.0000048,290,9,WNW,Clear,7,-25,9,1029,3.4,-9999,-25
22/2/2013 17:00,5.000004,290,17,WNW,Clear,7,-26,8,1029,3.8,-9999,-26
22/2/2013 18:00,4.0000032,320,30,NW,Clear,5,-25,10,1029,1.9,-9999,-25
22/2/2013 19:00,2.0000016,290,31,WNW,Clear,5,-23,12,1029,3.4,-9999,-23
22/2/2013 20:00,2.0000016,200,41,SSW,Clear,3,-23,13,1030,1,-9999,-23
22/2/2013 21:00,1.0000008,0,38,Variable,Clear,-2,-17,31,1029,-999,-9999,-17
22/2/2013 22:00,0,0,49,North,Clear,-1,-17,29,1029,-999,-9999,-17
22/2/2013 23:00,1.0000008,0,94,Variable,Clear,-3,-14,43,1029,-999,-9999,-14
23/2/2013 0:00,1.0000008,50,116,NE,Clear,-5,-13,54,1029,-999,-9999,-13
23/2/2013 1:00,0,0,114,North,Unknown,-5,-14,50,1029,-999,8,-14
23/2/2013 2:00,0,0,120,North,Unknown,-6,-13,58,1029,-999,8,-13
23/2/2013 3:00,1.0000008,360,113,North,Unknown,-6,-14,54,1028,-999,8,-14
23/2/2013 4:00,2.0000016,360,90,North,Unknown,-7,-13,63,1028,-10.6,8,-13
23/2/2013 5:00,2.0000016,360,73,North,Clear,-7,-13,63,1028,-10.6,-9999,-13
23/2/2013 6:00,2.0000016,350,63,North,Clear,-8,-13,68,1028,-11.8,-9999,-13
23/2/2013 7:00,2.0000016,350,54,North,Clear,-8,-14,63,1028,-11.8,-9999,-14
23/2/2013 8:00,2.0000016,10,55,North,Clear,-5,-11,63,1028,-8.3,-9999,-11
23/2/2013 9:00,2.0000016,10,58,North,Clear,-1,-13,40,1029,-3.6,-9999,-13
23/2/2013 10:00,1.0000008,0,61,Variable,Clear,2,-15,28,1029,-999,-9999,-15
23/2/2013 11:00,2.0000016,70,76,ENE,Clear,4,-16,22,1029,2.2,-9999,-16
23/2/2013 12:00,1.0000008,0,78,Variable,Clear,7,-16,18,1028,-999,-9999,-16
23/2/2013 13:00,2.0000016,0,88,Variable,Clear,9,-17,15,1027,-999,-9999,-17
23/2/2013 14:00,3.0000024,170,116,South,Clear,9,-16,16,1026,-999,-9999,-16
23/2/2013 15:00,2.0000016,150,144,SSE,Clear,10,-17,14,1025,-999,-9999,-17
23/2/2013 16:00,2.0000016,180,163,South,Clear,10,-17,14,1025,-999,-9999,-17
23/2/2013 17:00,2.0000016,120,164,ESE,Clear,9,-16,16,1025,-999,-9999,-16
23/2/2013 18:00,1.0000008,0,185,Variable,Unknown,6,-14,23,1026,-999,7,-14
23/2/2013 19:00,1.0000008,0,243,Variable,Unknown,3,-12,33,1026,-999,7,-12
23/2/2013 20:00,1.0000008,0,256,Variable,Unknown,1,-11,41,1027,-999,6,-11
23/2/2013 21:00,1.0000008,60,356,ENE,Haze,-1,-10,51,1027,-999,5,-10
23/2/2013 22:00,1.0000008,0,364,Variable,Haze,-1,-9,55,1028,-999,5,-9
23/2/2013 23:00,2.0000016,100,426,East,Haze,1,-10,44,1028,-1.3,4,-10
24/2/2013 0:00,1.0000008,0,397,Variable,Haze,1,-10,44,1028,-999,4,-10
24/2/2013 1:00,1.0000008,0,417,Variable,Haze,-3,-8,69,1028,-999,3.5,-8
24/2/2013 2:00,1.0000008,0,372,Variable,Haze,-1,-9,55,1027,-999,5,-9
24/2/2013 3:00,0,0,318,North,Unknown,-2,-8,64,1026,-999,6,-8
24/2/2013 4:00,2.0000016,360,287,North,Unknown,-5,-10,68,1027,-8.3,6,-10
24/2/2013 5:00,1.0000008,0,245,Variable,Unknown,-4,-9,69,1026,-999,7,-9
24/2/2013 6:00,1.0000008,0,266,Variable,Unknown,-4,-9,69,1026,-999,6,-9
24/2/2013 7:00,0,0,270,North,Mist,-4,-9,69,1026,-999,4,-9
24/2/2013 8:00,1.0000008,0,282,Variable,Mist,-2,-6,74,1027,-999,-9999,-6
24/2/2013 9:00,2.0000016,80,284,East,Haze,0,-6,64,1027,-2.5,3,-6
24/2/2013 10:00,1.0000008,0,319,Variable,Haze,2,-7,52,1028,-999,3.5,-7
24/2/2013 11:00,2.0000016,80,347,East,Haze,2,-7,52,1027,-0.1,3.5,-7
24/2/2013 12:00,2.0000016,360,337,North,Haze,3,-7,48,1027,1,3.5,-7
24/2/2013 13:00,2.0000016,10,320,North,Haze,3,-8,45,1025,1,4,-8
24/2/2013 14:00,2.0000016,10,323,North,Haze,4,-8,42,1024,2.2,4,-8
24/2/2013 15:00,1.0000008,0,318,Variable,Haze,4,-8,42,1024,-999,3.5,-8
24/2/2013 16:00,1.0000008,0,313,Variable,Haze,4,-7,45,1023,-999,3.5,-7
24/2/2013 17:00,1.0000008,10,316,North,Haze,4,-7,45,1024,-999,3,-7
24/2/2013 18:00,1.0000008,30,313,NNE,Haze,3,-7,48,1024,-999,3.5,-7
24/2/2013 19:00,1.0000008,0,404,Variable,Haze,3,-6,52,1025,-999,3.5,-6
24/2/2013 20:00,1.0000008,0,532,Variable,Haze,1,-7,56,1026,-999,3.5,-7
24/2/2013 21:00,1.0000008,120,386,ESE,Haze,1,-6,60,1026,-999,3.5,-6
24/2/2013 22:00,2.0000016,130,383,SE,Haze,2,-5,60,1027,-0.1,4,-5
24/2/2013 23:00,1.0000008,60,240,ENE,Haze,0,-5,69,1028,-999,4,-5
25/2/2013 0:00,1.0000008,0,226,Variable,Haze,0,-6,64,1028,-999,4,-6
25/2/2013 1:00,0,0,222,North,Mist,-2,-5,80,1028,-999,3.5,-5
25/2/2013 2:00,1.0000008,180,202,South,Mist,-2,-4,86,1029,-999,3,-4
25/2/2013 3:00,1.0000008,100,207,East,Mist,-1,-4,80,1028,-999,3,-4
25/2/2013 4:00,1.0000008,150,200,SSE,Partly Cloudy,0,-4,75,1028,-999,3,-4
25/2/2013 5:00,1.0000008,0,183,Variable,Scattered Clouds,0,-4,75,1027,-999,3,-4
25/2/2013 6:00,0,0,176,North,Partly Cloudy,1,-4,70,1028,-999,3,-4
25/2/2013 7:00,3.0000024,180,153,South,Haze,1,-4,70,1028,-2.3,4,-4
25/2/2013 8:00,3.0000024,150,150,SSE,Haze,1,-5,65,1029,-2.3,5,-5
25/2/2013 9:00,2.0000016,150,137,SSE,Haze,1,-5,65,1030,-1.3,5,-5
25/2/2013 10:00,2.0000016,130,111,SE,Light Snow,1,-6,60,1030,-1.3,5,-6
25/2/2013 11:00,3.0000024,180,118,South,Light Snow,0,-4,75,1029,-3.5,3.5,-4
25/2/2013 12:00,2.0000016,190,118,South,Light Snow,0,-3,80,1029,-2.5,3,-3
25/2/2013 13:00,1.0000008,0,128,Variable,Light Snow,-1,-3,86,1028,-999,3.5,-3
25/2/2013 14:00,1.0000008,0,143,Variable,Light Snow,-1,-2,93,1027,-999,2.7,-2
25/2/2013 15:00,3.0000024,350,153,North,Overcast,-1,-2,93,1026,-4.7,3.5,-2
25/2/2013 16:00,3.0000024,10,158,North,Light Snow,-1,-2,93,1026,-4.7,2.6,-2
25/2/2013 17:00,2.0000016,360,153,North,Overcast,-1,-2,93,1025,-3.6,2.6,-2
25/2/2013 18:00,3.0000024,360,143,North,Overcast,-1,-3,86,1025,-4.7,2.7,-3
25/2/2013 19:00,2.0000016,10,146,North,Overcast,-2,-3,93,1025,-4.8,4,-3
25/2/2013 20:00,3.0000024,10,144,North,Overcast,-1,-3,86,1025,-4.7,4,-3
25/2/2013 21:00,2.0000016,10,148,North,Overcast,-1,-4,80,1025,-3.6,4,-4
25/2/2013 22:00,1.0000008,360,153,North,Overcast,-1,-4,80,1025,-999,4,-4
25/2/2013 23:00,3.0000024,320,155,NW,Overcast,0,-4,75,1025,-3.5,4,-4
26/2/2013 0:00,2.0000016,280,153,West,Overcast,-1,-4,80,1024,-3.6,4,-4
26/2/2013 1:00,2.0000016,280,153,West,Overcast,-1,-4,80,1024,-3.6,4,-4
26/2/2013 2:00,1.0000008,350,148,North,Partly Cloudy,-4,-6,86,1023,-999,3.5,-6
26/2/2013 3:00,1.0000008,0,152,Variable,Mist,-5,-6,93,1022,-999,3.5,-6
26/2/2013 4:00,2.0000016,360,163,North,Mist,-5,-7,86,1022,-8.3,3.5,-7
26/2/2013 5:00,3.0000024,350,155,North,Mist,-6,-7,93,1021,-10.7,3.5,-7
26/2/2013 6:00,3.0000024,350,175,North,Mist,-7,-7,100,1021,-11.9,3.5,-7
26/2/2013 7:00,2.0000016,350,143,North,Mist,-7,-8,93,1022,-10.6,2.6,-8
26/2/2013 8:00,2.0000016,360,155,North,Mist,-4,-5,93,1022,-7.1,2.5,-5
26/2/2013 9:00,4.0000032,330,172,NNW,Mist,-1,-5,75,1022,-5.5,-9999,-5
26/2/2013 10:00,3.0000024,340,173,NNW,Haze,2,-4,65,1022,-1.1,3.5,-4
26/2/2013 11:00,2.0000016,330,190,NNW,Haze,5,-4,53,1021,3.4,3.5,-4
26/2/2013 12:00,3.0000024,350,200,North,Haze,5,-3,57,1020,2.5,3.5,-3
26/2/2013 13:00,2.0000016,0,208,Variable,Haze,7,-3,49,1019,5.7,3.5,-3
26/2/2013 14:00,2.0000016,210,198,SSW,Haze,10,-4,37,1018,-999,4,-4
26/2/2013 15:00,4.0000032,200,196,SSW,Haze,11,-5,33,1017,-999,4,-5
26/2/2013 16:00,4.0000032,190,213,South,Haze,11,-7,28,1017,-999,4.5,-7
26/2/2013 17:00,3.0000024,200,206,SSW,Haze,10,-6,32,1017,-999,4,-6
26/2/2013 18:00,3.0000024,180,244,South,Haze,6,-5,46,1018,3.7,4,-5
26/2/2013 19:00,2.0000016,160,289,SSE,Haze,5,-4,53,1018,3.4,3.5,-4
26/2/2013 20:00,2.0000016,150,341,SSE,Haze,3,-3,65,1019,1,3.5,-3
26/2/2013 21:00,2.0000016,170,370,South,Mist,1,-3,75,1019,-1.3,-9999,-3
26/2/2013 22:00,2.0000016,170,382,South,Mist,1,-3,75,1019,-1.3,3,-3
26/2/2013 23:00,1.0000008,0,415,Variable,Haze,1,-3,75,1019,-999,2.3,-3
27/2/2013 0:00,1.0000008,50,414,NE,Mist,-2,-4,86,1019,-999,2,-4
27/2/2013 1:00,1.0000008,0,415,Variable,Mist,-3,-5,86,1019,-999,2,-5
27/2/2013 2:00,2.0000016,170,408,South,Mist,-2,-4,86,1019,-4.8,2,-4
27/2/2013 3:00,2.0000016,10,414,North,Mist,-6,-7,93,1018,-9.4,1.7,-7
27/2/2013 4:00,1.0000008,20,403,NNE,Mist,-4,-4,100,1018,-999,1.7,-4
27/2/2013 5:00,1.0000008,360,395,North,Mist,-5,-5,100,1018,-999,1.7,-5
27/2/2013 6:00,1.0000008,340,394,NNW,Mist,-3,-4,93,1019,-999,1.8,-4
27/2/2013 7:00,3.0000024,350,330,North,Mist,-5,-5,100,1019,-9.5,1.7,-5
27/2/2013 8:00,5.000004,350,247,North,Mist,-1,-3,86,1020,-6.2,2.5,-3
27/2/2013 9:00,3.0000024,360,188,North,Haze,3,-3,65,1020,0.1,4,-3
27/2/2013 10:00,5.000004,340,129,NNW,Unknown,8,-5,40,1020,5.1,7,-5
27/2/2013 11:00,5.000004,20,63,NNE,Clear,11,-10,22,1019,-999,-9999,-10
27/2/2013 12:00,5.000004,10,49,North,Clear,14,-15,12,1018,-999,-9999,-15
27/2/2013 13:00,5.000004,10,32,North,Clear,15,-18,9,1017,-999,-9999,-18
27/2/2013 14:00,4.0000032,10,25,North,Clear,16,-17,9,1016,-999,-9999,-17
27/2/2013 15:00,3.0000024,30,23,NNE,Clear,15,-17,10,1015,-999,-9999,-17
27/2/2013 16:00,1.0000008,0,27,Variable,Clear,16,-17,9,1014,-999,-9999,-17
27/2/2013 17:00,3.0000024,150,277,SSE,Clear,14,-17,10,1014,-999,-9999,-17
27/2/2013 18:00,2.0000016,170,273,South,Clear,11,-17,13,1013,-999,-9999,-17
27/2/2013 19:00,5.000004,210,241,SSW,Haze,11,-7,28,1014,-999,4.5,-7
27/2/2013 20:00,3.0000024,190,259,South,Haze,9,-6,34,1014,-999,4,-6
27/2/2013 21:00,2.0000016,160,259,SSE,Haze,7,-5,43,1014,5.7,3.5,-5
27/2/2013 22:00,2.0000016,90,265,East,Haze,1,-7,56,1014,-1.3,3.5,-7
27/2/2013 23:00,1.0000008,0,367,Variable,Haze,4,-4,56,1014,-999,-9999,-4
28/2/2013 0:00,1.0000008,0,392,Variable,Haze,3,-5,56,1013,-999,-9999,-5
28/2/2013 1:00,4.0000032,140,400,SE,Haze,5,-2,61,1012,1.9,3,-2
28/2/2013 2:00,5.000004,140,441,SE,Mist,4,0,75,1010,0.1,2.2,0
28/2/2013 3:00,2.0000016,140,466,SE,Mist,2,0,87,1010,-0.1,2,0
28/2/2013 4:00,2.0000016,110,485,ESE,Mist,3,1,87,1010,1,1.7,1
28/2/2013 5:00,3.0000024,110,525,ESE,Mist,3,2,93,1009,0.1,1.5,2
28/2/2013 6:00,2.0000016,90,502,East,Mist,3,1,87,1008,1,1.5,1
28/2/2013 7:00,2.0000016,120,449,ESE,Mist,2,1,93,1008,-0.1,1.2,1
28/2/2013 8:00,1.0000008,0,469,Variable,Scattered Clouds,2,1,93,1009,-999,1,1
28/2/2013 9:00,1.0000008,0,510,Variable,Fog,2,2,100,1009,-999,0.6,2
28/2/2013 10:00,1.0000008,0,229,Variable,Fog,3,2,93,1010,-999,0.6,2
28/2/2013 11:00,4.0000032,340,111,NNW,Widespread Dust,7,-2,53,1011,4.3,1.5,-2
28/2/2013 12:00,7.0000056,330,95,NNW,Widespread Dust,10,-14,17,1012,-999,4.5,-14
28/2/2013 13:00,12.0000096,330,89,NNW,Widespread Dust,11,-20,10,1013,-999,8,-20
28/2/2013 14:00,11.0000088,340,39,NNW,Clear,10,-18,13,1013,-999,-9999,-18
28/2/2013 15:00,14.0000112,330,20,NNW,Clear,9,-19,12,1014,-999,-9999,-19
28/2/2013 16:00,13.0000104,320,17,NW,Clear,7,-21,12,1015,1.6,-9999,-21
28/2/2013 17:00,13.0000104,320,13,NW,Clear,5,-19,16,1017,-1.1,-9999,-19
28/2/2013 18:00,11.0000088,320,11,NW,Clear,4,-19,17,1019,-2,-9999,-19
28/2/2013 19:00,9.0000072,320,12,NW,Clear,3,-19,19,1021,-2.8,-9999,-19
28/2/2013 20:00,10.000008,310,8,NW,Clear,2,-20,18,1023,-4.4,-9999,-20
28/2/2013 21:00,10.000008,310,6,NW,Clear,1,-20,20,1025,-5.7,-9999,-20
28/2/2013 22:00,11.0000088,310,9,NW,Clear,1,-21,18,1027,-6,-9999,-21
28/2/2013 23:00,12.0000096,320,9,NW,Clear,0,-23,17,1028,-7.6,-9999,-23
1/3/2013 0:00,14.0000112,330,7,NNW,Clear,0,-21,20,1028,-8.1,-9999,-21
1/3/2013 1:00,16.0000128,330,5,NNW,Clear,-1,-21,21,1028,-10,-9999,-21
1/3/2013 2:00,15.000012,330,6,NNW,Clear,-1,-23,18,1028,-9.7,-9999,-23
1/3/2013 3:00,15.000012,330,4,NNW,Clear,-1,-25,15,1029,-9.7,-9999,-25
1/3/2013 4:00,13.0000104,330,8,NNW,Clear,-2,-25,16,1030,-10.6,-9999,-25
1/3/2013 5:00,9.0000072,330,9,NNW,Clear,-2,-24,18,1031,-9.3,-9999,-24
1/3/2013 6:00,8.0000064,330,9,NNW,Clear,-3,-24,19,1031,-10.2,-9999,-24
1/3/2013 7:00,8.0000064,330,12,NNW,Clear,-3,-23,21,1032,-10.2,-9999,-23
1/3/2013 8:00,4.0000032,20,10,NNE,Clear,-2,-22,21,1033,-6.7,-9999,-22
1/3/2013 9:00,5.000004,360,11,North,Clear,0,-25,14,1034,-4.9,-9999,-25
1/3/2013 10:00,3.0000024,340,12,NNW,Clear,0,-25,14,1035,-3.5,-9999,-25
1/3/2013 11:00,4.0000032,350,11,North,Clear,2,-25,12,1034,-1.8,-9999,-25
1/3/2013 12:00,4.0000032,20,11,NNE,Clear,3,-24,12,1034,-0.6,-9999,-24
1/3/2013 13:00,4.0000032,0,9,Variable,Clear,4,-25,10,1033,0.6,-9999,-25
1/3/2013 14:00,4.0000032,30,9,NNE,Clear,4,-25,10,1032,0.6,-9999,-25
1/3/2013 15:00,4.0000032,30,8,NNE,Clear,5,-24,11,1032,1.9,-9999,-24
1/3/2013 16:00,3.0000024,340,9,NNW,Clear,6,-25,9,1032,3.7,-9999,-25
1/3/2013 17:00,5.000004,360,10,North,Clear,5,-24,11,1032,1.3,-9999,-24
1/3/2013 18:00,3.0000024,10,13,North,Clear,2,-23,14,1032,-1.1,-9999,-23
1/3/2013 19:00,4.0000032,20,13,NNE,Clear,0,-20,21,1033,-4.3,-9999,-20
1/3/2013 20:00,4.0000032,30,17,NNE,Clear,2,-23,14,1034,-1.8,-9999,-23
1/3/2013 21:00,3.0000024,20,27,NNE,Clear,0,-22,18,1035,-3.5,-9999,-22
1/3/2013 22:00,2.0000016,20,12,NNE,Clear,0,-19,23,1036,-2.5,-9999,-19
1/3/2013 23:00,3.0000024,40,10,NE,Clear,0,-19,23,1036,-3.5,-9999,-19
2/3/2013 0:00,4.0000032,40,11,NE,Clear,0,-18,25,1036,-4.3,-9999,-18
2/3/2013 1:00,2.0000016,90,8,East,Clear,-1,-18,27,1036,-3.6,-9999,-18
2/3/2013 2:00,1.0000008,20,10,NNE,Clear,-2,-18,29,1037,-999,-9999,-18
2/3/2013 3:00,0,0,9,North,Clear,-2,-17,31,1037,-999,-9999,-17
2/3/2013 4:00,2.0000016,350,10,North,Clear,-5,-15,46,1036,-8.3,-9999,-15
2/3/2013 5:00,3.0000024,330,12,NNW,Clear,-3,-16,37,1036,-7.1,-9999,-16
2/3/2013 6:00,4.0000032,350,19,North,Clear,-4,-15,43,1036,-9.2,-9999,-15
2/3/2013 7:00,2.0000016,350,18,North,Clear,-4,-15,43,1035,-7.1,-9999,-15
2/3/2013 8:00,3.0000024,350,18,North,Clear,-2,-16,34,1035,-5.9,-9999,-16
2/3/2013 9:00,4.0000032,350,17,North,Clear,-1,-16,32,1035,-5.5,-9999,-16
2/3/2013 10:00,3.0000024,360,24,North,Clear,0,-17,27,1035,-3.5,-9999,-17
2/3/2013 11:00,1.0000008,0,33,Variable,Clear,2,-19,20,1035,-999,-9999,-19
2/3/2013 12:00,2.0000016,0,43,Variable,Clear,2,-19,20,1034,-0.1,-9999,-19
2/3/2013 13:00,2.0000016,110,39,ESE,Clear,3,-19,19,1033,1,-9999,-19
2/3/2013 14:00,2.0000016,80,42,East,Clear,3,-18,20,1032,1,-9999,-18
2/3/2013 15:00,3.0000024,190,56,South,Clear,4,-19,17,1031,1.3,-9999,-19
2/3/2013 16:00,2.0000016,230,59,SW,Clear,4,-19,17,1030,2.2,-9999,-19
2/3/2013 17:00,2.0000016,160,67,SSE,Clear,4,-19,17,1029,2.2,-9999,-19
2/3/2013 18:00,2.0000016,10,66,North,Clear,1,-17,25,1029,-1.3,-9999,-17
2/3/2013 19:00,2.0000016,60,81,ENE,Clear,-1,-13,40,1029,-3.6,-9999,-13
2/3/2013 20:00,2.0000016,70,100,ENE,Clear,1,-16,28,1029,-1.3,-9999,-16
2/3/2013 21:00,2.0000016,60,120,ENE,Clear,0,-16,30,1029,-2.5,-9999,-16
2/3/2013 22:00,1.0000008,80,153,East,Clear,0,-13,38,1029,-999,-9999,-13
2/3/2013 23:00,1.0000008,0,157,Variable,Clear,-1,-14,37,1028,-999,-9999,-14
3/3/2013 0:00,0,0,161,North,Clear,-2,-14,40,1027,-999,-9999,-14
3/3/2013 1:00,1.0000008,20,145,NNE,Clear,-4,-12,54,1026,-999,-9999,-12
3/3/2013 2:00,1.0000008,350,113,North,Unknown,-3,-11,55,1025,-999,8,-11
3/3/2013 3:00,2.0000016,10,119,North,Unknown,-4,-11,59,1024,-7.1,8,-11
3/3/2013 4:00,1.0000008,10,133,North,Unknown,-5,-11,63,1023,-999,8,-11
3/3/2013 5:00,1.0000008,350,134,North,Unknown,-6,-12,63,1023,-999,8,-12
3/3/2013 6:00,1.0000008,350,138,North,Unknown,-6,-11,68,1022,-999,8,-11
3/3/2013 7:00,3.0000024,340,123,NNW,Unknown,-6,-10,74,1022,-10.7,7,-10
3/3/2013 8:00,3.0000024,350,100,North,Unknown,-2,-8,64,1022,-5.9,8,-8
3/3/2013 9:00,3.0000024,350,110,North,Clear,1,-12,38,1022,-2.3,-9999,-12
3/3/2013 10:00,2.0000016,330,117,NNW,Clear,3,-14,28,1022,1,-9999,-14
3/3/2013 11:00,2.0000016,330,115,NNW,Clear,5,-14,24,1021,3.4,-9999,-14
3/3/2013 12:00,1.0000008,0,110,Variable,Clear,10,-15,16,1019,-999,-9999,-15
3/3/2013 13:00,3.0000024,260,38,West,Clear,12,-16,13,1018,-999,-9999,-16
3/3/2013 14:00,5.000004,280,19,West,Clear,15,-18,9,1017,-999,-9999,-18
3/3/2013 15:00,5.000004,300,25,WNW,Clear,16,-18,8,1016,-999,-9999,-18
3/3/2013 16:00,4.0000032,360,50,North,Clear,17,-18,8,1016,-999,-9999,-18
3/3/2013 17:00,3.0000024,30,55,NNE,Clear,15,-17,10,1016,-999,-9999,-17
3/3/2013 18:00,1.0000008,0,143,Variable,Clear,12,-18,11,1016,-999,-9999,-18
3/3/2013 19:00,2.0000016,180,162,South,Clear,10,-16,15,1018,-999,-9999,-16
3/3/2013 20:00,1.0000008,0,86,Variable,Clear,6,-13,25,1019,-999,-9999,-13
3/3/2013 21:00,2.0000016,20,73,NNE,Clear,5,-12,29,1019,3.4,-9999,-12
3/3/2013 22:00,1.0000008,0,86,Variable,Clear,3,-10,38,1019,-999,-9999,-10
3/3/2013 23:00,1.0000008,0,69,Variable,Clear,3,-10,38,1020,-999,-9999,-10
4/3/2013 0:00,6.0000048,340,24,NNW,Clear,6,-12,27,1020,2.2,-9999,-12
4/3/2013 1:00,7.0000056,320,5,NW,Clear,9,-14,19,1021,-999,-9999,-14
4/3/2013 2:00,7.0000056,320,4,NW,Clear,8,-13,22,1022,4.4,-9999,-13
4/3/2013 3:00,3.0000024,350,5,North,Clear,4,-13,28,1023,1.3,-9999,-13
4/3/2013 4:00,3.0000024,360,7,North,Clear,2,-13,33,1023,-1.1,-9999,-13
4/3/2013 5:00,2.0000016,20,7,NNE,Clear,1,-12,38,1023,-1.3,-9999,-12
4/3/2013 6:00,2.0000016,140,9,SE,Clear,0,-11,44,1024,-2.5,-9999,-11
4/3/2013 7:00,1.0000008,0,17,Variable,Clear,-2,-9,59,1025,-999,-9999,-9
4/3/2013 8:00,4.0000032,340,16,NNW,Clear,7,-13,23,1026,4.3,-9999,-13
4/3/2013 9:00,3.0000024,20,16,NNE,Clear,9,-16,16,1026,-999,-9999,-16
4/3/2013 10:00,2.0000016,340,,NNW,Clear,11,-17,13,1027,-999,-9999,-17
4/3/2013 11:00,3.0000024,360,14,North,Clear,12,-17,12,1026,-999,-9999,-17
4/3/2013 12:00,1.0000008,0,10,Variable,Clear,13,-17,11,1026,-999,-9999,-17
4/3/2013 13:00,3.0000024,290,10,WNW,Clear,14,-19,9,1024,-999,-9999,-19
4/3/2013 14:00,4.0000032,320,13,NW,Clear,16,-20,7,1023,-999,-9999,-20
4/3/2013 15:00,3.0000024,0,17,Variable,Clear,15,-19,8,1022,-999,-9999,-19
4/3/2013 16:00,3.0000024,230,23,SW,Clear,15,-19,8,1022,-999,-9999,-19
4/3/2013 17:00,5.000004,210,25,SSW,Clear,14,-18,10,1021,-999,-9999,-18
4/3/2013 18:00,4.0000032,200,36,SSW,Clear,12,-18,11,1021,-999,-9999,-18
4/3/2013 19:00,3.0000024,200,47,SSW,Clear,10,-17,14,1022,-999,-9999,-17
4/3/2013 20:00,3.0000024,190,54,South,Clear,8,-15,18,1022,6.1,-9999,-15
4/3/2013 21:00,4.0000032,190,60,South,Clear,7,-12,25,1022,4.3,-9999,-12
4/3/2013 22:00,4.0000032,190,78,South,Clear,7,-12,25,1022,4.3,-9999,-12
4/3/2013 23:00,5.000004,200,80,SSW,Clear,8,-13,22,1022,5.1,-9999,-13
5/3/2013 0:00,3.0000024,160,98,SSE,Clear,7,-12,25,1021,4.9,-9999,-12
5/3/2013 1:00,3.0000024,160,101,SSE,Clear,7,-11,27,1021,4.9,-9999,-11
5/3/2013 2:00,1.0000008,0,115,Variable,Clear,3,-11,36,1020,-999,-9999,-11
5/3/2013 3:00,1.0000008,80,129,East,Clear,1,-11,41,1020,-999,-9999,-11
5/3/2013 4:00,2.0000016,90,116,East,Clear,-1,-9,55,1020,-3.6,-9999,-9
5/3/2013 5:00,1.0000008,0,116,Variable,Clear,0,-9,51,1019,-999,-9999,-9
5/3/2013 6:00,1.0000008,0,126,Variable,Clear,-2,-9,59,1019,-999,-9999,-9
5/3/2013 7:00,1.0000008,30,130,NNE,Clear,-3,-8,69,1019,-999,-9999,-8
5/3/2013 8:00,1.0000008,0,150,Variable,Clear,1,-6,60,1019,-999,-9999,-6
5/3/2013 9:00,1.0000008,0,163,Variable,Clear,5,-8,39,1019,-999,-9999,-8
5/3/2013 10:00,1.0000008,0,172,Variable,Unknown,8,-8,32,1018,-999,7,-8
5/3/2013 11:00,1.0000008,0,192,Variable,Unknown,9,-8,30,1018,-999,7,-8
5/3/2013 12:00,1.0000008,0,181,Variable,Unknown,11,-9,24,1017,-999,7,-9
5/3/2013 13:00,1.0000008,0,187,Variable,Unknown,12,-9,22,1015,-999,7,-9
5/3/2013 14:00,2.0000016,0,204,Variable,Unknown,13,-10,20,1014,-999,8,-10
5/3/2013 15:00,2.0000016,210,218,SSW,Unknown,13,-9,21,1013,-999,7,-9
5/3/2013 16:00,2.0000016,130,222,SE,Unknown,14,-9,20,1013,-999,7,-9
5/3/2013 17:00,2.0000016,90,208,East,Unknown,13,-8,23,1013,-999,7,-8
5/3/2013 18:00,2.0000016,30,225,NNE,Unknown,9,-8,30,1013,-999,6,-8
5/3/2013 19:00,1.0000008,0,235,Variable,Unknown,7,-7,37,1014,-999,6,-7
5/3/2013 20:00,1.0000008,0,263,Variable,Unknown,7,-6,39,1014,-999,6,-6
5/3/2013 21:00,1.0000008,360,274,North,Haze,4,-6,49,1014,-999,5,-6
5/3/2013 22:00,1.0000008,0,275,Variable,Haze,4,-6,49,1014,-999,5,-6
5/3/2013 23:00,2.0000016,350,302,North,Haze,4,-6,49,1014,2.2,5,-6
6/3/2013 0:00,3.0000024,340,225,NNW,Haze,2,-6,56,1014,-1.1,5,-6
6/3/2013 1:00,2.0000016,320,220,NW,Haze,3,-6,52,1014,1,5,-6
6/3/2013 2:00,2.0000016,340,207,NNW,Haze,3,-6,52,1014,1,5,-6
6/3/2013 3:00,3.0000024,330,202,NNW,Haze,2,-6,56,1013,-1.1,7,-6
6/3/2013 4:00,3.0000024,360,200,North,Unknown,2,-6,56,1013,-1.1,7,-6
6/3/2013 5:00,3.0000024,350,206,North,Unknown,2,-6,56,1013,-1.1,7,-6
6/3/2013 6:00,3.0000024,350,202,North,Unknown,2,-5,60,1013,-1.1,7,-5
6/3/2013 7:00,4.0000032,350,203,North,Unknown,3,-5,56,1014,-0.6,7,-5
6/3/2013 8:00,3.0000024,360,196,North,Unknown,4,-5,52,1015,1.3,7,-5
6/3/2013 9:00,4.0000032,340,188,NNW,Unknown,7,-6,39,1015,4.3,6,-6
6/3/2013 10:00,4.0000032,360,187,North,Haze,7,-6,39,1015,4.3,5,-6
6/3/2013 11:00,3.0000024,330,204,NNW,Haze,9,-6,34,1014,-999,5,-6
6/3/2013 12:00,4.0000032,360,233,North,Haze,10,-6,32,1013,-999,5,-6
6/3/2013 13:00,1.0000008,0,259,Variable,Haze,10,-6,32,1012,-999,4.5,-6
6/3/2013 14:00,1.0000008,0,267,Variable,Haze,12,-6,28,1011,-999,4,-6
6/3/2013 15:00,1.0000008,0,246,Variable,Haze,13,-6,26,1011,-999,-9999,-6
6/3/2013 16:00,1.0000008,0,247,Variable,Haze,14,-6,25,1011,-999,3.5,-6
6/3/2013 17:00,1.0000008,0,257,Variable,Haze,13,-5,29,1011,-999,3,-5
6/3/2013 18:00,1.0000008,0,,Variable,Haze,10,-5,35,1012,-999,3,-5
6/3/2013 19:00,1.0000008,0,257,Variable,Haze,6,-4,49,1012,-999,3.5,-4
6/3/2013 20:00,1.0000008,0,257,Variable,Haze,5,-3,57,1013,-999,3.5,-3
6/3/2013 21:00,1.0000008,0,249,Variable,Haze,5,-3,57,1014,-999,3.5,-3
6/3/2013 22:00,1.0000008,0,245,Variable,Haze,4,-3,61,1013,-999,3,-3
6/3/2013 23:00,1.0000008,0,242,Variable,Haze,1,-4,70,1013,-999,2.8,-4
7/3/2013 0:00,1.0000008,140,239,SE,Haze,2,-3,70,1013,-999,2.8,-3
7/3/2013 1:00,2.0000016,180,240,South,Haze,0,-4,75,1013,-2.5,2.5,-4
7/3/2013 2:00,1.0000008,360,238,North,Mist,-1,-4,80,1013,-999,2.5,-4
7/3/2013 3:00,1.0000008,350,338,North,Mist,-1,-4,80,1012,-999,2.5,-4
7/3/2013 4:00,2.0000016,350,334,North,Mist,-3,-5,86,1012,-5.9,2.5,-5
7/3/2013 5:00,0,0,344,North,Mist,-2,-5,80,1012,-999,2.5,-5
7/3/2013 6:00,1.0000008,20,351,NNE,Mist,-2,-5,80,1012,-999,2.7,-5
7/3/2013 7:00,0,0,331,North,Mist,-1,-3,86,1012,-999,2.3,-3
7/3/2013 8:00,1.0000008,150,327,SSE,Mist,2,-1,81,1012,-999,2.5,-1
7/3/2013 9:00,1.0000008,0,306,Variable,Haze,7,-2,53,1013,-999,2.7,-2
7/3/2013 10:00,1.0000008,0,289,Variable,Haze,8,-2,50,1012,-999,2,-2
7/3/2013 11:00,1.0000008,0,363,Variable,Haze,10,-3,40,1011,-999,2.7,-3
7/3/2013 12:00,3.0000024,140,306,SE,Haze,14,-3,31,1009,-999,3,-3
7/3/2013 13:00,4.0000032,130,293,SE,Haze,17,-3,26,1007,-999,3,-3
7/3/2013 14:00,3.0000024,0,279,Variable,Haze,18,-5,21,1006,-999,3,-5
7/3/2013 15:00,3.0000024,190,230,South,Haze,18,-4,22,1004,-999,3,-4
7/3/2013 16:00,2.0000016,0,201,Variable,Haze,19,-4,21,1003,-999,3,-4
7/3/2013 17:00,2.0000016,110,200,ESE,Haze,17,-2,27,1003,-999,2.7,-2
7/3/2013 18:00,1.0000008,0,195,Variable,Haze,14,0,38,1002,-999,2,0
7/3/2013 19:00,2.0000016,50,294,NE,Haze,11,0,47,1003,-999,2,0
7/3/2013 20:00,2.0000016,30,510,NNE,Haze,8,0,57,1003,6.9,2,0
7/3/2013 21:00,1.0000008,0,516,Variable,Haze,9,0,54,1003,-999,2,0
7/3/2013 22:00,2.0000016,10,469,North,Haze,6,-1,61,1003,4.5,2,-1
7/3/2013 23:00,0,0,450,North,Haze,7,0,61,1004,-999,2.2,0
8/3/2013 0:00,1.0000008,340,397,NNW,Haze,5,-1,65,1003,-999,2.2,-1
8/3/2013 1:00,2.0000016,340,365,NNW,Haze,4,-2,65,1004,2.2,2.2,-2
8/3/2013 2:00,3.0000024,350,364,North,Haze,4,-2,65,1004,1.3,2.8,-2
8/3/2013 3:00,3.0000024,350,357,North,Haze,3,-2,70,1003,0.1,2.8,-2
8/3/2013 4:00,1.0000008,0,357,Variable,Haze,5,-2,61,1003,-999,2.8,-2
8/3/2013 5:00,1.0000008,0,350,Variable,Haze,2,-2,75,1004,-999,2.8,-2
8/3/2013 6:00,1.0000008,0,337,Variable,Haze,0,-3,80,1005,-999,2.8,-3
8/3/2013 7:00,3.0000024,50,323,NE,Haze,0,-4,75,1005,-3.5,2.8,-4
8/3/2013 8:00,1.0000008,0,306,Variable,Haze,7,0,61,1006,-999,3,0
8/3/2013 9:00,2.0000016,10,234,North,Haze,12,-2,38,1006,-999,3.5,-2
8/3/2013 10:00,2.0000016,160,139,SSE,Haze,14,-2,33,1007,-999,3.5,-2
8/3/2013 11:00,2.0000016,130,95,SE,Haze,18,-4,22,1006,-999,3.5,-4
8/3/2013 12:00,4.0000032,140,189,SE,Haze,21,-6,16,1006,-999,5,-6
8/3/2013 13:00,7.0000056,130,410,SE,Haze,18,0,30,1005,-999,1.3,0
8/3/2013 14:00,8.0000064,130,216,SE,Haze,17,0,32,1005,-999,1.8,0
8/3/2013 15:00,8.0000064,150,145,SSE,Haze,14,0,38,1005,-999,4,0
8/3/2013 16:00,8.0000064,150,99,SSE,Haze,13,0,41,1005,-999,5,0
8/3/2013 17:00,5.000004,130,87,SE,Unknown,11,-1,44,1006,-999,6,-1
8/3/2013 18:00,4.0000032,160,93,SSE,Unknown,10,-1,47,1005,-999,7,-1
8/3/2013 19:00,2.0000016,160,95,SSE,Unknown,8,-2,50,1006,6.9,8,-2
8/3/2013 20:00,3.0000024,140,101,SE,Unknown,8,-2,50,1006,6.1,8,-2
8/3/2013 21:00,2.0000016,160,97,SSE,Clear,5,-3,57,1006,3.4,-9999,-3
8/3/2013 22:00,3.0000024,190,89,South,Clear,6,-4,49,1006,3.7,-9999,-4
8/3/2013 23:00,3.0000024,190,87,South,Clear,4,-4,56,1005,1.3,-9999,-4
9/3/2013 0:00,1.0000008,0,105,Variable,Clear,2,-4,65,1003,-999,-9999,-4
9/3/2013 1:00,1.0000008,0,114,Variable,Clear,3,-4,60,1002,-999,-9999,-4
9/3/2013 2:00,1.0000008,180,119,South,Clear,1,-4,70,1001,-999,-9999,-4
9/3/2013 3:00,1.0000008,0,128,Variable,Clear,3,-4,60,1000,-999,-9999,-4
9/3/2013 4:00,1.0000008,0,129,Variable,Clear,1,-3,75,998,-999,-9999,-3
9/3/2013 5:00,1.0000008,0,122,Variable,Clear,2,-3,70,997,-999,-9999,-3
9/3/2013 6:00,2.0000016,360,122,North,Clear,1,-4,70,998,-1.3,-9999,-4
9/3/2013 7:00,3.0000024,10,124,North,Unknown,1,-3,75,998,-2.3,7,-3
9/3/2013 8:00,3.0000024,350,136,North,Unknown,4,-2,65,999,1.3,6,-2
9/3/2013 9:00,4.0000032,360,141,North,Unknown,7,-3,49,1000,4.3,6,-3
9/3/2013 10:00,3.0000024,40,33,NE,Unknown,13,-3,33,1002,-999,8,-3
9/3/2013 11:00,17.0000136,350,42,North,Clear,18,-11,13,1004,-999,-9999,-11
9/3/2013 12:00,16.0000128,340,32,NNW,Blowing Sand,15,-16,11,1007,-999,7,-16
9/3/2013 13:00,16.0000128,330,40,NNW,Blowing Sand,14,-20,8,1009,-999,9,-20
9/3/2013 14:00,15.000012,320,32,NW,Blowing Sand,11,-21,9,1012,-999,9,-21
9/3/2013 15:00,12.0000096,320,19,NW,Clear,10,-22,9,1014,-999,-9999,-22
9/3/2013 16:00,10.000008,320,16,NW,Clear,10,-22,9,1015,-999,-9999,-22
9/3/2013 17:00,8.0000064,340,13,NNW,Clear,11,-21,9,1016,-999,-9999,-21
9/3/2013 18:00,9.0000072,320,16,NW,Clear,9,-22,10,1018,-999,-9999,-22
9/3/2013 19:00,10.000008,320,12,NW,Clear,7,-21,12,1021,2.2,-9999,-21
9/3/2013 20:00,9.0000072,310,10,NW,Clear,6,-21,13,1023,1.2,-9999,-21
9/3/2013 21:00,11.0000088,320,18,NW,Clear,6,-22,12,1025,0.7,-9999,-22
9/3/2013 22:00,9.0000072,330,12,NNW,Clear,5,-21,14,1026,-0.1,-9999,-21
9/3/2013 23:00,5.000004,330,12,NNW,Clear,4,-21,15,1027,0.1,-9999,-21
10/3/2013 0:00,2.0000016,30,15,NNE,Clear,2,-19,20,1027,-0.1,-9999,-19
10/3/2013 1:00,3.0000024,160,18,SSE,Clear,0,-15,32,1027,-3.5,-9999,-15
10/3/2013 2:00,2.0000016,80,20,East,Clear,-2,-13,43,1027,-4.8,-9999,-13
10/3/2013 3:00,1.0000008,0,18,Variable,Clear,1,-16,28,1027,-999,-9999,-16
10/3/2013 4:00,1.0000008,30,22,NNE,Clear,-4,-12,54,1027,-999,-9999,-12
10/3/2013 5:00,1.0000008,0,27,Variable,Clear,-2,-13,43,1028,-999,-9999,-13
10/3/2013 6:00,1.0000008,0,26,Variable,Clear,-4,-10,64,1028,-999,-9999,-10
10/3/2013 7:00,1.0000008,0,27,Variable,Clear,-4,-10,64,1028,-999,-9999,-10
10/3/2013 8:00,2.0000016,80,29,East,Clear,1,-11,41,1029,-1.3,-9999,-11
10/3/2013 9:00,5.000004,230,27,SW,Clear,6,-17,18,1029,2.6,-9999,-17
10/3/2013 10:00,5.000004,200,33,SSW,Clear,8,-19,13,1029,5.1,-9999,-19
10/3/2013 11:00,5.000004,220,32,SW,Clear,9,-19,12,1028,-999,-9999,-19
10/3/2013 12:00,4.0000032,210,33,SSW,Clear,10,-20,11,1028,-999,-9999,-20
10/3/2013 13:00,4.0000032,200,35,SSW,Clear,11,-22,8,1026,-999,-9999,-22
10/3/2013 14:00,5.000004,190,33,South,Clear,12,-20,9,1025,-999,-9999,-20
10/3/2013 15:00,5.000004,210,37,SSW,Clear,12,-20,9,1024,-999,-9999,-20
10/3/2013 16:00,6.0000048,190,42,South,Clear,12,-19,10,1024,-999,-9999,-19
10/3/2013 17:00,6.0000048,200,59,SSW,Clear,11,-18,12,1024,-999,-9999,-18
10/3/2013 18:00,5.000004,190,67,South,Clear,9,-16,16,1024,-999,-9999,-16
10/3/2013 19:00,3.0000024,200,80,SSW,Clear,8,-15,18,1024,6.1,-9999,-15
10/3/2013 20:00,2.0000016,170,75,South,Clear,6,-14,23,1025,4.5,-9999,-14
10/3/2013 21:00,2.0000016,140,87,SE,Clear,4,-12,31,1025,2.2,-9999,-12
10/3/2013 22:00,2.0000016,170,88,South,Clear,5,-12,29,1025,3.4,-9999,-12
10/3/2013 23:00,2.0000016,140,81,SE,Clear,2,-11,38,1025,-0.1,-9999,-11
11/3/2013 0:00,2.0000016,130,106,SE,Clear,3,-11,36,1025,1,-9999,-11
11/3/2013 1:00,2.0000016,150,103,SSE,Clear,1,-10,44,1024,-1.3,-9999,-10
11/3/2013 2:00,1.0000008,0,118,Variable,Clear,1,-10,44,1024,-999,-9999,-10
11/3/2013 3:00,1.0000008,0,111,Variable,Clear,0,-9,51,1023,-999,-9999,-9
11/3/2013 4:00,1.0000008,100,110,East,Unknown,-1,-8,60,1023,-999,8,-8
11/3/2013 5:00,2.0000016,150,102,SSE,Unknown,0,-8,55,1023,-2.5,8,-8
11/3/2013 6:00,1.0000008,0,94,Variable,Unknown,-1,-8,60,1023,-999,8,-8
11/3/2013 7:00,1.0000008,100,105,East,Unknown,-2,-7,69,1023,-999,6,-7
11/3/2013 8:00,2.0000016,90,122,East,Haze,1,-7,56,1023,-1.3,5,-7
11/3/2013 9:00,2.0000016,120,155,ESE,Unknown,4,-8,42,1023,2.2,6,-8
11/3/2013 10:00,3.0000024,130,150,SE,Unknown,6,-8,36,1022,3.7,6,-8
11/3/2013 11:00,2.0000016,160,156,SSE,Unknown,7,-9,31,1022,5.7,6,-9
11/3/2013 12:00,3.0000024,110,134,ESE,Unknown,8,-9,29,1021,6.1,6,-9
11/3/2013 13:00,2.0000016,120,114,ESE,Unknown,9,-9,27,1019,-999,6,-9
11/3/2013 14:00,6.0000048,170,114,South,Unknown,11,-9,24,1018,-999,6,-9
11/3/2013 15:00,5.000004,210,120,SSW,Unknown,12,-8,24,1017,-999,8,-8
11/3/2013 16:00,5.000004,200,153,SSW,Clear,12,-9,22,1016,-999,-9999,-9
11/3/2013 17:00,5.000004,200,148,SSW,Unknown,11,-7,28,1015,-999,7,-7
11/3/2013 18:00,3.0000024,190,162,South,Unknown,9,-5,37,1015,-999,7,-5
11/3/2013 19:00,2.0000016,140,164,SE,Unknown,9,-4,40,1016,-999,6,-4
11/3/2013 20:00,1.0000008,150,158,SSE,Unknown,9,-3,43,1016,-999,6,-3
11/3/2013 21:00,2.0000016,120,117,ESE,Unknown,8,-3,46,1016,6.9,6,-3
11/3/2013 22:00,3.0000024,130,108,SE,Unknown,9,-4,40,1016,-999,6,-4
11/3/2013 23:00,2.0000016,140,114,SE,Unknown,8,-4,43,1015,6.9,6,-4
12/3/2013 0:00,2.0000016,120,135,ESE,Unknown,8,-4,43,1014,6.9,6,-4
12/3/2013 1:00,2.0000016,110,131,ESE,Unknown,6,-3,53,1013,4.5,6,-3
12/3/2013 2:00,1.0000008,0,135,Variable,Unknown,6,-3,53,1013,-999,6,-3
12/3/2013 3:00,2.0000016,130,137,SE,Unknown,6,-2,57,1012,4.5,6,-2
12/3/2013 4:00,1.0000008,0,150,Variable,Light Rain,5,-1,65,1012,-999,6,-1
12/3/2013 5:00,1.0000008,20,153,NNE,Light Rain,4,0,75,1012,-999,6,0
12/3/2013 6:00,2.0000016,90,145,East,Light Rain,3,1,87,1012,1,4,1
12/3/2013 7:00,1.0000008,0,127,Variable,Light Rain,3,1,87,1012,-999,3.5,1
12/3/2013 8:00,0,0,130,North,Light Rain,3,1,87,1012,-999,2.8,1
12/3/2013 9:00,1.0000008,0,161,Variable,Light Rain,3,2,93,1013,-999,3,2
12/3/2013 10:00,2.0000016,360,164,North,Light Rain,3,2,93,1012,1,2.5,2
12/3/2013 11:00,1.0000008,0,167,Variable,Light Rain,4,2,87,1012,-999,2.5,2
12/3/2013 12:00,1.0000008,10,148,North,Light Rain,4,3,93,1012,-999,2.5,3
12/3/2013 13:00,3.0000024,340,153,NNW,Overcast,5,3,87,1012,2.5,3,3
12/3/2013 14:00,3.0000024,340,147,NNW,Overcast,5,3,87,1013,2.5,3.5,3
12/3/2013 15:00,2.0000016,10,150,North,Light Rain,6,3,81,1013,4.5,4,3
12/3/2013 16:00,1.0000008,0,152,Variable,Overcast,6,4,87,1013,-999,4,4
12/3/2013 17:00,3.0000024,340,164,NNW,Mostly Cloudy,7,4,81,1014,4.9,4,4
12/3/2013 18:00,3.0000024,340,159,NNW,Mostly Cloudy,6,3,81,1015,3.7,4,3
12/3/2013 19:00,3.0000024,360,176,North,Mist,5,2,81,1017,2.5,3,2
12/3/2013 20:00,3.0000024,360,174,North,Mist,3,2,93,1018,0.1,3,2
12/3/2013 21:00,1.0000008,0,194,Variable,Mist,3,2,93,1020,-999,3,2
12/3/2013 22:00,2.0000016,220,114,SW,Mist,6,2,76,1021,4.5,4.5,2
12/3/2013 23:00,1.0000008,0,67,Variable,Clear,3,1,87,1022,-999,-9999,1
13/3/2013 0:00,3.0000024,360,23,North,Clear,3,-5,56,1023,0.1,-9999,-5
13/3/2013 1:00,3.0000024,360,13,North,Clear,0,-6,64,1024,-3.5,-9999,-6
13/3/2013 2:00,4.0000032,10,10,North,Clear,1,-9,48,1025,-3,-9999,-9
13/3/2013 3:00,3.0000024,350,11,North,Clear,-1,-8,60,1025,-4.7,-9999,-8
13/3/2013 4:00,3.0000024,360,17,North,Clear,-1,-9,55,1026,-4.7,-9999,-9
13/3/2013 5:00,4.0000032,40,14,NE,Clear,0,-11,44,1026,-4.3,-9999,-11
13/3/2013 6:00,3.0000024,20,16,NNE,Clear,-1,-10,51,1027,-4.7,-9999,-10
13/3/2013 7:00,4.0000032,40,15,NE,Clear,0,-11,44,1028,-4.3,-9999,-11
13/3/2013 8:00,4.0000032,20,16,NNE,Clear,2,-11,38,1029,-1.8,-9999,-11
13/3/2013 9:00,5.000004,40,16,NE,Clear,3,-12,33,1031,-1.2,-9999,-12
13/3/2013 10:00,5.000004,50,17,NE,Clear,4,-14,26,1031,0.1,-9999,-14
13/3/2013 11:00,4.0000032,50,13,NE,Clear,5,-15,23,1032,1.9,-9999,-15
13/3/2013 12:00,4.0000032,50,10,NE,Clear,6,-16,19,1031,3.1,-9999,-16
13/3/2013 13:00,3.0000024,20,14,NNE,Clear,7,-16,18,1030,4.9,-9999,-16
13/3/2013 14:00,1.0000008,0,12,Variable,Clear,8,-18,14,1029,-999,-9999,-18
13/3/2013 15:00,2.0000016,0,15,Variable,Clear,8,-19,13,1028,6.9,-9999,-19
13/3/2013 16:00,1.0000008,0,16,Variable,Clear,8,-18,14,1028,-999,-9999,-18
13/3/2013 17:00,2.0000016,180,23,South,Clear,8,-18,14,1028,6.9,-9999,-18
13/3/2013 18:00,3.0000024,150,37,SSE,Clear,6,-15,21,1028,3.7,-9999,-15
13/3/2013 19:00,2.0000016,160,38,SSE,Clear,4,-13,28,1029,2.2,-9999,-13
13/3/2013 20:00,2.0000016,180,30,South,Clear,4,-13,28,1029,2.2,-9999,-13
13/3/2013 21:00,2.0000016,170,34,South,Clear,4,-12,31,1030,2.2,-9999,-12
13/3/2013 22:00,2.0000016,160,48,SSE,Clear,2,-9,44,1030,-0.1,-9999,-9
13/3/2013 23:00,3.0000024,140,71,SE,Clear,2,-9,44,1030,-1.1,-9999,-9
14/3/2013 0:00,4.0000032,130,82,SE,Clear,1,-4,70,1031,-3,-9999,-4
14/3/2013 1:00,4.0000032,140,77,SE,Clear,0,-4,75,1031,-4.3,-9999,-4
14/3/2013 2:00,2.0000016,110,83,ESE,Clear,-1,-4,80,1031,-3.6,-9999,-4
14/3/2013 3:00,2.0000016,90,92,East,Clear,-1,-4,80,1031,-3.6,-9999,-4
14/3/2013 4:00,2.0000016,110,84,ESE,Clear,-2,-4,86,1030,-4.8,-9999,-4
14/3/2013 5:00,2.0000016,110,84,ESE,Clear,-2,-4,86,1030,-4.8,-9999,-4
14/3/2013 6:00,1.0000008,100,75,East,Clear,-1,-4,80,1030,-999,-9999,-4
14/3/2013 7:00,1.0000008,90,88,East,Clear,-1,-4,80,1030,-999,-9999,-4
14/3/2013 8:00,1.0000008,0,92,Variable,Clear,0,-3,80,1031,-999,-9999,-3
14/3/2013 9:00,2.0000016,160,92,SSE,Unknown,1,-4,70,1031,-1.3,7,-4
14/3/2013 10:00,2.0000016,0,112,Variable,Unknown,3,-5,56,1030,1,7,-5
14/3/2013 11:00,2.0000016,110,,ESE,Unknown,4,-4,56,1029,2.2,7,-4
14/3/2013 12:00,2.0000016,150,124,SSE,Unknown,5,-4,53,1028,3.4,7,-4
14/3/2013 13:00,2.0000016,0,122,Variable,Unknown,7,-4,46,1027,5.7,6,-4
14/3/2013 14:00,3.0000024,180,109,South,Unknown,9,-6,34,1026,-999,6,-6
14/3/2013 15:00,3.0000024,200,111,SSW,Unknown,9,-6,34,1025,-999,6,-6
14/3/2013 16:00,5.000004,180,121,South,Unknown,10,-7,30,1024,-999,6,-7
14/3/2013 17:00,5.000004,190,128,South,Unknown,9,-6,34,1024,-999,6,-6
14/3/2013 18:00,5.000004,180,127,South,Unknown,7,-5,43,1024,3.8,6,-5
14/3/2013 19:00,4.0000032,180,126,South,Unknown,5,-5,49,1024,1.9,6,-5
14/3/2013 20:00,1.0000008,160,136,SSE,Unknown,5,-4,53,1024,-999,6,-4
14/3/2013 21:00,1.0000008,120,165,ESE,Haze,3,-4,60,1024,-999,5,-4
14/3/2013 22:00,2.0000016,110,182,ESE,Haze,3,-3,65,1024,1,5,-3
14/3/2013 23:00,2.0000016,100,182,East,Haze,3,-3,65,1024,1,5,-3
15/3/2013 0:00,1.0000008,0,195,Variable,Haze,2,-3,70,1024,-999,5,-3
15/3/2013 1:00,1.0000008,0,205,Variable,Haze,1,-3,75,1023,-999,5,-3
15/3/2013 2:00,1.0000008,50,217,NE,Mist,0,-4,75,1023,-999,5,-4
15/3/2013 3:00,1.0000008,10,226,North,Unknown,0,-5,69,1022,-999,6,-5
15/3/2013 4:00,2.0000016,350,220,North,Unknown,-1,-4,80,1022,-3.6,6,-4
15/3/2013 5:00,1.0000008,0,197,Variable,Unknown,-1,-3,86,1022,-999,6,-3
15/3/2013 6:00,1.0000008,0,187,Variable,Unknown,-2,-3,93,1022,-999,6,-3
15/3/2013 7:00,2.0000016,10,174,North,Mist,-1,-3,86,1022,-3.6,3.5,-3
15/3/2013 8:00,1.0000008,0,181,Variable,Mist,1,-1,87,1022,-999,3,-1
15/3/2013 9:00,1.0000008,10,192,North,Mist,3,-2,70,1022,-999,3,-2
15/3/2013 10:00,1.0000008,0,216,Variable,Haze,5,-1,65,1022,-999,3,-1
15/3/2013 11:00,2.0000016,140,247,SE,Haze,6,-2,57,1021,4.5,3,-2
15/3/2013 12:00,1.0000008,0,254,Variable,Haze,8,-1,53,1020,-999,3,-1
15/3/2013 13:00,2.0000016,140,271,SE,Haze,10,-2,43,1019,-999,3,-2
15/3/2013 14:00,3.0000024,0,302,Variable,Haze,11,-2,41,1018,-999,3,-2
15/3/2013 15:00,2.0000016,220,294,SW,Haze,11,-1,44,1017,-999,3,-1
15/3/2013 16:00,2.0000016,190,280,South,Haze,11,-1,44,1017,-999,2.6,-1
15/3/2013 17:00,2.0000016,0,294,Variable,Haze,11,0,47,1017,-999,2.7,0
15/3/2013 18:00,2.0000016,140,302,SE,Haze,10,1,54,1017,-999,2.7,1
15/3/2013 19:00,1.0000008,160,324,SSE,Haze,9,1,58,1018,-999,2.8,1
15/3/2013 20:00,1.0000008,90,315,East,Haze,7,2,71,1018,-999,2.8,2
15/3/2013 21:00,1.0000008,70,328,ENE,Mist,5,2,81,1019,-999,2.8,2
15/3/2013 22:00,1.0000008,70,355,ENE,Mist,5,1,76,1020,-999,2.7,1
15/3/2013 23:00,2.0000016,10,405,North,Mist,4,1,81,1021,2.2,2.8,1
16/3/2013 0:00,3.0000024,360,347,North,Mist,3,0,81,1021,0.1,2.5,0
16/3/2013 1:00,3.0000024,360,346,North,Mist,2,0,87,1021,-1.1,2.5,0
16/3/2013 2:00,4.0000032,350,342,North,Mist,4,0,75,1022,0.6,2.5,0
16/3/2013 3:00,2.0000016,360,327,North,Mist,4,0,75,1022,2.2,2.5,0
16/3/2013 4:00,2.0000016,20,332,NNE,Mist,4,0,75,1023,2.2,2.5,0
16/3/2013 5:00,3.0000024,350,328,North,Mist,2,0,87,1023,-1.1,2.5,0
16/3/2013 6:00,3.0000024,360,,North,Mist,3,0,81,1024,0.1,2.5,0
16/3/2013 7:00,2.0000016,340,325,NNW,Mist,3,0,81,1025,1,2,0
16/3/2013 8:00,3.0000024,320,315,NW,Mist,6,0,66,1025,3.7,2,0
16/3/2013 9:00,3.0000024,330,295,NNW,Haze,9,0,54,1026,-999,2.5,0
16/3/2013 10:00,3.0000024,320,239,NW,Haze,11,0,47,1026,-999,3,0
16/3/2013 11:00,1.0000008,0,212,Variable,Haze,14,-1,36,1026,-999,3,-1
16/3/2013 12:00,2.0000016,0,214,Variable,Haze,14,-2,33,1025,-999,3.5,-2
16/3/2013 13:00,2.0000016,220,215,SW,Haze,14,-3,31,1024,-999,4,-3
16/3/2013 14:00,5.000004,160,208,SSE,Haze,15,-3,29,1023,-999,4.5,-3
16/3/2013 15:00,4.0000032,180,229,South,Haze,14,-2,33,1022,-999,4.5,-2
16/3/2013 16:00,4.0000032,170,235,South,Haze,14,-2,33,1021,-999,4.5,-2
16/3/2013 17:00,4.0000032,160,199,SSE,Haze,13,-1,38,1021,-999,4.5,-1
16/3/2013 18:00,4.0000032,150,251,SSE,Haze,12,2,51,1020,-999,3,2
16/3/2013 19:00,3.0000024,150,280,SSE,Haze,10,3,62,1020,-999,3,3
16/3/2013 20:00,3.0000024,160,250,SSE,Haze,10,3,62,1020,-999,3,3
16/3/2013 21:00,3.0000024,170,205,South,Haze,8,2,66,1020,6.1,3.5,2
16/3/2013 22:00,3.0000024,160,202,SSE,Haze,7,1,66,1020,4.9,4,1
16/3/2013 23:00,2.0000016,160,204,SSE,Haze,6,0,66,1019,4.5,4.5,0
17/3/2013 0:00,1.0000008,120,216,ESE,Haze,6,1,70,1018,-999,4.5,1
17/3/2013 1:00,2.0000016,80,221,East,Haze,5,1,76,1018,3.4,4.5,1
17/3/2013 2:00,1.0000008,0,227,Variable,Haze,5,0,70,1017,-999,4.5,0
17/3/2013 3:00,1.0000008,0,235,Variable,Haze,4,0,75,1016,-999,4,0
17/3/2013 4:00,0,0,236,North,Haze,5,0,70,1014,-999,3.5,0
17/3/2013 5:00,1.0000008,0,232,Variable,Haze,4,0,75,1014,-999,3.5,0
17/3/2013 6:00,2.0000016,80,241,East,Haze,4,0,75,1013,2.2,3.5,0
17/3/2013 7:00,2.0000016,80,258,East,Haze,3,0,81,1012,1,3,0
17/3/2013 8:00,1.0000008,0,273,Variable,Haze,5,1,76,1011,-999,3,1
17/3/2013 9:00,2.0000016,120,287,ESE,Haze,6,1,70,1011,4.5,2.5,1
17/3/2013 10:00,2.0000016,120,316,ESE,Haze,8,2,66,1010,6.9,2.5,2
17/3/2013 11:00,1.0000008,0,337,Variable,Haze,10,2,58,1009,-999,2.5,2
17/3/2013 12:00,2.0000016,0,359,Variable,Haze,11,2,54,1008,-999,2.3,2
17/3/2013 13:00,2.0000016,150,394,SSE,Haze,13,3,51,1006,-999,2.3,3
17/3/2013 14:00,2.0000016,140,393,SE,Haze,15,3,45,1004,-999,2.1,3
17/3/2013 15:00,3.0000024,180,402,South,Haze,16,3,42,1003,-999,2,3
17/3/2013 16:00,3.0000024,190,400,South,Haze,16,4,45,1002,-999,2,4
17/3/2013 17:00,2.0000016,200,422,SSW,Haze,15,3,45,1002,-999,2,3
17/3/2013 18:00,2.0000016,170,429,South,Haze,14,4,51,1001,-999,2,4
17/3/2013 19:00,1.0000008,0,480,Variable,Haze,11,4,62,1001,-999,2.2,4
17/3/2013 20:00,2.0000016,40,512,NE,Mist,7,3,76,1002,5.7,2,3
17/3/2013 21:00,1.0000008,0,541,Variable,Mist,8,5,81,1002,-999,2,5
17/3/2013 22:00,1.0000008,0,522,Variable,Mist,7,3,76,1002,-999,2,3
17/3/2013 23:00,1.0000008,350,498,North,Mist,8,5,81,1001,-999,1.8,5
18/3/2013 0:00,3.0000024,350,517,North,Mist,5,3,87,1001,2.5,1.7,3
18/3/2013 1:00,3.0000024,310,246,NW,Mist,8,3,71,1002,6.1,2,3
18/3/2013 2:00,5.000004,350,39,North,Mist,5,2,81,1002,1.3,2,2
18/3/2013 3:00,4.0000032,340,14,NNW,Mist,7,2,71,1002,4.3,2.5,2
18/3/2013 4:00,9.0000072,330,15,NNW,Clear,10,-10,24,1002,-999,-9999,-10
18/3/2013 5:00,9.0000072,340,10,NNW,Clear,10,-9,26,1003,-999,-9999,-9
18/3/2013 6:00,13.0000104,330,13,NNW,Clear,9,-9,27,1004,-999,-9999,-9
18/3/2013 7:00,13.0000104,330,9,NNW,Clear,8,-15,18,1006,2.9,-9999,-15
18/3/2013 8:00,11.0000088,340,13,NNW,Clear,7,-16,18,1008,2,-9999,-16
18/3/2013 9:00,9.0000072,350,10,North,Clear,7,-18,15,1009,2.5,-9999,-18
18/3/2013 10:00,6.0000048,360,7,North,Clear,10,-21,10,1009,-999,-9999,-21
18/3/2013 11:00,5.000004,30,6,NNE,Clear,9,-20,11,1010,-999,-9999,-20
18/3/2013 12:00,4.0000032,60,9,ENE,Clear,9,-21,10,1010,-999,-9999,-21
18/3/2013 13:00,2.0000016,0,10,Variable,Clear,11,-22,8,1009,-999,-9999,-22
18/3/2013 14:00,4.0000032,340,19,NNW,Clear,13,-22,7,1008,-999,-9999,-22
18/3/2013 15:00,3.0000024,300,14,WNW,Clear,12,-22,8,1007,-999,-9999,-22
18/3/2013 16:00,5.000004,160,22,SSE,Clear,11,-21,9,1006,-999,-9999,-21
18/3/2013 17:00,5.000004,170,25,South,Clear,10,-20,11,1006,-999,-9999,-20
18/3/2013 18:00,7.0000056,170,87,South,Clear,9,-18,13,1006,-999,-9999,-18
18/3/2013 19:00,9.0000072,180,49,South,Clear,6,-3,53,1007,1.2,-9999,-3
18/3/2013 20:00,8.0000064,170,36,South,Clear,4,-4,56,1009,-1.1,-9999,-4
18/3/2013 21:00,7.0000056,170,30,South,Clear,3,-4,60,1010,-2.1,-9999,-4
18/3/2013 22:00,5.000004,140,35,SE,Clear,2,-5,60,1010,-2.4,-9999,-5
18/3/2013 23:00,4.0000032,150,30,SSE,Clear,2,-5,60,1010,-1.8,-9999,-5
19/3/2013 0:00,3.0000024,100,33,East,Clear,1,-5,65,1011,-2.3,-9999,-5
19/3/2013 1:00,3.0000024,80,34,East,Clear,1,-4,70,1012,-2.3,-9999,-4
19/3/2013 2:00,4.0000032,70,36,ENE,Light Rain,0,-3,80,1012,-4.3,10,-3
19/3/2013 3:00,3.0000024,70,25,ENE,Light Snow,-1,-2,93,1011,-4.7,8,-2
19/3/2013 4:00,2.0000016,20,23,NNE,Mostly Cloudy,0,-3,80,1012,-2.5,10,-3
19/3/2013 5:00,2.0000016,60,22,ENE,Mostly Cloudy,0,-3,80,1011,-2.5,10,-3
19/3/2013 6:00,1.0000008,30,34,NNE,Overcast,0,-3,80,1011,-999,10,-3
19/3/2013 7:00,1.0000008,20,34,NNE,Mostly Cloudy,0,-3,80,1012,-999,10,-3
19/3/2013 8:00,2.0000016,10,48,North,Clear,2,-2,75,1013,-0.1,-9999,-2
19/3/2013 9:00,3.0000024,20,59,NNE,Clear,3,-2,70,1013,0.1,-9999,-2
19/3/2013 10:00,4.0000032,10,68,North,Clear,3,-3,65,1014,-0.6,-9999,-3
19/3/2013 11:00,3.0000024,20,69,NNE,Clear,4,-2,65,1013,1.3,-9999,-2
19/3/2013 12:00,3.0000024,30,69,NNE,Light Rain,5,-1,65,1013,2.5,8,-1
19/3/2013 13:00,4.0000032,10,69,North,Clear,5,0,70,1013,1.9,-9999,0
19/3/2013 14:00,3.0000024,30,72,NNE,Partly Cloudy,5,0,70,1013,2.5,10,0
19/3/2013 15:00,5.000004,20,63,NNE,Clear,5,1,76,1013,1.3,-9999,1
19/3/2013 16:00,4.0000032,20,57,NNE,Partly Cloudy,4,1,81,1014,0.6,10,1
19/3/2013 17:00,4.0000032,20,41,NNE,Light Rain,3,1,87,1015,-0.6,10,1
19/3/2013 18:00,3.0000024,50,60,NE,Light Rain,2,1,93,1016,-1.1,6,1
19/3/2013 19:00,1.0000008,50,69,NE,Light Rain,2,1,93,1017,-999,6,1
19/3/2013 20:00,2.0000016,120,100,ESE,Light Snow,1,0,93,1019,-1.3,4.5,0
19/3/2013 21:00,1.0000008,0,105,Variable,Light Snow,1,0,93,1020,-999,-9999,0
19/3/2013 22:00,2.0000016,100,83,East,Light Snow,0,0,100,1021,-2.5,2.2,0
19/3/2013 23:00,4.0000032,150,75,SSE,Light Snow,0,0,100,1022,-4.3,2,0
20/3/2013 0:00,3.0000024,100,62,East,Light Snow,-1,-1,100,1022,-4.7,1.8,-1
20/3/2013 1:00,2.0000016,140,53,SE,Light Snow,-1,-1,100,1023,-3.6,1.2,-1
20/3/2013 2:00,2.0000016,130,54,SE,Light Snow,-2,-2,100,1024,-4.8,2.5,-2
20/3/2013 3:00,3.0000024,80,45,East,Light Snow,-2,-2,100,1024,-5.9,1.7,-2
20/3/2013 4:00,2.0000016,200,29,SSW,Light Snow,-2,-2,100,1025,-4.8,2,-2
20/3/2013 5:00,1.0000008,230,28,SW,Light Snow,-2,-3,93,1025,-999,6,-3
20/3/2013 6:00,2.0000016,250,36,WSW,Patches of Fog,-3,-3,100,1025,-5.9,4,-3
20/3/2013 7:00,3.0000024,250,39,WSW,Patches of Fog,-2,-3,93,1025,-5.9,6,-3
20/3/2013 8:00,1.0000008,120,48,ESE,Patches of Fog,-1,-2,93,1026,-999,6,-2
20/3/2013 9:00,1.0000008,140,63,SE,Patches of Fog,0,-1,93,1027,-999,4,-1
20/3/2013 10:00,2.0000016,250,56,WSW,Unknown,0,-2,87,1027,-2.5,6,-2
20/3/2013 11:00,3.0000024,270,56,West,Clear,2,-6,56,1026,-1.1,-9999,-6
20/3/2013 12:00,5.000004,290,65,WNW,Clear,3,-10,38,1025,-1.2,-9999,-10
20/3/2013 13:00,5.000004,280,49,West,Partly Cloudy,4,-10,36,1024,0.1,10,-10
20/3/2013 14:00,4.0000032,290,53,WNW,Partly Cloudy,5,-10,33,1023,1.9,10,-10
20/3/2013 15:00,4.0000032,250,53,WSW,Clear,5,-8,39,1022,1.9,-9999,-8
20/3/2013 16:00,3.0000024,220,63,SW,Clear,6,-6,42,1021,3.7,-9999,-6
20/3/2013 17:00,4.0000032,210,70,SSW,Clear,5,-6,45,1021,1.9,-9999,-6
20/3/2013 18:00,3.0000024,180,91,South,Clear,4,-5,52,1020,1.3,-9999,-5
20/3/2013 19:00,5.000004,190,97,South,Clear,3,-3,65,1020,-1.2,-9999,-3
20/3/2013 20:00,4.0000032,180,102,South,Clear,2,-3,70,1020,-1.8,-9999,-3
20/3/2013 21:00,4.0000032,170,109,South,Clear,2,-3,70,1020,-1.8,-9999,-3
20/3/2013 22:00,3.0000024,180,119,South,Clear,1,-3,75,1020,-2.3,-9999,-3
20/3/2013 23:00,2.0000016,150,118,SSE,Clear,2,-3,70,1019,-0.1,-9999,-3
21/3/2013 0:00,3.0000024,150,114,SSE,Clear,2,-3,70,1018,-1.1,-9999,-3
21/3/2013 1:00,3.0000024,160,98,SSE,Clear,2,-3,70,1018,-1.1,-9999,-3
21/3/2013 2:00,3.0000024,140,91,SE,Clear,1,-3,75,1017,-2.3,-9999,-3
21/3/2013 3:00,3.0000024,140,94,SE,Clear,1,-4,70,1016,-2.3,-9999,-4
21/3/2013 4:00,3.0000024,140,97,SE,Clear,0,-4,75,1015,-3.5,-9999,-4
21/3/2013 5:00,2.0000016,140,108,SE,Clear,0,-4,75,1014,-2.5,-9999,-4
21/3/2013 6:00,2.0000016,120,107,ESE,Clear,0,-4,75,1014,-2.5,-9999,-4
21/3/2013 7:00,1.0000008,0,104,Variable,Unknown,0,-3,80,1013,-999,8,-3
21/3/2013 8:00,3.0000024,150,105,SSE,Clear,1,-4,70,1013,-2.3,-9999,-4
21/3/2013 9:00,2.0000016,140,123,SE,Unknown,2,-4,65,1012,-0.1,7,-4
21/3/2013 10:00,1.0000008,0,148,Variable,Unknown,4,-3,61,1011,-999,6,-3
21/3/2013 11:00,2.0000016,90,164,East,Unknown,4,-3,61,1010,2.2,6,-3
21/3/2013 12:00,2.0000016,160,173,SSE,Haze,6,-3,53,1009,4.5,5,-3
21/3/2013 13:00,1.0000008,0,172,Variable,Haze,7,-3,49,1008,-999,5,-3
21/3/2013 14:00,2.0000016,0,183,Variable,Haze,8,-2,50,1007,6.9,5,-2
21/3/2013 15:00,2.0000016,250,192,WSW,Haze,8,-2,50,1006,6.9,5,-2
21/3/2013 16:00,1.0000008,0,198,Variable,Haze,8,-2,50,1006,-999,5,-2
21/3/2013 17:00,3.0000024,360,210,North,Haze,8,-1,53,1005,6.1,4,-1
21/3/2013 18:00,5.000004,360,224,North,Haze,6,-1,61,1006,2.6,4,-1
21/3/2013 19:00,3.0000024,10,224,North,Haze,5,-1,65,1007,2.5,4,-1
21/3/2013 20:00,2.0000016,20,224,NNE,Haze,5,-1,65,1008,3.4,4,-1
21/3/2013 21:00,4.0000032,360,211,North,Haze,4,-1,70,1009,0.6,4,-1
21/3/2013 22:00,4.0000032,350,210,North,Haze,4,-1,70,1010,0.6,4,-1
21/3/2013 23:00,3.0000024,350,209,North,Haze,4,-1,70,1011,1.3,4,-1
22/3/2013 0:00,4.0000032,340,166,NNW,Haze,5,-1,65,1012,1.9,4,-1
22/3/2013 1:00,5.000004,10,125,North,Haze,2,-2,75,1013,-2.4,5,-2
22/3/2013 2:00,3.0000024,360,94,North,Unknown,2,-2,75,1014,-1.1,8,-2
22/3/2013 3:00,3.0000024,50,51,NE,Clear,5,-6,45,1015,2.5,-9999,-6
22/3/2013 4:00,4.0000032,360,58,North,Clear,2,-5,60,1015,-1.8,-9999,-5
22/3/2013 5:00,2.0000016,20,51,NNE,Clear,3,-8,45,1017,1,-9999,-8
22/3/2013 6:00,4.0000032,30,17,NNE,Clear,3,-10,38,1018,-0.6,-9999,-10
22/3/2013 7:00,2.0000016,360,14,North,Clear,3,-10,38,1019,1,-9999,-10
22/3/2013 8:00,2.0000016,30,18,NNE,Clear,6,-12,27,1020,4.5,-9999,-12
22/3/2013 9:00,2.0000016,90,17,East,Clear,7,-13,23,1020,5.7,-9999,-13
22/3/2013 10:00,2.0000016,0,66,Variable,Clear,8,-13,22,1020,6.9,-9999,-13
22/3/2013 11:00,5.000004,150,63,SSE,Clear,8,-7,34,1020,5.1,-9999,-7
22/3/2013 12:00,4.0000032,180,62,South,Clear,8,-9,29,1019,5.6,-9999,-9
22/3/2013 13:00,6.0000048,160,73,SSE,Clear,9,-7,32,1018,-999,-9999,-7
22/3/2013 14:00,5.000004,190,76,South,Clear,10,-8,28,1018,-999,-9999,-8
22/3/2013 15:00,6.0000048,220,62,SW,Clear,10,-6,32,1017,-999,-9999,-6
22/3/2013 16:00,6.0000048,200,74,SSW,Clear,10,-7,30,1016,-999,-9999,-7
22/3/2013 17:00,6.0000048,190,82,South,Clear,10,-6,32,1016,-999,-9999,-6
22/3/2013 18:00,6.0000048,210,74,SSW,Clear,9,-5,37,1016,-999,-9999,-5
22/3/2013 19:00,4.0000032,180,69,South,Unknown,7,-5,43,1017,4.3,8,-5
22/3/2013 20:00,5.000004,140,63,SE,Clear,6,-4,49,1017,2.6,-9999,-4
22/3/2013 21:00,4.0000032,150,61,SSE,Clear,4,-4,56,1018,0.6,-9999,-4
22/3/2013 22:00,4.0000032,150,58,SSE,Clear,4,-4,56,1018,0.6,-9999,-4
22/3/2013 23:00,4.0000032,140,54,SE,Clear,2,-3,70,1018,-1.8,-9999,-3
23/3/2013 0:00,4.0000032,140,50,SE,Clear,1,-3,75,1018,-3,-9999,-3
23/3/2013 1:00,3.0000024,130,51,SE,Clear,0,-3,80,1017,-3.5,-9999,-3
23/3/2013 2:00,2.0000016,100,51,East,Clear,0,-3,80,1016,-2.5,-9999,-3
23/3/2013 3:00,2.0000016,100,51,East,Clear,1,-3,75,1015,-1.3,-9999,-3
23/3/2013 4:00,4.0000032,130,52,SE,Clear,1,-3,75,1015,-3,-9999,-3
23/3/2013 5:00,4.0000032,120,56,ESE,Clear,0,-3,80,1014,-4.3,-9999,-3
23/3/2013 6:00,4.0000032,120,60,ESE,Clear,0,-3,80,1014,-4.3,-9999,-3
23/3/2013 7:00,3.0000024,100,76,East,Unknown,1,-3,75,1014,-2.3,6,-3
23/3/2013 8:00,5.000004,110,97,ESE,Unknown,1,-4,70,1012,-3.7,6,-4
23/3/2013 9:00,3.0000024,110,86,ESE,Clear,3,-4,60,1011,0.1,-9999,-4
23/3/2013 10:00,3.0000024,110,88,ESE,Clear,3,-4,60,1011,0.1,-9999,-4
23/3/2013 11:00,2.0000016,70,91,ENE,Clear,3,-5,56,1011,1,-9999,-5
23/3/2013 12:00,2.0000016,340,90,NNW,Clear,6,-5,46,1011,4.5,-9999,-5
23/3/2013 13:00,1.0000008,0,96,Variable,Clear,5,-6,45,1010,-999,-9999,-6
23/3/2013 14:00,1.0000008,0,94,Variable,Clear,8,-6,37,1010,-999,-9999,-6
23/3/2013 15:00,2.0000016,90,86,East,Clear,8,-5,40,1009,6.9,-9999,-5
23/3/2013 16:00,3.0000024,280,71,West,Clear,11,-5,33,1010,-999,-9999,-5
23/3/2013 17:00,14.0000112,340,18,NNW,Clear,12,-11,19,1011,-999,-9999,-11
23/3/2013 18:00,12.0000096,340,15,NNW,Clear,9,-11,24,1014,-999,-9999,-11
23/3/2013 19:00,13.0000104,320,11,NW,Clear,8,-14,20,1016,2.9,-9999,-14
23/3/2013 20:00,10.000008,310,12,NW,Clear,6,-13,25,1018,0.9,-9999,-13
23/3/2013 21:00,7.0000056,310,8,NW,Clear,5,-15,23,1020,0.5,-9999,-15
23/3/2013 22:00,5.000004,360,5,North,Clear,3,-14,28,1021,-1.2,-9999,-14
23/3/2013 23:00,5.000004,20,9,NNE,Clear,3,-15,26,1022,-1.2,-9999,-15
24/3/2013 0:00,5.000004,30,10,NNE,Clear,2,-16,26,1023,-2.4,-9999,-16
24/3/2013 1:00,6.0000048,30,9,NNE,Clear,2,-16,26,1023,-2.9,-9999,-16
24/3/2013 2:00,6.0000048,20,11,NNE,Clear,1,-15,30,1023,-4.2,-9999,-15
24/3/2013 3:00,5.000004,10,9,North,Clear,-1,-13,40,1024,-6.2,-9999,-13
24/3/2013 4:00,6.0000048,20,11,NNE,Clear,0,-13,38,1024,-5.4,-9999,-13
24/3/2013 5:00,5.000004,360,13,North,Clear,-1,-12,44,1024,-6.2,-9999,-12
24/3/2013 6:00,2.0000016,40,18,NE,Clear,-1,-12,44,1024,-3.6,-9999,-12
24/3/2013 7:00,2.0000016,30,18,NNE,Clear,0,-13,38,1025,-2.5,-9999,-13
24/3/2013 8:00,3.0000024,360,11,North,Clear,3,-14,28,1025,0.1,-9999,-14
24/3/2013 9:00,5.000004,340,12,NNW,Clear,4,-17,21,1025,0.1,-9999,-17
24/3/2013 10:00,3.0000024,360,12,North,Clear,5,-17,19,1025,2.5,-9999,-17
24/3/2013 11:00,2.0000016,40,11,NE,Clear,6,-17,18,1024,4.5,-9999,-17
24/3/2013 12:00,3.0000024,340,15,NNW,Clear,8,-18,14,1023,6.1,-9999,-18
24/3/2013 13:00,3.0000024,350,13,North,Clear,8,-18,14,1022,6.1,-9999,-18
24/3/2013 14:00,1.0000008,0,12,Variable,Clear,8,-19,13,1021,-999,-9999,-19
24/3/2013 15:00,2.0000016,0,12,Variable,Clear,9,-19,12,1019,-999,-9999,-19
24/3/2013 16:00,4.0000032,110,15,ESE,Clear,9,-18,13,1018,-999,-9999,-18
24/3/2013 17:00,4.0000032,120,21,ESE,Clear,9,-17,15,1018,-999,-9999,-17
24/3/2013 18:00,3.0000024,130,32,SE,Clear,8,-15,18,1018,6.1,-9999,-15
24/3/2013 19:00,3.0000024,140,50,SE,Clear,6,-14,23,1019,3.7,-9999,-14
24/3/2013 20:00,4.0000032,190,60,South,Clear,6,-14,23,1019,3.1,-9999,-14
24/3/2013 21:00,2.0000016,160,56,SSE,Clear,5,-13,26,1020,3.4,-9999,-13
24/3/2013 22:00,3.0000024,190,58,South,Clear,4,-12,31,1021,1.3,-9999,-12
24/3/2013 23:00,1.0000008,0,71,Variable,Clear,3,-10,38,1021,-999,-9999,-10
25/3/2013 0:00,4.0000032,130,91,SE,Clear,2,-8,48,1022,-1.8,-9999,-8
25/3/2013 1:00,3.0000024,110,88,ESE,Clear,2,-7,52,1022,-1.1,-9999,-7
25/3/2013 2:00,5.000004,110,90,ESE,Clear,0,-5,69,1023,-4.9,-9999,-5
25/3/2013 3:00,4.0000032,110,74,ESE,Clear,0,-5,69,1023,-4.3,-9999,-5
25/3/2013 4:00,3.0000024,120,86,ESE,Clear,-1,-5,75,1023,-4.7,-9999,-5
25/3/2013 5:00,1.0000008,0,103,Variable,Clear,-1,-6,69,1023,-999,-9999,-6
25/3/2013 6:00,1.0000008,0,119,Variable,Clear,-1,-6,69,1024,-999,-9999,-6
25/3/2013 7:00,1.0000008,0,121,Variable,Clear,-2,-5,80,1024,-999,-9999,-5
25/3/2013 8:00,1.0000008,0,137,Variable,Clear,1,-5,65,1024,-999,-9999,-5
25/3/2013 9:00,2.0000016,120,126,ESE,Clear,3,-6,52,1024,1,-9999,-6
25/3/2013 10:00,2.0000016,0,112,Variable,Clear,4,-7,45,1024,2.2,-9999,-7
25/3/2013 11:00,2.0000016,0,,Variable,Clear,6,-8,36,1023,4.5,-9999,-8
25/3/2013 12:00,3.0000024,190,137,South,Clear,7,-8,34,1022,4.9,-9999,-8
25/3/2013 13:00,3.0000024,0,129,Variable,Clear,9,-8,30,1021,-999,-9999,-8
25/3/2013 14:00,2.0000016,0,137,Variable,Clear,10,-9,26,1020,-999,-9999,-9
25/3/2013 15:00,2.0000016,0,123,Variable,Clear,10,-9,26,1019,-999,-9999,-9
25/3/2013 16:00,3.0000024,220,115,SW,Clear,11,-9,24,1019,-999,-9999,-9
25/3/2013 17:00,4.0000032,210,117,SSW,Clear,11,-10,22,1018,-999,-9999,-10
25/3/2013 18:00,3.0000024,200,135,SSW,Clear,10,-9,26,1018,-999,-9999,-9
25/3/2013 19:00,2.0000016,180,150,South,Clear,8,-9,29,1018,6.9,-9999,-9
25/3/2013 20:00,2.0000016,140,127,SE,Clear,7,-8,34,1019,5.7,-9999,-8
25/3/2013 21:00,2.0000016,160,102,SSE,Clear,7,-7,37,1019,5.7,-9999,-7
25/3/2013 22:00,2.0000016,150,97,SSE,Clear,6,-7,39,1019,4.5,-9999,-7
25/3/2013 23:00,2.0000016,130,98,SE,Clear,4,-7,45,1018,2.2,-9999,-7
26/3/2013 0:00,3.0000024,150,110,SSE,Clear,5,-8,39,1018,2.5,-9999,-8
26/3/2013 1:00,3.0000024,140,128,SE,Clear,5,-8,39,1018,2.5,-9999,-8
26/3/2013 2:00,2.0000016,130,153,SE,Clear,4,-8,42,1017,2.2,-9999,-8
26/3/2013 3:00,2.0000016,140,174,SE,Clear,2,-7,52,1017,-0.1,-9999,-7
26/3/2013 4:00,0,0,187,North,Unknown,1,-6,60,1016,-999,8,-6
26/3/2013 5:00,0,0,188,North,Unknown,0,-4,75,1016,-999,7,-4
26/3/2013 6:00,1.0000008,20,196,NNE,Haze,0,-4,75,1016,-999,5,-4
26/3/2013 7:00,1.0000008,0,196,Variable,Haze,0,-3,80,1017,-999,3.5,-3
26/3/2013 8:00,2.0000016,140,205,SE,Haze,4,0,75,1016,2.2,3.5,0
26/3/2013 9:00,3.0000024,160,217,SSE,Haze,5,0,70,1016,2.5,3,0
26/3/2013 10:00,2.0000016,160,229,SSE,Haze,7,0,61,1016,5.7,3,0
26/3/2013 11:00,2.0000016,160,240,SSE,Haze,8,0,57,1015,6.9,2.7,0
26/3/2013 12:00,3.0000024,190,231,South,Haze,10,0,50,1014,-999,3,0
26/3/2013 13:00,3.0000024,190,211,South,Haze,11,-1,44,1013,-999,3,-1
26/3/2013 14:00,4.0000032,180,210,South,Haze,13,-2,36,1012,-999,4,-2
26/3/2013 15:00,5.000004,190,219,South,Haze,13,-3,33,1011,-999,4,-3
26/3/2013 16:00,6.0000048,200,210,SSW,Haze,13,-3,33,1010,-999,4,-3
26/3/2013 17:00,4.0000032,180,223,South,Haze,13,-2,36,1009,-999,4,-2
26/3/2013 18:00,3.0000024,170,220,South,Haze,12,-1,41,1009,-999,4,-1
26/3/2013 19:00,1.0000008,0,223,Variable,Haze,9,0,54,1009,-999,5,0
26/3/2013 20:00,2.0000016,100,234,East,Haze,8,1,62,1010,6.9,5,1
26/3/2013 21:00,2.0000016,100,231,East,Haze,10,1,54,1010,-999,5,1
26/3/2013 22:00,3.0000024,160,154,SSE,Unknown,8,1,62,1010,6.1,6,1
26/3/2013 23:00,4.0000032,170,128,South,Unknown,9,3,66,1010,-999,8,3
27/3/2013 0:00,3.0000024,160,132,SSE,Clear,8,3,71,1009,6.1,-9999,3
27/3/2013 1:00,3.0000024,170,134,South,Clear,6,2,76,1009,3.7,-9999,2
27/3/2013 2:00,2.0000016,150,135,SSE,Unknown,7,3,76,1009,5.7,8,3
27/3/2013 3:00,2.0000016,160,134,SSE,Unknown,5,3,87,1008,3.4,6,3
27/3/2013 4:00,2.0000016,130,139,SE,Mist,5,4,93,1007,3.4,5,4
27/3/2013 5:00,2.0000016,110,171,ESE,Mist,5,3,87,1007,3.4,4,3
27/3/2013 6:00,2.0000016,140,204,SE,Mist,6,4,87,1007,4.5,3.5,4
27/3/2013 7:00,2.0000016,40,183,NE,Mist,6,4,87,1009,4.5,2.5,4
27/3/2013 8:00,5.000004,360,179,North,Partly Cloudy,6,4,87,1010,2.6,2,4
27/3/2013 9:00,2.0000016,10,192,North,Mist,8,4,76,1010,6.9,2.5,4
27/3/2013 10:00,1.0000008,0,194,Variable,Haze,11,5,67,1010,-999,2.7,5
27/3/2013 11:00,2.0000016,20,156,NNE,Haze,13,4,54,1009,-999,3,4
27/3/2013 12:00,2.0000016,0,84,Variable,Haze,15,2,42,1009,-999,3.5,2
27/3/2013 13:00,4.0000032,310,21,NW,Clear,18,-6,19,1008,-999,-9999,-6
27/3/2013 14:00,5.000004,350,16,North,Clear,20,-6,17,1008,-999,-9999,-6
27/3/2013 15:00,7.0000056,300,15,WNW,Clear,20,-8,15,1008,-999,-9999,-8
27/3/2013 16:00,9.0000072,330,17,NNW,Clear,19,-10,13,1008,-999,-9999,-10
27/3/2013 17:00,11.0000088,340,26,NNW,Clear,17,-15,10,1009,-999,-9999,-15
27/3/2013 18:00,10.000008,360,16,North,Clear,14,-18,10,1011,-999,-9999,-18
27/3/2013 19:00,5.000004,10,15,North,Clear,12,-19,10,1013,-999,-9999,-19
27/3/2013 20:00,6.0000048,10,15,North,Clear,11,-19,11,1014,-999,-9999,-19
27/3/2013 21:00,5.000004,40,16,NE,Clear,10,-19,12,1016,-999,-9999,-19
27/3/2013 22:00,4.0000032,50,15,NE,Clear,9,-19,12,1018,-999,-9999,-19
27/3/2013 23:00,4.0000032,50,16,NE,Clear,8,-19,13,1019,5.6,-9999,-19
28/3/2013 0:00,4.0000032,50,8,NE,Clear,8,-18,14,1020,5.6,-9999,-18
28/3/2013 1:00,5.000004,50,8,NE,Clear,7,-19,14,1020,3.8,-9999,-19
28/3/2013 2:00,4.0000032,40,7,NE,Clear,6,-19,15,1020,3.1,-9999,-19
28/3/2013 3:00,3.0000024,50,8,NE,Clear,5,-17,19,1020,2.5,-9999,-17
28/3/2013 4:00,3.0000024,40,16,NE,Clear,5,-18,18,1020,2.5,-9999,-18
28/3/2013 5:00,1.0000008,0,17,Variable,Clear,3,-16,24,1021,-999,-9999,-16
28/3/2013 6:00,1.0000008,0,25,Variable,Clear,4,-16,22,1022,-999,-9999,-16
28/3/2013 7:00,2.0000016,10,17,North,Clear,4,-12,31,1022,2.2,-9999,-12
28/3/2013 8:00,1.0000008,0,13,Variable,Clear,6,-20,14,1023,-999,-9999,-20
28/3/2013 9:00,3.0000024,360,19,North,Clear,7,-20,13,1023,4.9,-9999,-20
28/3/2013 10:00,2.0000016,330,18,NNW,Clear,8,-21,11,1023,6.9,-9999,-21
28/3/2013 11:00,1.0000008,0,15,Variable,Clear,9,-20,11,1023,-999,-9999,-20
28/3/2013 12:00,5.000004,270,21,West,Clear,10,-14,17,1022,-999,-9999,-14
28/3/2013 13:00,5.000004,260,11,West,Clear,10,-11,22,1022,-999,-9999,-11
28/3/2013 14:00,5.000004,260,21,West,Clear,11,-14,16,1020,-999,-9999,-14
28/3/2013 15:00,6.0000048,270,20,West,Clear,12,-16,13,1019,-999,-9999,-16
28/3/2013 16:00,4.0000032,210,22,SSW,Clear,13,-17,11,1019,-999,-9999,-17
28/3/2013 17:00,2.0000016,310,17,NW,Clear,13,-21,8,1019,-999,-9999,-21
28/3/2013 18:00,2.0000016,70,60,ENE,Clear,12,-18,11,1019,-999,-9999,-18
28/3/2013 19:00,2.0000016,100,97,East,Clear,10,-16,15,1019,-999,-9999,-16
28/3/2013 20:00,4.0000032,200,120,SSW,Clear,10,-7,30,1020,-999,-9999,-7
28/3/2013 21:00,2.0000016,160,111,SSE,Clear,8,-4,43,1021,6.9,-9999,-4
28/3/2013 22:00,2.0000016,230,109,SW,Clear,9,-3,43,1022,-999,-9999,-3
28/3/2013 23:00,2.0000016,160,110,SSE,Clear,5,-3,57,1022,3.4,-9999,-3
29/3/2013 0:00,2.0000016,360,93,North,Clear,4,-3,61,1022,2.2,-9999,-3
29/3/2013 1:00,1.0000008,0,103,Variable,Unknown,1,-3,75,1022,-999,7,-3
29/3/2013 2:00,2.0000016,350,100,North,Unknown,1,-4,70,1022,-1.3,6,-4
29/3/2013 3:00,2.0000016,40,110,NE,Unknown,0,-4,75,1022,-2.5,6,-4
29/3/2013 4:00,1.0000008,0,100,Variable,Unknown,2,-6,56,1022,-999,8,-6
29/3/2013 5:00,0,0,93,North,Unknown,2,-5,60,1023,-999,8,-5
29/3/2013 6:00,1.0000008,0,97,Variable,Unknown,0,-6,64,1023,-999,8,-6
29/3/2013 7:00,2.0000016,70,116,ENE,Unknown,1,-4,70,1024,-1.3,8,-4
29/3/2013 8:00,3.0000024,110,127,ESE,Unknown,3,-3,65,1024,0.1,8,-3
29/3/2013 9:00,4.0000032,120,117,ESE,Unknown,5,-4,53,1024,1.9,8,-4
29/3/2013 10:00,3.0000024,80,90,East,Clear,8,-5,40,1024,6.1,-9999,-5
29/3/2013 11:00,4.0000032,80,78,East,Clear,9,-11,24,1023,-999,-9999,-11
29/3/2013 12:00,5.000004,120,119,ESE,Clear,10,-14,17,1022,-999,-9999,-14
29/3/2013 13:00,4.0000032,90,121,East,Clear,9,-9,27,1021,-999,-9999,-9
29/3/2013 14:00,4.0000032,140,108,SE,Clear,9,-8,30,1020,-999,-9999,-8
29/3/2013 15:00,3.0000024,130,93,SE,Clear,10,-9,26,1020,-999,-9999,-9
29/3/2013 16:00,2.0000016,120,97,ESE,Clear,10,-9,26,1020,-999,-9999,-9
29/3/2013 17:00,2.0000016,0,100,Variable,Light Rain,9,-6,34,1020,-999,10,-6
29/3/2013 18:00,2.0000016,50,101,NE,Clear,9,-6,34,1019,-999,-9999,-6
29/3/2013 19:00,3.0000024,90,80,East,Clear,7,-4,46,1020,4.9,-9999,-4
29/3/2013 20:00,3.0000024,120,75,ESE,Clear,6,-4,49,1021,3.7,-9999,-4
29/3/2013 21:00,6.0000048,150,58,SSE,Clear,5,-4,53,1022,0.9,-9999,-4
29/3/2013 22:00,4.0000032,120,66,ESE,Clear,4,-5,52,1022,0.6,-9999,-5
29/3/2013 23:00,3.0000024,110,60,ESE,Clear,4,-7,45,1023,1.3,-9999,-7
30/3/2013 0:00,3.0000024,130,72,SE,Clear,3,-6,52,1023,0.1,-9999,-6
30/3/2013 1:00,2.0000016,120,75,ESE,Clear,3,-6,52,1023,1,-9999,-6
30/3/2013 2:00,3.0000024,100,82,East,Clear,3,-7,48,1023,0.1,-9999,-7
30/3/2013 3:00,1.0000008,0,85,Variable,Clear,3,-7,48,1022,-999,-9999,-7
30/3/2013 4:00,1.0000008,0,82,Variable,Clear,3,-8,45,1022,-999,-9999,-8
30/3/2013 5:00,1.0000008,360,81,North,Clear,2,-8,48,1022,-999,-9999,-8
30/3/2013 6:00,2.0000016,10,84,North,Clear,1,-7,56,1023,-1.3,-9999,-7
30/3/2013 7:00,2.0000016,10,90,North,Clear,1,-5,65,1023,-1.3,-9999,-5
30/3/2013 8:00,3.0000024,350,93,North,Clear,6,-7,39,1023,3.7,-9999,-7
30/3/2013 9:00,2.0000016,20,100,NNE,Clear,7,-8,34,1024,5.7,-9999,-8
30/3/2013 10:00,3.0000024,130,122,SE,Clear,7,-7,37,1024,4.9,-9999,-7
30/3/2013 11:00,3.0000024,100,90,East,Clear,8,-6,37,1024,6.1,-9999,-6
30/3/2013 12:00,3.0000024,190,97,South,Clear,9,-6,34,1023,-999,-9999,-6
30/3/2013 13:00,3.0000024,140,116,SE,Unknown,10,-5,35,1022,-999,8,-5
30/3/2013 14:00,4.0000032,150,110,SSE,Unknown,11,-4,35,1021,-999,7,-4
30/3/2013 15:00,5.000004,150,98,SSE,Unknown,10,-2,43,1021,-999,8,-2
30/3/2013 16:00,5.000004,160,104,SSE,Unknown,10,-2,43,1020,-999,7,-2
30/3/2013 17:00,5.000004,140,85,SE,Unknown,9,-1,50,1020,-999,7,-1
30/3/2013 18:00,4.0000032,140,91,SE,Unknown,7,0,61,1021,4.3,6,0
30/3/2013 19:00,4.0000032,140,98,SE,Unknown,6,0,66,1021,3.1,6,0
30/3/2013 20:00,5.000004,140,107,SE,Unknown,6,0,66,1022,2.6,8,0
30/3/2013 21:00,3.0000024,160,100,SSE,Unknown,4,0,75,1023,1.3,7,0
30/3/2013 22:00,2.0000016,150,101,SSE,Unknown,4,0,75,1023,2.2,7,0
30/3/2013 23:00,2.0000016,160,107,SSE,Unknown,3,0,81,1024,1,7,0
31/3/2013 0:00,2.0000016,130,105,SE,Unknown,4,1,81,1024,2.2,7,1
31/3/2013 1:00,3.0000024,140,106,SE,Unknown,4,1,81,1024,1.3,7,1
31/3/2013 2:00,3.0000024,130,109,SE,Unknown,4,1,81,1023,1.3,7,1
31/3/2013 3:00,2.0000016,100,130,East,Mist,4,1,81,1023,2.2,5,1
31/3/2013 4:00,2.0000016,100,131,East,Mist,3,1,87,1022,1,4.5,1
31/3/2013 5:00,2.0000016,130,140,SE,Mist,3,1,87,1022,1,4,1
31/3/2013 6:00,2.0000016,130,141,SE,Mist,3,1,87,1022,1,3.5,1
31/3/2013 7:00,2.0000016,140,155,SE,Partly Cloudy,4,2,87,1022,2.2,2,2
31/3/2013 8:00,2.0000016,140,174,SE,Scattered Clouds,4,2,87,1022,2.2,1.8,2
31/3/2013 9:00,3.0000024,140,193,SE,Scattered Clouds,4,2,87,1022,1.3,1.8,2
31/3/2013 10:00,3.0000024,150,203,SSE,Scattered Clouds,5,2,81,1021,2.5,1.8,2
31/3/2013 11:00,3.0000024,130,230,SE,Partly Cloudy,5,2,81,1021,2.5,1.8,2
31/3/2013 12:00,2.0000016,130,227,SE,Mist,7,3,76,1020,5.7,2,3
31/3/2013 13:00,3.0000024,120,251,ESE,Mist,7,3,76,1018,4.9,2,3
31/3/2013 14:00,3.0000024,120,248,ESE,Mist,6,3,81,1017,3.7,1.8,3
31/3/2013 15:00,2.0000016,80,243,East,Mist,7,3,76,1016,5.7,1.7,3
31/3/2013 16:00,3.0000024,80,253,East,Mist,7,3,76,1015,4.9,1.7,3
31/3/2013 17:00,2.0000016,30,258,NNE,Mist,7,3,76,1015,5.7,1.7,3
31/3/2013 18:00,2.0000016,40,254,NE,Mist,7,3,76,1015,5.7,1.7,3
31/3/2013 19:00,3.0000024,350,259,North,Mist,5,3,87,1015,2.5,2.5,3
31/3/2013 20:00,2.0000016,340,256,NNW,Mist,6,2,76,1015,4.5,2.5,2
31/3/2013 21:00,3.0000024,10,255,North,Mist,5,2,81,1015,2.5,2.5,2
31/3/2013 22:00,3.0000024,340,246,NNW,Mist,6,3,81,1015,3.7,2.5,3
31/3/2013 23:00,3.0000024,330,244,NNW,Mist,7,3,76,1015,4.9,2.5,3
1/4/2013 0:00,1.0000008,0,259,Variable,Mist,7,3,76,1015,-999,2.5,3
1/4/2013 1:00,4.0000032,340,244,NNW,Mist,6,3,81,1015,3.1,2.5,3
1/4/2013 2:00,1.0000008,0,256,Variable,Mist,6,2,76,1014,-999,2.5,2
1/4/2013 3:00,3.0000024,280,250,West,Mist,7,3,76,1014,4.9,2.5,3
1/4/2013 4:00,2.0000016,210,245,SSW,Mist,7,3,76,1014,5.7,2.5,3
1/4/2013 5:00,1.0000008,0,247,Variable,Mist,5,3,87,1013,-999,2.5,3
1/4/2013 6:00,1.0000008,0,247,Variable,Mist,3,2,93,1013,-999,2,2
1/4/2013 7:00,1.0000008,0,158,Variable,Mist,3,2,93,1014,-999,1.6,2
1/4/2013 8:00,2.0000016,170,18,South,Mist,8,4,76,1014,6.9,1.8,4
1/4/2013 9:00,6.0000048,300,15,WNW,Unknown,13,-3,33,1014,-999,8,-3
1/4/2013 10:00,9.0000072,300,15,WNW,Clear,14,-4,29,1015,-999,-9999,-4
1/4/2013 11:00,9.0000072,310,29,NW,Clear,14,-4,29,1016,-999,-9999,-4
1/4/2013 12:00,8.0000064,10,39,North,Clear,15,0,36,1016,-999,-9999,0
1/4/2013 13:00,9.0000072,30,37,NNE,Clear,15,-2,31,1016,-999,-9999,-2
1/4/2013 14:00,7.0000056,50,39,NE,Clear,14,-2,33,1017,-999,-9999,-2
1/4/2013 15:00,6.0000048,60,41,ENE,Clear,14,-4,29,1017,-999,-9999,-4
1/4/2013 16:00,6.0000048,40,38,NE,Clear,15,-6,23,1017,-999,-9999,-6
1/4/2013 17:00,5.000004,50,31,NE,Clear,15,-6,23,1018,-999,-9999,-6
1/4/2013 18:00,2.0000016,30,29,NNE,Clear,14,-7,23,1019,-999,-9999,-7
1/4/2013 19:00,4.0000032,10,20,North,Clear,11,-9,24,1020,-999,-9999,-9
1/4/2013 20:00,3.0000024,10,19,North,Clear,8,-10,27,1021,6.1,-9999,-10
1/4/2013 21:00,5.000004,340,7,NNW,Clear,10,-12,20,1022,-999,-9999,-12
1/4/2013 22:00,5.000004,340,7,NNW,Clear,9,-15,17,1023,-999,-9999,-15
1/4/2013 23:00,5.000004,330,6,NNW,Clear,9,-18,13,1023,-999,-9999,-18
2/4/2013 0:00,2.0000016,40,13,NE,Clear,6,-14,23,1023,4.5,-9999,-14
2/4/2013 1:00,3.0000024,10,20,North,Clear,4,-13,28,1023,1.3,-9999,-13
2/4/2013 2:00,1.0000008,0,49,Variable,Clear,4,-12,31,1023,-999,-9999,-12
2/4/2013 3:00,3.0000024,200,64,SSW,Clear,1,-9,48,1023,-2.3,-9999,-9
2/4/2013 4:00,0,0,96,North,Clear,1,-7,56,1022,-999,-9999,-7
2/4/2013 5:00,1.0000008,0,122,Variable,Clear,-1,-6,69,1022,-999,-9999,-6
2/4/2013 6:00,0,0,133,North,Clear,0,-5,69,1022,-999,-9999,-5
2/4/2013 7:00,1.0000008,360,,North,Clear,1,-4,70,1022,-999,-9999,-4
2/4/2013 8:00,2.0000016,60,175,ENE,Clear,6,-2,57,1022,4.5,-9999,-2
2/4/2013 9:00,2.0000016,70,176,ENE,Clear,8,-3,46,1021,6.9,-9999,-3
2/4/2013 10:00,2.0000016,0,164,Variable,Unknown,10,-1,47,1021,-999,8,-1
2/4/2013 11:00,2.0000016,0,169,Variable,Unknown,13,1,44,1019,-999,6,1
2/4/2013 12:00,4.0000032,190,155,South,Unknown,14,-2,33,1018,-999,6,-2
2/4/2013 13:00,4.0000032,200,144,SSW,Unknown,16,-3,27,1016,-999,6,-3
2/4/2013 14:00,5.000004,220,119,SW,Unknown,17,-3,26,1015,-999,6,-3
2/4/2013 15:00,5.000004,200,113,SSW,Unknown,18,-4,22,1014,-999,6,-4
2/4/2013 16:00,6.0000048,220,130,SW,Unknown,18,-5,21,1013,-999,7,-5
2/4/2013 17:00,5.000004,210,123,SSW,Unknown,18,-5,21,1012,-999,7,-5
2/4/2013 18:00,4.0000032,200,108,SSW,Unknown,17,-5,22,1011,-999,7,-5
2/4/2013 19:00,4.0000032,180,112,South,Unknown,14,-3,31,1011,-999,7,-3
2/4/2013 20:00,3.0000024,160,111,SSE,Unknown,14,-3,31,1011,-999,7,-3
2/4/2013 21:00,2.0000016,120,122,ESE,Unknown,11,-2,41,1012,-999,7,-2
2/4/2013 22:00,2.0000016,160,130,SSE,Unknown,10,-1,47,1011,-999,7,-1
2/4/2013 23:00,1.0000008,0,138,Variable,Unknown,11,-2,41,1011,-999,7,-2
3/4/2013 0:00,1.0000008,0,149,Variable,Unknown,8,-2,50,1011,-999,7,-2
3/4/2013 1:00,1.0000008,60,153,ENE,Unknown,6,-1,61,1010,-999,6,-1
3/4/2013 2:00,2.0000016,80,184,East,Unknown,5,-1,65,1010,3.4,6,-1
3/4/2013 3:00,1.0000008,20,179,NNE,Unknown,3,-1,75,1009,-999,6,-1
3/4/2013 4:00,1.0000008,0,183,Variable,Unknown,3,-1,75,1010,-999,6,-1
3/4/2013 5:00,1.0000008,20,194,NNE,Unknown,3,-1,75,1010,-999,6,-1
3/4/2013 6:00,1.0000008,0,184,Variable,Haze,4,0,75,1010,-999,5,0
3/4/2013 7:00,2.0000016,360,153,North,Mist,4,1,81,1011,2.2,5,1
3/4/2013 8:00,2.0000016,10,150,North,Unknown,10,1,54,1012,-999,6,1
3/4/2013 9:00,3.0000024,30,126,NNE,Unknown,13,-1,38,1012,-999,6,-1
3/4/2013 10:00,4.0000032,80,156,East,Unknown,17,-1,30,1012,-999,7,-1
3/4/2013 11:00,4.0000032,120,156,ESE,Unknown,18,0,30,1012,-999,7,0
3/4/2013 12:00,7.0000056,130,178,SE,Unknown,18,0,30,1012,-999,6,0
3/4/2013 13:00,6.0000048,120,243,ESE,Haze,19,2,32,1011,-999,4,2
3/4/2013 14:00,7.0000056,120,122,ESE,Haze,18,-1,28,1012,-999,5,-1
3/4/2013 15:00,8.0000064,150,100,SSE,Unknown,17,-1,30,1012,-999,6,-1
3/4/2013 16:00,8.0000064,150,73,SSE,Unknown,16,-3,27,1012,-999,8,-3
3/4/2013 17:00,6.0000048,160,60,SSE,Clear,16,-4,25,1012,-999,-9999,-4
3/4/2013 18:00,5.000004,180,46,South,Clear,14,-4,29,1013,-999,-9999,-4
3/4/2013 19:00,3.0000024,150,33,SSE,Clear,12,-4,33,1014,-999,-9999,-4
3/4/2013 20:00,2.0000016,170,32,South,Clear,11,-4,35,1015,-999,-9999,-4
3/4/2013 21:00,2.0000016,160,34,SSE,Clear,10,-4,37,1015,-999,-9999,-4
3/4/2013 22:00,3.0000024,160,37,SSE,Clear,9,-4,40,1016,-999,-9999,-4
3/4/2013 23:00,2.0000016,170,38,South,Clear,8,-4,43,1016,6.9,-9999,-4
4/4/2013 0:00,2.0000016,160,38,SSE,Clear,7,-3,49,1016,5.7,-9999,-3
4/4/2013 1:00,3.0000024,220,47,SW,Clear,9,-4,40,1016,-999,-9999,-4
4/4/2013 2:00,2.0000016,220,61,SW,Clear,9,-4,40,1015,-999,-9999,-4
4/4/2013 3:00,2.0000016,200,48,SSW,Clear,8,-4,43,1015,6.9,-9999,-4
4/4/2013 4:00,3.0000024,210,47,SSW,Clear,9,-4,40,1015,-999,-9999,-4
4/4/2013 5:00,2.0000016,210,56,SSW,Clear,8,-4,43,1014,6.9,-9999,-4
4/4/2013 6:00,2.0000016,210,72,SSW,Clear,8,-3,46,1015,6.9,-9999,-3
4/4/2013 7:00,1.0000008,0,89,Variable,Clear,9,-4,40,1015,-999,-9999,-4
4/4/2013 8:00,2.0000016,300,92,WNW,Clear,10,-4,37,1015,-999,-9999,-4
4/4/2013 9:00,1.0000008,0,83,Variable,Clear,10,-5,35,1015,-999,-9999,-5
4/4/2013 10:00,1.0000008,0,87,Variable,Clear,10,-5,35,1016,-999,-9999,-5
4/4/2013 11:00,1.0000008,0,89,Variable,Clear,11,-5,33,1015,-999,-9999,-5
4/4/2013 12:00,1.0000008,0,100,Variable,Clear,11,-5,33,1014,-999,-9999,-5
4/4/2013 13:00,2.0000016,340,107,NNW,Clear,11,-5,33,1013,-999,-9999,-5
4/4/2013 14:00,4.0000032,340,98,NNW,Clear,11,-5,33,1013,-999,-9999,-5
4/4/2013 15:00,5.000004,360,78,North,Clear,9,-1,50,1012,-999,-9999,-1
4/4/2013 16:00,6.0000048,360,83,North,Light Rain,7,4,81,1012,3.4,8,4
4/4/2013 17:00,5.000004,350,84,North,Light Rain,7,5,87,1013,3.8,5,5
4/4/2013 18:00,5.000004,340,91,NNW,Light Rain,6,5,93,1013,2.6,4,5
4/4/2013 19:00,4.0000032,340,99,NNW,Light Rain,6,5,93,1014,3.1,4,5
4/4/2013 20:00,4.0000032,360,99,North,Light Rain,6,5,93,1015,3.1,4,5
4/4/2013 21:00,4.0000032,360,111,North,Light Rain,6,5,93,1015,3.1,4,5
4/4/2013 22:00,4.0000032,360,118,North,Light Rain,6,5,93,1016,3.1,4,5
4/4/2013 23:00,3.0000024,10,122,North,Light Rain,6,5,93,1016,3.7,4,5
5/4/2013 0:00,4.0000032,360,117,North,Light Rain,6,5,93,1016,3.1,4,5
5/4/2013 1:00,2.0000016,10,113,North,Light Rain,6,5,93,1016,4.5,-9999,5
5/4/2013 2:00,3.0000024,350,108,North,Light Rain,6,6,100,1017,3.7,3.5,6
5/4/2013 3:00,2.0000016,320,110,NW,Light Rain,6,5,93,1017,4.5,3.5,5
5/4/2013 4:00,3.0000024,330,121,NNW,Light Rain,6,5,93,1017,3.7,-9999,5
5/4/2013 5:00,1.0000008,0,122,Variable,Light Rain,6,5,93,1016,-999,3.5,5
5/4/2013 6:00,2.0000016,360,116,North,Mist,5,5,100,1016,3.4,3,5
5/4/2013 7:00,2.0000016,350,106,North,Mist,6,5,93,1016,4.5,3.5,5
5/4/2013 8:00,3.0000024,330,107,NNW,Mist,7,6,93,1017,4.9,3.5,6
5/4/2013 9:00,2.0000016,360,111,North,Mist,9,7,87,1017,-999,4.5,7
5/4/2013 10:00,5.000004,280,122,West,Mist,11,7,76,1017,-999,5,7
5/4/2013 11:00,8.0000064,300,88,WNW,Unknown,14,4,51,1017,-999,8,4
5/4/2013 12:00,9.0000072,300,24,WNW,Clear,14,-3,31,1017,-999,-9999,-3
5/4/2013 13:00,9.0000072,290,9,WNW,Clear,14,-5,27,1017,-999,-9999,-5
5/4/2013 14:00,8.0000064,290,12,WNW,Clear,14,-5,27,1017,-999,-9999,-5
5/4/2013 15:00,10.000008,310,15,NW,Clear,13,-7,25,1017,-999,-9999,-7
5/4/2013 16:00,10.000008,310,11,NW,Clear,13,-9,21,1017,-999,-9999,-9
5/4/2013 17:00,9.0000072,300,11,WNW,Clear,12,-6,28,1018,-999,-9999,-6
5/4/2013 18:00,9.0000072,320,9,NW,Clear,10,-8,28,1019,-999,-9999,-8
5/4/2013 19:00,9.0000072,320,10,NW,Clear,9,-10,25,1020,-999,-9999,-10
5/4/2013 20:00,5.000004,360,9,North,Clear,7,-8,34,1022,3.8,-9999,-8
5/4/2013 21:00,6.0000048,360,8,North,Clear,5,-10,33,1023,0.9,-9999,-10
5/4/2013 22:00,6.0000048,350,9,North,Clear,5,-10,33,1023,0.9,-9999,-10
5/4/2013 23:00,3.0000024,10,8,North,Clear,3,-9,41,1023,0.1,-9999,-9
6/4/2013 0:00,4.0000032,360,7,North,Clear,2,-9,44,1023,-1.8,-9999,-9
6/4/2013 1:00,2.0000016,10,6,North,Clear,3,-9,41,1023,1,-9999,-9
6/4/2013 2:00,4.0000032,360,6,North,Clear,1,-8,52,1022,-3,-9999,-8
6/4/2013 3:00,2.0000016,360,6,North,Clear,1,-9,48,1021,-1.3,-9999,-9
6/4/2013 4:00,2.0000016,360,5,North,Clear,1,-7,56,1021,-1.3,-9999,-7
6/4/2013 5:00,0,0,12,North,Clear,1,-7,56,1021,-999,-9999,-7
6/4/2013 6:00,1.0000008,10,9,North,Clear,-1,-5,75,1020,-999,-9999,-5
6/4/2013 7:00,2.0000016,350,17,North,Clear,3,-3,65,1020,1,-9999,-3
6/4/2013 8:00,3.0000024,340,11,NNW,Clear,7,-9,31,1020,4.9,-9999,-9
6/4/2013 9:00,7.0000056,330,16,NNW,Clear,10,-11,22,1020,-999,-9999,-11
6/4/2013 10:00,6.0000048,310,13,NW,Clear,11,-13,18,1020,-999,-9999,-13
6/4/2013 11:00,8.0000064,320,10,NW,Clear,12,-12,18,1018,-999,-9999,-12
6/4/2013 12:00,4.0000032,70,12,ENE,Clear,12,-11,19,1017,-999,-9999,-11
6/4/2013 13:00,5.000004,30,10,NNE,Clear,13,-12,17,1016,-999,-9999,-12
6/4/2013 14:00,3.0000024,130,15,SE,Clear,14,-11,17,1015,-999,-9999,-11
6/4/2013 15:00,2.0000016,0,11,Variable,Clear,14,-12,16,1014,-999,-9999,-12
6/4/2013 16:00,3.0000024,170,13,South,Clear,14,-12,16,1013,-999,-9999,-12
6/4/2013 17:00,3.0000024,110,11,ESE,Clear,13,-13,15,1012,-999,-9999,-13
6/4/2013 18:00,3.0000024,140,14,SE,Clear,12,-12,18,1011,-999,-9999,-12
6/4/2013 19:00,3.0000024,150,24,SSE,Clear,9,-10,25,1011,-999,-9999,-10
6/4/2013 20:00,4.0000032,140,33,SE,Clear,10,-10,24,1012,-999,-9999,-10
6/4/2013 21:00,3.0000024,160,34,SSE,Clear,8,-9,29,1012,6.1,-9999,-9
6/4/2013 22:00,2.0000016,150,32,SSE,Clear,7,-9,31,1012,5.7,-9999,-9
6/4/2013 23:00,2.0000016,160,36,SSE,Clear,7,-7,37,1012,5.7,-9999,-7
7/4/2013 0:00,3.0000024,140,43,SE,Clear,7,-8,34,1012,4.9,-9999,-8
7/4/2013 1:00,3.0000024,130,55,SE,Clear,6,-8,36,1011,3.7,-9999,-8
7/4/2013 2:00,3.0000024,140,57,SE,Clear,6,-7,39,1010,3.7,-9999,-7
7/4/2013 3:00,3.0000024,100,57,East,Clear,5,-7,42,1010,2.5,-9999,-7
7/4/2013 4:00,4.0000032,120,59,ESE,Clear,3,-3,65,1010,-0.6,-9999,-3
7/4/2013 5:00,3.0000024,110,104,ESE,Clear,3,-3,65,1010,0.1,-9999,-3
7/4/2013 6:00,4.0000032,110,90,ESE,Clear,3,-3,65,1010,-0.6,-9999,-3
7/4/2013 7:00,4.0000032,110,69,ESE,Clear,4,-3,61,1011,0.6,-9999,-3
7/4/2013 8:00,5.000004,110,67,ESE,Clear,5,-3,57,1011,1.3,-9999,-3
7/4/2013 9:00,4.0000032,120,63,ESE,Clear,7,-2,53,1011,4.3,-9999,-2
7/4/2013 10:00,4.0000032,110,71,ESE,Clear,9,-2,46,1010,-999,-9999,-2
7/4/2013 11:00,4.0000032,140,77,SE,Clear,11,-2,41,1009,-999,-9999,-2
7/4/2013 12:00,3.0000024,120,80,ESE,Clear,12,-1,41,1008,-999,-9999,-1
7/4/2013 13:00,4.0000032,160,89,SSE,Clear,13,-2,36,1006,-999,-9999,-2
7/4/2013 14:00,5.000004,150,106,SSE,Clear,14,-4,29,1005,-999,-9999,-4
7/4/2013 15:00,5.000004,180,114,South,Unknown,15,-6,23,1004,-999,8,-6
7/4/2013 16:00,5.000004,120,126,ESE,Unknown,14,-1,36,1003,-999,8,-1
7/4/2013 17:00,7.0000056,130,97,SE,Unknown,12,0,44,1002,-999,8,0
7/4/2013 18:00,5.000004,110,83,ESE,Unknown,12,-1,41,1003,-999,7,-1
7/4/2013 19:00,3.0000024,80,97,East,Clear,11,-2,41,1006,-999,-9999,-2
7/4/2013 20:00,2.0000016,130,90,SE,Clear,11,-2,41,1006,-999,-9999,-2
7/4/2013 21:00,2.0000016,310,93,NW,Clear,12,-2,38,1008,-999,-9999,-2
7/4/2013 22:00,8.0000064,340,78,NNW,Light Rain,9,4,71,1009,-999,10,4
7/4/2013 23:00,3.0000024,20,54,NNE,Clear,9,3,66,1008,-999,-9999,3
8/4/2013 0:00,2.0000016,10,59,North,Clear,8,2,66,1008,6.9,-9999,2
8/4/2013 1:00,3.0000024,20,44,NNE,Clear,7,2,71,1007,4.9,-9999,2
8/4/2013 2:00,4.0000032,340,22,NNW,Clear,6,3,81,1008,3.1,-9999,3
8/4/2013 3:00,6.0000048,280,27,West,Clear,8,1,62,1009,4.7,-9999,1
8/4/2013 4:00,9.0000072,290,33,WNW,Clear,9,-15,17,1010,-999,-9999,-15
8/4/2013 5:00,10.000008,300,29,WNW,Clear,8,-21,11,1010,3.6,-9999,-21
8/4/2013 6:00,10.000008,300,13,WNW,Clear,8,-22,10,1011,3.6,-9999,-22
8/4/2013 7:00,11.0000088,290,15,WNW,Clear,7,-20,13,1012,2,-9999,-20
8/4/2013 8:00,11.0000088,290,17,WNW,Clear,8,-17,16,1012,3.3,-9999,-17
8/4/2013 9:00,12.0000096,300,16,WNW,Clear,9,-17,15,1013,-999,-9999,-17
8/4/2013 10:00,10.000008,300,14,WNW,Clear,10,-15,16,1013,-999,-9999,-15
8/4/2013 11:00,12.0000096,290,14,WNW,Clear,11,-15,15,1013,-999,-9999,-15
8/4/2013 12:00,11.0000088,290,12,WNW,Clear,11,-15,15,1012,-999,-9999,-15
8/4/2013 13:00,11.0000088,290,17,WNW,Clear,12,-16,13,1012,-999,-9999,-16
8/4/2013 14:00,11.0000088,300,13,WNW,Clear,12,-16,13,1012,-999,-9999,-16
8/4/2013 15:00,10.000008,300,12,WNW,Clear,13,-16,12,1012,-999,-9999,-16
8/4/2013 16:00,12.0000096,290,17,WNW,Clear,12,-17,12,1012,-999,-9999,-17
8/4/2013 17:00,11.0000088,310,12,NW,Clear,12,-16,13,1013,-999,-9999,-16
8/4/2013 18:00,9.0000072,320,16,NW,Clear,11,-16,14,1014,-999,-9999,-16
8/4/2013 19:00,10.000008,300,10,WNW,Clear,10,-17,14,1014,-999,-9999,-17
8/4/2013 20:00,9.0000072,310,15,NW,Clear,9,-16,16,1015,-999,-9999,-16
8/4/2013 21:00,9.0000072,300,11,WNW,Clear,9,-16,16,1016,-999,-9999,-16
8/4/2013 22:00,7.0000056,300,13,WNW,Clear,8,-15,18,1016,4.4,-9999,-15
8/4/2013 23:00,9.0000072,300,12,WNW,Clear,8,-13,22,1016,3.8,-9999,-13
9/4/2013 0:00,9.0000072,300,10,WNW,Clear,8,-13,22,1015,3.8,-9999,-13
9/4/2013 1:00,8.0000064,320,8,NW,Clear,7,-11,27,1016,2.8,-9999,-11
9/4/2013 2:00,10.000008,300,6,WNW,Clear,7,-11,27,1015,2.2,-9999,-11
9/4/2013 3:00,8.0000064,310,8,NW,Clear,7,-11,27,1016,2.8,-9999,-11
9/4/2013 4:00,4.0000032,320,8,NW,Clear,6,-11,29,1017,3.1,-9999,-11
9/4/2013 5:00,9.0000072,340,9,NNW,Clear,6,-11,29,1018,1.2,-9999,-11
9/4/2013 6:00,5.000004,290,9,WNW,Clear,5,-10,33,1018,1.3,-9999,-10
9/4/2013 7:00,5.000004,330,11,NNW,Clear,7,-11,27,1019,3.8,-9999,-11
9/4/2013 8:00,9.0000072,320,10,NW,Clear,8,-11,25,1019,3.8,-9999,-11
9/4/2013 9:00,7.0000056,340,12,NNW,Clear,10,-12,20,1020,-999,-9999,-12
9/4/2013 10:00,9.0000072,320,13,NW,Clear,10,-12,20,1021,-999,-9999,-12
9/4/2013 11:00,7.0000056,330,13,NNW,Clear,12,-13,16,1021,-999,-9999,-13
9/4/2013 12:00,7.0000056,320,14,NW,Clear,12,-13,16,1020,-999,-9999,-13
9/4/2013 13:00,7.0000056,320,14,NW,Clear,13,-15,13,1020,-999,-9999,-15
9/4/2013 14:00,5.000004,330,14,NNW,Clear,12,-12,18,1020,-999,-9999,-12
9/4/2013 15:00,2.0000016,20,11,NNE,Clear,11,-11,21,1020,-999,-9999,-11
9/4/2013 16:00,4.0000032,10,11,North,Clear,11,-10,22,1019,-999,-9999,-10
9/4/2013 17:00,8.0000064,300,12,WNW,Clear,11,-12,19,1020,-999,-9999,-12
9/4/2013 18:00,8.0000064,290,13,WNW,Clear,10,-11,22,1020,-999,-9999,-11
9/4/2013 19:00,6.0000048,300,14,WNW,Clear,9,-15,17,1021,-999,-9999,-15
9/4/2013 20:00,7.0000056,320,22,NW,Clear,9,-13,20,1022,-999,-9999,-13
9/4/2013 21:00,7.0000056,320,11,NW,Clear,8,-13,22,1022,4.4,-9999,-13
9/4/2013 22:00,6.0000048,330,11,NNW,Clear,7,-13,23,1023,3.4,-9999,-13
9/4/2013 23:00,6.0000048,330,10,NNW,Clear,6,-12,27,1023,2.2,-9999,-12
10/4/2013 0:00,5.000004,310,10,NW,Clear,6,-11,29,1022,2.6,-9999,-11
10/4/2013 1:00,6.0000048,320,11,NW,Clear,6,-10,31,1022,2.2,-9999,-10
10/4/2013 2:00,6.0000048,310,9,NW,Clear,6,-10,31,1022,2.2,-9999,-10
10/4/2013 3:00,5.000004,310,11,NW,Clear,5,-11,31,1022,1.3,-9999,-11
10/4/2013 4:00,6.0000048,300,8,WNW,Clear,5,-10,33,1021,0.9,-9999,-10
10/4/2013 5:00,6.0000048,300,9,WNW,Clear,5,-9,36,1021,0.9,-9999,-9
10/4/2013 6:00,5.000004,300,11,WNW,Clear,4,-9,39,1021,0.1,-9999,-9
10/4/2013 7:00,5.000004,310,8,NW,Clear,6,-9,34,1021,2.6,-9999,-9
10/4/2013 8:00,8.0000064,300,12,WNW,Clear,8,-10,27,1021,4.1,-9999,-10
10/4/2013 9:00,8.0000064,300,12,WNW,Clear,9,-10,25,1021,-999,-9999,-10
10/4/2013 10:00,10.000008,330,12,NNW,Clear,11,-11,21,1021,-999,-9999,-11
10/4/2013 11:00,9.0000072,310,10,NW,Clear,11,-13,18,1020,-999,-9999,-13
10/4/2013 12:00,9.0000072,310,10,NW,Clear,12,-15,14,1019,-999,-9999,-15
10/4/2013 13:00,9.0000072,310,14,NW,Clear,12,-15,14,1018,-999,-9999,-15
10/4/2013 14:00,10.000008,290,17,WNW,Clear,13,-13,15,1018,-999,-9999,-13
10/4/2013 15:00,10.000008,320,10,NW,Clear,12,-12,18,1017,-999,-9999,-12
10/4/2013 16:00,8.0000064,340,7,NNW,Partly Cloudy,13,-13,15,1016,-999,10,-13
10/4/2013 17:00,7.0000056,340,6,NNW,Partly Cloudy,11,-14,16,1016,-999,10,-14
10/4/2013 18:00,7.0000056,340,10,NNW,Clear,11,-14,16,1016,-999,-9999,-14
10/4/2013 19:00,5.000004,340,17,NNW,Clear,10,-14,17,1017,-999,-9999,-14
10/4/2013 20:00,3.0000024,330,17,NNW,Clear,9,-14,19,1017,-999,-9999,-14
10/4/2013 21:00,4.0000032,310,21,NW,Clear,9,-15,17,1018,-999,-9999,-15
10/4/2013 22:00,3.0000024,310,26,NW,Clear,9,-16,16,1018,-999,-9999,-16
10/4/2013 23:00,3.0000024,320,21,NW,Clear,7,-13,23,1018,4.9,-9999,-13
11/4/2013 0:00,3.0000024,290,27,WNW,Clear,7,-13,23,1019,4.9,-9999,-13
11/4/2013 1:00,3.0000024,300,29,WNW,Clear,7,-12,25,1019,4.9,-9999,-12
11/4/2013 2:00,4.0000032,350,41,North,Clear,1,-10,44,1019,-3,-9999,-10
11/4/2013 3:00,2.0000016,320,16,NW,Clear,3,-11,36,1019,1,-9999,-11
11/4/2013 4:00,3.0000024,350,15,North,Clear,2,-10,41,1019,-1.1,-9999,-10
11/4/2013 5:00,2.0000016,360,13,North,Clear,2,-10,41,1019,-0.1,-9999,-10
11/4/2013 6:00,5.000004,320,19,NW,Clear,6,-11,29,1019,2.6,-9999,-11
11/4/2013 7:00,7.0000056,320,19,NW,Clear,8,-12,23,1020,4.4,-9999,-12
11/4/2013 8:00,9.0000072,320,18,NW,Clear,10,-13,19,1020,-999,-9999,-13
11/4/2013 9:00,10.000008,320,,NW,Clear,11,-14,16,1021,-999,-9999,-14
11/4/2013 10:00,8.0000064,310,10,NW,Clear,12,-15,14,1020,-999,-9999,-15
11/4/2013 11:00,8.0000064,320,13,NW,Clear,14,-15,12,1020,-999,-9999,-15
11/4/2013 12:00,9.0000072,320,12,NW,Clear,15,-16,11,1019,-999,-9999,-16
11/4/2013 13:00,8.0000064,320,14,NW,Clear,16,-17,9,1018,-999,-9999,-17
11/4/2013 14:00,7.0000056,330,9,NNW,Clear,17,-16,9,1017,-999,-9999,-16
11/4/2013 15:00,10.000008,340,8,NNW,Clear,18,-17,8,1016,-999,-9999,-17
11/4/2013 16:00,8.0000064,340,6,NNW,Clear,18,-17,8,1016,-999,-9999,-17
11/4/2013 17:00,8.0000064,340,6,NNW,Clear,17,-18,8,1016,-999,-9999,-18
11/4/2013 18:00,8.0000064,350,5,North,Clear,16,-18,8,1016,-999,-9999,-18
11/4/2013 19:00,2.0000016,40,11,NE,Clear,13,-16,12,1016,-999,-9999,-16
11/4/2013 20:00,2.0000016,70,22,ENE,Clear,11,-12,19,1017,-999,-9999,-12
11/4/2013 21:00,1.0000008,0,41,Variable,Clear,8,-7,34,1017,-999,-9999,-7
11/4/2013 22:00,2.0000016,190,49,South,Clear,9,-11,24,1017,-999,-9999,-11
11/4/2013 23:00,4.0000032,210,32,SSW,Clear,12,-13,16,1017,-999,-9999,-13
12/4/2013 0:00,3.0000024,200,38,SSW,Clear,9,-11,24,1017,-999,-9999,-11
12/4/2013 1:00,1.0000008,0,41,Variable,Clear,6,-7,39,1017,-999,-9999,-7
12/4/2013 2:00,1.0000008,0,35,Variable,Clear,5,-8,39,1017,-999,-9999,-8
12/4/2013 3:00,1.0000008,10,42,North,Clear,4,-4,56,1016,-999,-9999,-4
12/4/2013 4:00,1.0000008,0,55,Variable,Clear,2,-4,65,1016,-999,-9999,-4
12/4/2013 5:00,0,0,62,North,Clear,3,-6,52,1016,-999,-9999,-6
12/4/2013 6:00,3.0000024,350,66,North,Clear,1,-6,60,1016,-2.3,-9999,-6
12/4/2013 7:00,1.0000008,20,64,NNE,Clear,5,-4,53,1016,-999,-9999,-4
12/4/2013 8:00,1.0000008,0,53,Variable,Clear,10,-7,30,1016,-999,-9999,-7
12/4/2013 9:00,1.0000008,0,62,Variable,Clear,12,-8,24,1016,-999,-9999,-8
12/4/2013 10:00,2.0000016,310,53,NW,Clear,14,-10,18,1016,-999,-9999,-10
12/4/2013 11:00,2.0000016,310,50,NW,Clear,16,-12,14,1015,-999,-9999,-12
12/4/2013 12:00,1.0000008,0,62,Variable,Clear,18,-10,14,1014,-999,-9999,-10
12/4/2013 13:00,2.0000016,110,74,ESE,Clear,18,-10,14,1013,-999,-9999,-10
12/4/2013 14:00,3.0000024,150,41,SSE,Clear,21,-9,13,1011,-999,-9999,-9
12/4/2013 15:00,4.0000032,210,29,SSW,Clear,23,-8,12,1009,-999,-9999,-8
12/4/2013 16:00,5.000004,200,45,SSW,Clear,23,-8,12,1008,-999,-9999,-8
12/4/2013 17:00,6.0000048,200,54,SSW,Clear,23,-6,14,1008,-999,-9999,-6
12/4/2013 18:00,3.0000024,210,52,SSW,Clear,21,-4,18,1008,-999,-9999,-4
12/4/2013 19:00,2.0000016,0,51,Variable,Clear,20,-3,21,1008,-999,-9999,-3
12/4/2013 20:00,1.0000008,0,47,Variable,Clear,17,-1,30,1009,-999,-9999,-1
12/4/2013 21:00,2.0000016,170,52,South,Clear,18,-2,26,1008,-999,-9999,-2
12/4/2013 22:00,6.0000048,220,54,SW,Clear,20,0,26,1007,-999,-9999,0
12/4/2013 23:00,1.0000008,0,59,Variable,Clear,18,0,30,1006,-999,-9999,0
13/4/2013 0:00,1.0000008,30,57,NNE,Clear,11,1,50,1006,-999,-9999,1
13/4/2013 1:00,1.0000008,0,65,Variable,Clear,11,1,50,1005,-999,-9999,1
13/4/2013 2:00,3.0000024,200,91,SSW,Clear,15,2,42,1004,-999,-9999,2
13/4/2013 3:00,1.0000008,0,100,Variable,Unknown,8,1,62,1003,-999,7,1
13/4/2013 4:00,1.0000008,0,109,Variable,Unknown,8,1,62,1002,-999,7,1
13/4/2013 5:00,1.0000008,0,101,Variable,Unknown,7,2,71,1002,-999,7,2
13/4/2013 6:00,2.0000016,10,111,North,Unknown,5,2,81,1002,3.4,7,2
13/4/2013 7:00,2.0000016,360,101,North,Unknown,9,4,71,1002,-999,7,4
13/4/2013 8:00,2.0000016,20,110,NNE,Unknown,13,3,51,1002,-999,7,3
13/4/2013 9:00,2.0000016,0,117,Variable,Unknown,17,3,39,1002,-999,6,3
13/4/2013 10:00,2.0000016,20,132,NNE,Unknown,19,2,32,1002,-999,6,2
13/4/2013 11:00,3.0000024,340,117,NNW,Unknown,23,2,25,1002,-999,6,2
13/4/2013 12:00,5.000004,20,75,NNE,Unknown,25,0,19,1002,-999,7,0
13/4/2013 13:00,11.0000088,350,25,North,Clear,26,2,21,1002,-999,-9999,2
13/4/2013 14:00,10.000008,350,14,North,Scattered Clouds,24,1,22,1002,-999,10,1
13/4/2013 15:00,9.0000072,330,16,NNW,Partly Cloudy,26,0,18,1003,-999,10,0
13/4/2013 16:00,8.0000064,320,13,NW,Partly Cloudy,25,-2,17,1003,-999,10,-2
13/4/2013 17:00,10.000008,340,10,NNW,Partly Cloudy,23,-4,16,1004,-999,10,-4
13/4/2013 18:00,10.000008,350,10,North,Clear,21,-5,17,1005,-999,-9999,-5
13/4/2013 19:00,8.0000064,360,8,North,Clear,17,-6,20,1006,-999,-9999,-6
13/4/2013 20:00,10.000008,360,10,North,Clear,17,-9,16,1007,-999,-9999,-9
13/4/2013 21:00,6.0000048,360,10,North,Clear,14,-9,20,1009,-999,-9999,-9
13/4/2013 22:00,7.0000056,10,12,North,Clear,14,-13,14,1010,-999,-9999,-13
13/4/2013 23:00,7.0000056,20,8,NNE,Clear,13,-14,14,1011,-999,-9999,-14
14/4/2013 0:00,8.0000064,20,6,NNE,Clear,12,-15,14,1012,-999,-9999,-15
14/4/2013 1:00,4.0000032,40,5,NE,Clear,11,-16,14,1013,-999,-9999,-16
14/4/2013 2:00,5.000004,10,6,North,Clear,10,-18,13,1013,-999,-9999,-18
14/4/2013 3:00,2.0000016,30,7,NNE,Clear,8,-18,14,1013,6.9,-9999,-18
14/4/2013 4:00,3.0000024,10,6,North,Clear,4,-14,26,1013,1.3,-9999,-14
14/4/2013 5:00,4.0000032,30,4,NNE,Clear,5,-15,23,1014,1.9,-9999,-15
14/4/2013 6:00,3.0000024,20,6,NNE,Clear,5,-15,23,1014,2.5,-9999,-15
14/4/2013 7:00,4.0000032,30,9,NNE,Clear,8,-17,16,1014,5.6,-9999,-17
14/4/2013 8:00,3.0000024,330,7,NNW,Clear,10,-18,13,1015,-999,-9999,-18
14/4/2013 9:00,2.0000016,0,10,Variable,Clear,11,-18,12,1015,-999,-9999,-18
14/4/2013 10:00,2.0000016,300,34,WNW,Clear,12,-18,11,1014,-999,-9999,-18
14/4/2013 11:00,1.0000008,0,59,Variable,Clear,14,-13,14,1013,-999,-9999,-13
14/4/2013 12:00,3.0000024,180,53,South,Clear,15,-5,25,1011,-999,-9999,-5
14/4/2013 13:00,4.0000032,210,45,SSW,Clear,15,-5,25,1010,-999,-9999,-5
14/4/2013 14:00,4.0000032,210,38,SSW,Clear,16,-6,22,1009,-999,-9999,-6
14/4/2013 15:00,6.0000048,210,39,SSW,Clear,16,-5,23,1008,-999,-9999,-5
14/4/2013 16:00,6.0000048,180,45,South,Clear,17,-6,20,1007,-999,-9999,-6
14/4/2013 17:00,5.000004,190,42,South,Clear,16,-6,22,1006,-999,-9999,-6
14/4/2013 18:00,5.000004,180,43,South,Clear,15,-5,25,1005,-999,-9999,-5
14/4/2013 19:00,4.0000032,190,50,South,Clear,14,-4,29,1005,-999,-9999,-4
14/4/2013 20:00,3.0000024,150,48,SSE,Clear,14,-4,29,1005,-999,-9999,-4
14/4/2013 21:00,3.0000024,140,56,SE,Clear,13,-4,31,1005,-999,-9999,-4
14/4/2013 22:00,3.0000024,150,63,SSE,Clear,12,-3,35,1006,-999,-9999,-3
14/4/2013 23:00,3.0000024,160,59,SSE,Clear,10,-2,43,1006,-999,-9999,-2
15/4/2013 0:00,3.0000024,150,53,SSE,Clear,11,-3,38,1006,-999,-9999,-3
15/4/2013 1:00,1.0000008,0,42,Variable,Clear,9,-2,46,1005,-999,-9999,-2
15/4/2013 2:00,2.0000016,60,44,ENE,Clear,8,-1,53,1005,6.9,-9999,-1
15/4/2013 3:00,2.0000016,70,50,ENE,Clear,8,-1,53,1005,6.9,-9999,-1
15/4/2013 4:00,1.0000008,90,65,East,Clear,7,-1,57,1005,-999,-9999,-1
15/4/2013 5:00,1.0000008,90,70,East,Clear,7,-1,57,1004,-999,-9999,-1
15/4/2013 6:00,1.0000008,70,73,ENE,Clear,6,-1,61,1005,-999,-9999,-1
15/4/2013 7:00,1.0000008,350,71,North,Clear,9,1,58,1005,-999,-9999,1
15/4/2013 8:00,2.0000016,110,62,ESE,Clear,11,-2,41,1006,-999,-9999,-2
15/4/2013 9:00,3.0000024,0,73,Variable,Clear,13,-4,31,1005,-999,-9999,-4
15/4/2013 10:00,2.0000016,80,73,East,Clear,14,-4,29,1005,-999,-9999,-4
15/4/2013 11:00,3.0000024,130,78,SE,Clear,16,-3,27,1004,-999,-9999,-3
15/4/2013 12:00,4.0000032,110,79,ESE,Unknown,17,-3,26,1003,-999,8,-3
15/4/2013 13:00,4.0000032,160,79,SSE,Unknown,19,-3,23,1002,-999,8,-3
15/4/2013 14:00,5.000004,130,89,SE,Unknown,18,-1,28,1001,-999,7,-1
15/4/2013 15:00,5.000004,140,99,SE,Unknown,19,1,30,1000,-999,6,1
15/4/2013 16:00,6.0000048,150,,SSE,Unknown,18,2,34,1000,-999,6,2
15/4/2013 17:00,6.0000048,140,102,SE,Unknown,17,3,39,1000,-999,7,3
15/4/2013 18:00,7.0000056,140,81,SE,Unknown,15,4,48,1000,-999,7,4
15/4/2013 19:00,6.0000048,130,69,SE,Unknown,13,3,51,1001,-999,8,3
15/4/2013 20:00,5.000004,120,64,ESE,Unknown,12,2,51,1002,-999,8,2
15/4/2013 21:00,3.0000024,120,55,ESE,Unknown,11,1,50,1003,-999,8,1
15/4/2013 22:00,2.0000016,100,53,East,Partly Cloudy,10,0,50,1003,-999,8,0
15/4/2013 23:00,2.0000016,140,50,SE,Partly Cloudy,10,-1,47,1003,-999,8,-1
16/4/2013 0:00,3.0000024,190,57,South,Unknown,9,-1,50,1003,-999,8,-1
16/4/2013 1:00,4.0000032,340,53,NNW,Unknown,10,0,50,1004,-999,8,0
16/4/2013 2:00,0,0,63,North,Unknown,9,0,54,1002,-999,8,0
16/4/2013 3:00,2.0000016,0,64,Variable,Clear,10,0,50,1003,-999,-9999,0
16/4/2013 4:00,2.0000016,10,61,North,Clear,9,1,58,1003,-999,-9999,1
16/4/2013 5:00,2.0000016,350,63,North,Clear,8,0,57,1003,6.9,-9999,0
16/4/2013 6:00,3.0000024,360,58,North,Unknown,6,1,70,1004,3.7,7,1
16/4/2013 7:00,2.0000016,350,74,North,Unknown,11,2,54,1005,-999,7,2
16/4/2013 8:00,3.0000024,50,70,NE,Unknown,13,1,44,1006,-999,7,1
16/4/2013 9:00,3.0000024,50,80,NE,Clear,15,2,42,1007,-999,-9999,2
16/4/2013 10:00,5.000004,40,,NE,Clear,17,1,34,1007,-999,-9999,1
16/4/2013 11:00,5.000004,20,70,NNE,Clear,18,-1,28,1008,-999,-9999,-1
16/4/2013 12:00,4.0000032,70,57,ENE,Clear,19,-3,23,1007,-999,-9999,-3
16/4/2013 13:00,1.0000008,0,39,Variable,Clear,21,-4,18,1007,-999,-9999,-4
16/4/2013 14:00,2.0000016,0,36,Variable,Clear,21,-4,18,1006,-999,-9999,-4
16/4/2013 15:00,2.0000016,0,28,Variable,Clear,21,-3,20,1006,-999,-9999,-3
16/4/2013 16:00,2.0000016,0,,Variable,Clear,21,-5,17,1005,-999,-9999,-5
16/4/2013 17:00,4.0000032,120,27,ESE,Clear,20,-3,21,1006,-999,-9999,-3
16/4/2013 18:00,6.0000048,160,62,SSE,Clear,19,0,28,1006,-999,-9999,0
16/4/2013 19:00,7.0000056,170,96,South,Unknown,15,-2,31,1007,-999,8,-2
16/4/2013 20:00,5.000004,150,81,SSE,Clear,12,-2,38,1010,-999,-9999,-2
16/4/2013 21:00,5.000004,150,78,SSE,Clear,11,-2,41,1011,-999,-9999,-2
16/4/2013 22:00,6.0000048,140,75,SE,Clear,10,-1,47,1012,-999,-9999,-1
16/4/2013 23:00,5.000004,150,57,SSE,Clear,9,-1,50,1013,-999,-9999,-1
17/4/2013 0:00,4.0000032,140,48,SE,Clear,9,0,54,1013,-999,-9999,0
17/4/2013 1:00,3.0000024,130,52,SE,Clear,8,1,62,1013,6.1,-9999,1
17/4/2013 2:00,3.0000024,150,47,SSE,Clear,8,1,62,1013,6.1,-9999,1
17/4/2013 3:00,2.0000016,140,37,SE,Clear,8,1,62,1013,6.9,-9999,1
17/4/2013 4:00,1.0000008,0,27,Variable,Clear,8,1,62,1012,-999,-9999,1
17/4/2013 5:00,2.0000016,120,28,ESE,Clear,8,1,62,1012,6.9,-9999,1
17/4/2013 6:00,3.0000024,130,34,SE,Clear,8,1,62,1012,6.1,-9999,1
17/4/2013 7:00,3.0000024,140,45,SE,Clear,9,1,58,1013,-999,-9999,1
17/4/2013 8:00,2.0000016,140,51,SE,Clear,9,1,58,1013,-999,-9999,1
17/4/2013 9:00,6.0000048,170,49,South,Clear,11,-1,44,1012,-999,-9999,-1
17/4/2013 10:00,6.0000048,180,32,South,Clear,12,-3,35,1011,-999,-9999,-3
17/4/2013 11:00,6.0000048,170,41,South,Clear,13,-4,31,1010,-999,-9999,-4
17/4/2013 12:00,4.0000032,160,46,SSE,Clear,14,-4,29,1010,-999,-9999,-4
17/4/2013 13:00,3.0000024,140,55,SE,Clear,15,-5,25,1009,-999,-9999,-5
17/4/2013 14:00,3.0000024,160,63,SSE,Clear,16,-3,27,1008,-999,-9999,-3
17/4/2013 15:00,3.0000024,130,72,SE,Clear,16,-5,23,1008,-999,-9999,-5
17/4/2013 16:00,4.0000032,150,68,SSE,Clear,16,-4,25,1007,-999,-9999,-4
17/4/2013 17:00,3.0000024,90,60,East,Clear,15,-4,27,1008,-999,-9999,-4
17/4/2013 18:00,4.0000032,130,55,SE,Clear,14,-5,27,1009,-999,-9999,-5
17/4/2013 19:00,4.0000032,150,49,SSE,Clear,13,-7,25,1010,-999,-9999,-7
17/4/2013 20:00,3.0000024,120,43,ESE,Clear,12,-8,24,1012,-999,-9999,-8
17/4/2013 21:00,1.0000008,0,44,Variable,Clear,12,-8,24,1014,-999,-9999,-8
17/4/2013 22:00,1.0000008,40,46,NE,Clear,9,-6,34,1015,-999,-9999,-6
17/4/2013 23:00,6.0000048,360,39,North,Clear,9,-5,37,1016,-999,-9999,-5
18/4/2013 0:00,8.0000064,10,10,North,Clear,11,-7,28,1017,-999,-9999,-7
18/4/2013 1:00,7.0000056,20,13,NNE,Clear,9,-8,30,1018,-999,-9999,-8
18/4/2013 2:00,7.0000056,20,9,NNE,Clear,8,-10,27,1020,4.4,-9999,-10
18/4/2013 3:00,6.0000048,360,6,North,Clear,7,-11,27,1021,3.4,-9999,-11
18/4/2013 4:00,4.0000032,10,8,North,Clear,7,-12,25,1022,4.3,-9999,-12
18/4/2013 5:00,4.0000032,20,10,NNE,Clear,6,-12,27,1023,3.1,-9999,-12
18/4/2013 6:00,3.0000024,20,8,NNE,Clear,5,-12,29,1024,2.5,-9999,-12
18/4/2013 7:00,4.0000032,20,9,NNE,Clear,8,-14,20,1025,5.6,-9999,-14
18/4/2013 8:00,6.0000048,20,9,NNE,Clear,9,-16,16,1026,-999,-9999,-16
18/4/2013 9:00,5.000004,30,7,NNE,Clear,10,-17,14,1026,-999,-9999,-17
18/4/2013 10:00,7.0000056,20,8,NNE,Clear,10,-16,15,1026,-999,-9999,-16
18/4/2013 11:00,6.0000048,20,6,NNE,Clear,11,-17,13,1025,-999,-9999,-17
18/4/2013 12:00,5.000004,50,6,NE,Clear,12,-16,13,1024,-999,-9999,-16
18/4/2013 13:00,7.0000056,10,4,North,Clear,14,-19,9,1023,-999,-9999,-19
18/4/2013 14:00,6.0000048,30,7,NNE,Clear,14,-18,10,1022,-999,-9999,-18
18/4/2013 15:00,4.0000032,30,6,NNE,Clear,14,-20,8,1021,-999,-9999,-20
18/4/2013 16:00,4.0000032,60,7,ENE,Clear,14,-20,8,1020,-999,-9999,-20
18/4/2013 17:00,5.000004,80,9,East,Clear,14,-20,8,1020,-999,-9999,-20
18/4/2013 18:00,5.000004,50,8,NE,Clear,13,-20,9,1020,-999,-9999,-20
18/4/2013 19:00,3.0000024,50,16,NE,Clear,12,-19,10,1021,-999,-9999,-19
18/4/2013 20:00,2.0000016,80,25,East,Clear,11,-16,14,1022,-999,-9999,-16
18/4/2013 21:00,2.0000016,170,28,South,Clear,11,-16,14,1023,-999,-9999,-16
18/4/2013 22:00,1.0000008,0,23,Variable,Clear,11,-16,14,1024,-999,-9999,-16
18/4/2013 23:00,2.0000016,330,41,NNW,Clear,11,-16,14,1024,-999,-9999,-16
19/4/2013 0:00,2.0000016,130,41,SE,Clear,9,-10,25,1024,-999,-9999,-10
19/4/2013 1:00,6.0000048,110,56,ESE,Clear,8,-2,50,1024,4.7,-9999,-2
19/4/2013 2:00,5.000004,120,72,ESE,Clear,7,-1,57,1024,3.8,-9999,-1
19/4/2013 3:00,3.0000024,120,63,ESE,Clear,6,-1,61,1025,3.7,-9999,-1
19/4/2013 4:00,3.0000024,110,65,ESE,Clear,7,-2,53,1025,4.9,-9999,-2
19/4/2013 5:00,2.0000016,110,56,ESE,Clear,6,-4,49,1025,4.5,-9999,-4
19/4/2013 6:00,2.0000016,90,60,East,Clear,6,-4,49,1025,4.5,-9999,-4
19/4/2013 7:00,2.0000016,140,51,SE,Clear,7,-4,46,1026,5.7,-9999,-4
19/4/2013 8:00,2.0000016,120,43,ESE,Clear,8,-4,43,1027,6.9,-9999,-4
19/4/2013 9:00,3.0000024,150,41,SSE,Clear,8,-5,40,1026,6.1,-9999,-5
19/4/2013 10:00,4.0000032,230,43,SW,Clear,8,-1,53,1026,5.6,-9999,-1
19/4/2013 11:00,7.0000056,230,28,SW,Clear,7,1,66,1026,3.1,-9999,1
19/4/2013 12:00,4.0000032,0,35,Variable,Clear,7,-1,57,1025,4.3,-9999,-1
19/4/2013 13:00,4.0000032,220,40,SW,Clear,8,-3,46,1025,5.6,-9999,-3
19/4/2013 14:00,4.0000032,190,41,South,Clear,8,-3,46,1024,5.6,-9999,-3
19/4/2013 15:00,4.0000032,230,59,SW,Clear,8,-3,46,1023,5.6,-9999,-3
19/4/2013 16:00,4.0000032,210,57,SSW,Clear,8,-3,46,1022,5.6,-9999,-3
19/4/2013 17:00,5.000004,230,51,SW,Clear,8,-2,50,1022,5.1,-9999,-2
19/4/2013 18:00,6.0000048,220,57,SW,Clear,7,-2,53,1022,3.4,-9999,-2
19/4/2013 19:00,6.0000048,230,64,SW,Clear,7,0,61,1022,3.4,-9999,0
19/4/2013 20:00,5.000004,220,71,SW,Clear,6,0,66,1023,2.6,-9999,0
19/4/2013 21:00,4.0000032,210,77,SSW,Clear,5,1,76,1023,1.9,-9999,1
19/4/2013 22:00,4.0000032,210,73,SSW,Clear,5,1,76,1023,1.9,-9999,1
19/4/2013 23:00,3.0000024,200,67,SSW,Clear,5,1,76,1023,2.5,-9999,1
20/4/2013 0:00,3.0000024,230,64,SW,Clear,5,1,76,1023,2.5,-9999,1
20/4/2013 1:00,2.0000016,180,65,South,Clear,4,1,81,1023,2.2,-9999,1
20/4/2013 2:00,2.0000016,170,74,South,Unknown,3,1,87,1023,1,8,1
20/4/2013 3:00,2.0000016,220,80,SW,Unknown,3,1,87,1023,1,7,1
20/4/2013 4:00,1.0000008,0,84,Variable,Unknown,2,1,93,1022,-999,6,1
20/4/2013 5:00,1.0000008,40,83,NE,Mist,1,0,93,1023,-999,5,0
20/4/2013 6:00,1.0000008,10,86,North,Mist,1,1,100,1023,-999,3.5,1
20/4/2013 7:00,2.0000016,330,92,NNW,Mist,4,3,93,1023,2.2,2.8,3
20/4/2013 8:00,2.0000016,340,92,NNW,Mist,6,2,76,1023,4.5,4,2
20/4/2013 9:00,2.0000016,300,84,WNW,Unknown,8,1,62,1023,6.9,6,1
20/4/2013 10:00,1.0000008,0,75,Variable,Unknown,10,0,50,1023,-999,7,0
20/4/2013 11:00,2.0000016,0,78,Variable,Unknown,12,-1,41,1022,-999,8,-1
20/4/2013 12:00,2.0000016,0,75,Variable,Clear,14,-3,31,1021,-999,-9999,-3
20/4/2013 13:00,2.0000016,0,81,Variable,Clear,15,-3,29,1020,-999,-9999,-3
20/4/2013 14:00,4.0000032,0,70,Variable,Clear,16,-4,25,1019,-999,-9999,-4
20/4/2013 15:00,5.000004,210,69,SSW,Clear,16,-2,29,1018,-999,-9999,-2
20/4/2013 16:00,5.000004,210,63,SSW,Clear,16,-2,29,1017,-999,-9999,-2
20/4/2013 17:00,6.0000048,210,75,SSW,Clear,15,-2,31,1017,-999,-9999,-2
20/4/2013 18:00,6.0000048,210,67,SSW,Clear,14,-2,33,1018,-999,-9999,-2
20/4/2013 19:00,6.0000048,210,73,SSW,Clear,13,-3,33,1018,-999,-9999,-3
20/4/2013 20:00,4.0000032,210,81,SSW,Clear,12,-2,38,1019,-999,-9999,-2
20/4/2013 21:00,5.000004,210,78,SSW,Clear,11,-2,41,1020,-999,-9999,-2
20/4/2013 22:00,2.0000016,220,91,SW,Clear,11,-1,44,1020,-999,-9999,-1
20/4/2013 23:00,1.0000008,0,105,Variable,Clear,8,0,57,1020,-999,-9999,0
21/4/2013 0:00,2.0000016,150,117,SSE,Clear,8,1,62,1021,6.9,-9999,1
21/4/2013 1:00,3.0000024,170,118,South,Clear,6,1,70,1021,3.7,-9999,1
21/4/2013 2:00,1.0000008,0,125,Variable,Unknown,7,1,66,1021,-999,7,1
21/4/2013 3:00,1.0000008,110,123,ESE,Unknown,5,2,81,1020,-999,6,2
21/4/2013 4:00,1.0000008,90,132,East,Unknown,5,2,81,1021,-999,6,2
21/4/2013 5:00,1.0000008,80,126,East,Unknown,4,2,87,1020,-999,6,2
21/4/2013 6:00,1.0000008,50,136,NE,Mist,4,2,87,1020,-999,3.5,2
21/4/2013 7:00,1.0000008,60,151,ENE,Mist,6,3,81,1021,-999,3.5,3
21/4/2013 8:00,1.0000008,0,143,Variable,Mist,8,4,76,1021,-999,3.5,4
21/4/2013 9:00,2.0000016,170,153,South,Haze,10,4,66,1021,-999,3.5,4
21/4/2013 10:00,2.0000016,150,156,SSE,Haze,12,3,54,1021,-999,3.5,3
21/4/2013 11:00,3.0000024,190,164,South,Haze,15,3,45,1020,-999,4.5,3
21/4/2013 12:00,4.0000032,180,147,South,Haze,16,2,39,1019,-999,4.5,2
21/4/2013 13:00,5.000004,160,134,SSE,Haze,16,3,42,1018,-999,5,3
21/4/2013 14:00,4.0000032,170,138,South,Haze,17,3,39,1016,-999,5,3
21/4/2013 15:00,6.0000048,200,140,SSW,Haze,18,2,34,1015,-999,5,2
21/4/2013 16:00,6.0000048,180,142,South,Haze,19,0,28,1014,-999,5,0
21/4/2013 17:00,6.0000048,190,149,South,Unknown,18,0,30,1014,-999,6,0
21/4/2013 18:00,5.000004,200,137,SSW,Unknown,17,2,37,1014,-999,6,2
21/4/2013 19:00,5.000004,190,126,South,Unknown,16,3,42,1015,-999,6,3
21/4/2013 20:00,4.0000032,180,102,South,Haze,14,3,48,1016,-999,5,3
21/4/2013 21:00,4.0000032,170,89,South,Unknown,13,3,51,1016,-999,7,3
21/4/2013 22:00,3.0000024,160,89,SSE,Unknown,13,3,51,1016,-999,7,3
21/4/2013 23:00,5.000004,180,104,South,Unknown,13,3,51,1016,-999,7,3
22/4/2013 0:00,4.0000032,160,114,SSE,Unknown,12,3,54,1016,-999,7,3
22/4/2013 1:00,4.0000032,170,120,South,Unknown,11,4,62,1016,-999,6,4
22/4/2013 2:00,3.0000024,140,123,SE,Unknown,10,4,66,1015,-999,6,4
22/4/2013 3:00,2.0000016,120,128,ESE,Haze,9,4,71,1015,-999,5,4
22/4/2013 4:00,1.0000008,0,138,Variable,Haze,7,4,81,1016,-999,5,4
22/4/2013 5:00,2.0000016,130,147,SE,Haze,7,3,76,1016,5.7,4,3
22/4/2013 6:00,3.0000024,120,151,ESE,Haze,8,4,76,1016,6.1,3.5,4
22/4/2013 7:00,2.0000016,130,160,SE,Haze,9,5,76,1016,-999,-9999,5
22/4/2013 8:00,3.0000024,140,165,SE,Haze,10,5,71,1016,-999,3,5
22/4/2013 9:00,2.0000016,160,175,SSE,Haze,12,6,67,1016,-999,3,6
22/4/2013 10:00,2.0000016,0,195,Variable,Haze,13,6,63,1016,-999,3,6
22/4/2013 11:00,3.0000024,140,201,SE,Haze,14,6,59,1015,-999,3,6
22/4/2013 12:00,4.0000032,180,214,South,Haze,15,7,59,1015,-999,3,7
22/4/2013 13:00,4.0000032,200,236,SSW,Haze,15,7,59,1014,-999,2.5,7
22/4/2013 14:00,5.000004,190,218,South,Haze,15,7,59,1014,-999,2.5,7
22/4/2013 15:00,4.0000032,180,228,South,Haze,16,7,55,1013,-999,2.5,7
22/4/2013 16:00,5.000004,190,190,South,Haze,16,7,55,1012,-999,2.5,7
22/4/2013 17:00,5.000004,190,158,South,Haze,15,7,59,1011,-999,2.8,7
22/4/2013 18:00,3.0000024,200,166,SSW,Haze,15,7,59,1012,-999,-9999,7
22/4/2013 19:00,2.0000016,190,171,South,Haze,15,6,55,1012,-999,3.5,6
22/4/2013 20:00,1.0000008,0,183,Variable,Haze,12,7,72,1012,-999,4,7
22/4/2013 21:00,1.0000008,0,197,Variable,Mist,11,7,76,1012,-999,3.5,7
22/4/2013 22:00,2.0000016,110,188,ESE,Mist,11,7,76,1012,-999,3.5,7
22/4/2013 23:00,3.0000024,160,152,SSE,Haze,13,7,67,1012,-999,3.5,7
23/4/2013 0:00,4.0000032,200,135,SSW,Haze,13,7,67,1012,-999,4,7
23/4/2013 1:00,4.0000032,180,135,South,Haze,12,7,72,1012,-999,4,7
23/4/2013 2:00,3.0000024,180,134,South,Haze,10,6,76,1012,-999,4,6
23/4/2013 3:00,2.0000016,160,140,SSE,Mist,10,6,76,1011,-999,4,6
23/4/2013 4:00,3.0000024,170,146,South,Mist,9,7,87,1011,-999,4,7
23/4/2013 5:00,2.0000016,150,175,SSE,Mist,9,7,87,1011,-999,3.5,7
23/4/2013 6:00,3.0000024,170,195,South,Mist,10,7,82,1011,-999,2.3,7
23/4/2013 7:00,4.0000032,210,203,SSW,Mist,10,7,82,1011,-999,1.8,7
23/4/2013 8:00,2.0000016,200,201,SSW,Mist,10,7,82,1012,-999,1.8,7
23/4/2013 9:00,2.0000016,0,214,Variable,Mist,11,7,76,1011,-999,1.8,7
23/4/2013 10:00,2.0000016,190,214,South,Mist,11,7,76,1011,-999,1.8,7
23/4/2013 11:00,3.0000024,180,229,South,Mist,13,8,72,1011,-999,1.8,8
23/4/2013 12:00,2.0000016,0,247,Variable,Haze,14,8,67,1010,-999,1.8,8
23/4/2013 13:00,4.0000032,170,250,South,Light Rain,13,8,72,1010,-999,1.7,8
23/4/2013 14:00,1.0000008,0,258,Variable,Haze,15,9,67,1009,-999,1.7,9
23/4/2013 15:00,4.0000032,120,260,ESE,Haze,16,9,63,1008,-999,1.7,9
23/4/2013 16:00,5.000004,50,275,NE,Haze,15,8,63,1010,-999,1.7,8
23/4/2013 17:00,3.0000024,60,258,ENE,Haze,15,8,63,1011,-999,1.8,8
23/4/2013 18:00,1.0000008,0,215,Variable,Haze,15,7,59,1011,-999,4,7
23/4/2013 19:00,2.0000016,20,200,NNE,Haze,12,7,72,1012,-999,4.5,7
23/4/2013 20:00,1.0000008,0,190,Variable,Haze,12,7,72,1012,-999,4.5,7
23/4/2013 21:00,2.0000016,60,217,ENE,Mist,11,8,82,1013,-999,4,8
23/4/2013 22:00,1.0000008,0,236,Variable,Mist,9,7,87,1013,-999,3.5,7
23/4/2013 23:00,1.0000008,0,224,Variable,Mist,8,7,93,1013,-999,3.5,7
24/4/2013 0:00,1.0000008,0,241,Variable,Mist,8,7,93,1013,-999,3,7
24/4/2013 1:00,2.0000016,20,217,NNE,Mist,8,7,93,1013,6.9,3,7
24/4/2013 2:00,1.0000008,340,179,NNW,Mist,8,7,93,1013,-999,2.5,7
24/4/2013 3:00,2.0000016,330,154,NNW,Mist,7,6,93,1013,5.7,3,6
24/4/2013 4:00,2.0000016,330,125,NNW,Mist,6,5,93,1012,4.5,3.5,5
24/4/2013 5:00,3.0000024,340,148,NNW,Mist,5,4,93,1012,2.5,3.5,4
24/4/2013 6:00,3.0000024,340,165,NNW,Mist,6,5,93,1012,3.7,-9999,5
24/4/2013 7:00,3.0000024,360,125,North,Mist,9,8,93,1012,-999,-9999,8
24/4/2013 8:00,2.0000016,360,87,North,Mist,13,8,72,1011,-999,4,8
24/4/2013 9:00,1.0000008,0,85,Variable,Unknown,15,7,59,1011,-999,6,7
24/4/2013 10:00,2.0000016,300,73,WNW,Unknown,17,6,48,1010,-999,7,6
24/4/2013 11:00,3.0000024,0,77,Variable,Clear,21,2,28,1010,-999,-9999,2
24/4/2013 12:00,5.000004,260,74,West,Clear,23,-2,19,1008,-999,-9999,-2
24/4/2013 13:00,9.0000072,270,36,West,Clear,24,-6,13,1008,-999,-9999,-6
24/4/2013 14:00,9.0000072,310,15,NW,Clear,24,-10,10,1007,-999,-9999,-10
24/4/2013 15:00,10.000008,310,9,NW,Clear,25,-11,9,1007,-999,-9999,-11
24/4/2013 16:00,10.000008,350,8,North,Clear,24,-8,11,1006,-999,-9999,-8
24/4/2013 17:00,7.0000056,10,11,North,Clear,20,-6,17,1007,-999,-9999,-6
24/4/2013 18:00,5.000004,10,14,North,Clear,19,-3,23,1007,-999,-9999,-3
24/4/2013 19:00,5.000004,360,18,North,Clear,18,-4,22,1008,-999,-9999,-4
24/4/2013 20:00,8.0000064,20,14,NNE,Clear,17,-2,27,1011,-999,-9999,-2
24/4/2013 21:00,10.000008,330,8,NNW,Clear,17,-5,22,1012,-999,-9999,-5
24/4/2013 22:00,9.0000072,320,4,NW,Clear,15,-4,27,1013,-999,-9999,-4
24/4/2013 23:00,7.0000056,330,6,NNW,Clear,14,-4,29,1013,-999,-9999,-4
25/4/2013 0:00,6.0000048,330,7,NNW,Clear,13,-5,29,1013,-999,-9999,-5
25/4/2013 1:00,4.0000032,310,14,NW,Clear,12,-4,33,1013,-999,-9999,-4
25/4/2013 2:00,5.000004,290,12,WNW,Clear,13,-4,31,1013,-999,-9999,-4
25/4/2013 3:00,4.0000032,290,16,WNW,Clear,12,-4,33,1013,-999,-9999,-4
25/4/2013 4:00,4.0000032,300,14,WNW,Clear,12,-5,30,1012,-999,-9999,-5
25/4/2013 5:00,5.000004,320,15,NW,Clear,12,-7,26,1013,-999,-9999,-7
25/4/2013 6:00,4.0000032,310,10,NW,Clear,12,-6,28,1013,-999,-9999,-6
25/4/2013 7:00,7.0000056,320,9,NW,Clear,15,-7,22,1014,-999,-9999,-7
25/4/2013 8:00,8.0000064,320,8,NW,Clear,16,-8,19,1014,-999,-9999,-8
25/4/2013 9:00,9.0000072,320,9,NW,Clear,17,-8,18,1014,-999,-9999,-8
25/4/2013 10:00,0,,10,,,,,,,,,
25/4/2013 11:00,10.000008,330,10,NNW,Clear,20,-10,12,1014,-999,-9999,-10
25/4/2013 12:00,9.0000072,330,9,NNW,Clear,21,-9,13,1013,-999,-9999,-9
25/4/2013 13:00,8.0000064,360,8,North,Clear,22,-9,12,1013,-999,-9999,-9
25/4/2013 14:00,10.000008,350,9,North,Clear,22,-11,10,1012,-999,-9999,-11
25/4/2013 15:00,10.000008,340,6,NNW,Clear,23,-12,9,1011,-999,-9999,-12
25/4/2013 16:00,6.0000048,360,5,North,Clear,23,-12,9,1011,-999,-9999,-12
25/4/2013 17:00,10.000008,340,7,NNW,Clear,22,-15,7,1011,-999,-9999,-15
25/4/2013 18:00,9.0000072,350,8,North,Clear,21,-16,7,1011,-999,-9999,-16
25/4/2013 19:00,5.000004,350,19,North,Clear,19,-15,9,1011,-999,-9999,-15
25/4/2013 20:00,3.0000024,350,22,North,Clear,14,-13,14,1012,-999,-9999,-13
25/4/2013 21:00,1.0000008,0,52,Variable,Clear,14,-10,18,1013,-999,-9999,-10
25/4/2013 22:00,1.0000008,0,40,Variable,Clear,12,-6,28,1013,-999,-9999,-6
25/4/2013 23:00,2.0000016,270,95,West,Clear,17,-13,12,1013,-999,-9999,-13
26/4/2013 0:00,1.0000008,0,40,Variable,Clear,11,-7,28,1013,-999,-9999,-7
26/4/2013 1:00,3.0000024,220,71,SW,Clear,10,-6,32,1013,-999,-9999,-6
26/4/2013 2:00,2.0000016,350,64,North,Clear,10,-5,35,1013,-999,-9999,-5
26/4/2013 3:00,2.0000016,140,92,SE,Clear,9,-3,43,1013,-999,-9999,-3
26/4/2013 4:00,1.0000008,320,83,NW,Clear,10,-4,37,1012,-999,-9999,-4
26/4/2013 5:00,1.0000008,0,100,Variable,Clear,7,0,61,1012,-999,-9999,0
26/4/2013 6:00,1.0000008,0,115,Variable,Clear,7,0,61,1012,-999,-9999,0
26/4/2013 7:00,1.0000008,0,70,Variable,Clear,11,0,47,1012,-999,-9999,0
26/4/2013 8:00,1.0000008,0,83,Variable,Clear,14,-2,33,1013,-999,-9999,-2
26/4/2013 9:00,2.0000016,80,87,East,Clear,16,-4,25,1012,-999,-9999,-4
26/4/2013 10:00,1.0000008,0,81,Variable,Clear,19,-3,23,1012,-999,-9999,-3
26/4/2013 11:00,2.0000016,0,80,Variable,Clear,20,0,26,1011,-999,-9999,0
26/4/2013 12:00,3.0000024,140,80,SE,Clear,22,-1,22,1010,-999,-9999,-1
26/4/2013 13:00,4.0000032,150,78,SSE,Clear,23,0,22,1009,-999,-9999,0
26/4/2013 14:00,2.0000016,150,70,SSE,Clear,24,1,22,1008,-999,-9999,1
26/4/2013 15:00,4.0000032,140,66,SE,Clear,24,1,22,1007,-999,-9999,1
26/4/2013 16:00,4.0000032,150,74,SSE,Clear,24,1,22,1006,-999,-9999,1
26/4/2013 17:00,4.0000032,130,74,SE,Clear,22,2,27,1006,-999,-9999,2
26/4/2013 18:00,5.000004,130,80,SE,Clear,22,1,25,1006,-999,-9999,1
26/4/2013 19:00,5.000004,120,74,ESE,Clear,20,1,28,1006,-999,-9999,1
26/4/2013 20:00,5.000004,150,52,SSE,Clear,19,0,28,1007,-999,-9999,0
26/4/2013 21:00,3.0000024,130,41,SE,Clear,17,-3,26,1008,-999,-9999,-3
26/4/2013 22:00,5.000004,130,38,SE,Clear,17,-3,26,1009,-999,-9999,-3
26/4/2013 23:00,2.0000016,140,45,SE,Clear,17,-2,27,1009,-999,-9999,-2
27/4/2013 0:00,3.0000024,120,55,ESE,Clear,16,-1,31,1009,-999,-9999,-1
27/4/2013 1:00,2.0000016,20,63,NNE,Clear,15,-1,34,1009,-999,-9999,-1
27/4/2013 2:00,1.0000008,0,69,Variable,Clear,14,-1,36,1009,-999,-9999,-1
27/4/2013 3:00,1.0000008,30,81,NNE,Clear,11,1,50,1009,-999,-9999,1
27/4/2013 4:00,2.0000016,10,122,North,Clear,11,1,50,1009,-999,-9999,1
27/4/2013 5:00,2.0000016,360,82,North,Clear,9,1,58,1009,-999,-9999,1
27/4/2013 6:00,1.0000008,0,55,Variable,Clear,9,2,62,1010,-999,-9999,2
27/4/2013 7:00,1.0000008,0,62,Variable,Clear,13,3,51,1011,-999,-9999,3
27/4/2013 8:00,2.0000016,20,61,NNE,Clear,18,-1,28,1011,-999,-9999,-1
27/4/2013 9:00,4.0000032,80,46,East,Clear,19,-6,18,1012,-999,-9999,-6
27/4/2013 10:00,3.0000024,90,45,East,Clear,20,-2,23,1012,-999,-9999,-2
27/4/2013 11:00,4.0000032,130,50,SE,Clear,21,0,25,1012,-999,-9999,0
27/4/2013 12:00,3.0000024,90,54,East,Clear,22,-1,22,1011,-999,-9999,-1
27/4/2013 13:00,4.0000032,100,64,East,Clear,23,1,23,1010,-999,-9999,1
27/4/2013 14:00,4.0000032,140,75,SE,Clear,24,2,24,1010,-999,-9999,2
27/4/2013 15:00,4.0000032,130,76,SE,Clear,24,3,25,1009,-999,-9999,3
27/4/2013 16:00,5.000004,140,70,SE,Clear,24,1,22,1009,-999,-9999,1
27/4/2013 17:00,5.000004,140,80,SE,Clear,23,2,25,1009,-999,-9999,2
27/4/2013 18:00,5.000004,150,82,SSE,Clear,22,4,31,1009,-999,-9999,4
27/4/2013 19:00,4.0000032,160,95,SSE,Clear,20,4,35,1010,-999,-9999,4
27/4/2013 20:00,3.0000024,150,77,SSE,Clear,19,5,40,1011,-999,-9999,5
27/4/2013 21:00,3.0000024,120,81,ESE,Clear,17,4,42,1012,-999,-9999,4
27/4/2013 22:00,3.0000024,120,97,ESE,Clear,16,4,45,1012,-999,-9999,4
27/4/2013 23:00,2.0000016,170,103,South,Clear,15,4,48,1013,-999,-9999,4
28/4/2013 0:00,2.0000016,170,85,South,Clear,15,4,48,1013,-999,-9999,4
28/4/2013 1:00,3.0000024,170,89,South,Clear,13,4,54,1012,-999,-9999,4
28/4/2013 2:00,2.0000016,170,96,South,Clear,13,4,54,1011,-999,-9999,4
28/4/2013 3:00,1.0000008,0,80,Variable,Unknown,13,5,58,1011,-999,8,5
28/4/2013 4:00,1.0000008,160,85,SSE,Unknown,11,5,67,1010,-999,8,5
28/4/2013 5:00,1.0000008,0,91,Variable,Unknown,12,5,62,1010,-999,8,5
28/4/2013 6:00,1.0000008,80,81,East,Unknown,11,6,71,1010,-999,6,6
28/4/2013 7:00,1.0000008,70,81,ENE,Unknown,13,5,58,1010,-999,6,5
28/4/2013 8:00,2.0000016,140,94,SE,Unknown,14,5,55,1010,-999,6,5
28/4/2013 9:00,3.0000024,160,80,SSE,Unknown,16,5,48,1010,-999,6,5
28/4/2013 10:00,4.0000032,150,79,SSE,Unknown,15,6,55,1010,-999,7,6
28/4/2013 11:00,1.0000008,0,89,Variable,Unknown,15,6,55,1010,-999,7,6
28/4/2013 12:00,3.0000024,60,85,ENE,Unknown,17,7,52,1009,-999,8,7
28/4/2013 13:00,2.0000016,30,82,NNE,Unknown,18,7,49,1009,-999,8,7
28/4/2013 14:00,1.0000008,0,85,Variable,Unknown,18,7,49,1008,-999,8,7
28/4/2013 15:00,1.0000008,0,92,Variable,Unknown,18,7,49,1007,-999,8,7
28/4/2013 16:00,1.0000008,0,92,Variable,Unknown,18,7,49,1007,-999,8,7
28/4/2013 17:00,1.0000008,0,96,Variable,Unknown,19,8,49,1007,-999,8,8
28/4/2013 18:00,3.0000024,290,74,WNW,Unknown,19,7,46,1008,-999,8,7
28/4/2013 19:00,10.000008,350,16,North,Clear,19,-5,19,1010,-999,-9999,-5
28/4/2013 20:00,10.000008,340,21,NNW,Clear,20,-9,13,1011,-999,-9999,-9
28/4/2013 21:00,7.0000056,340,20,NNW,Clear,19,-8,15,1012,-999,-9999,-8
28/4/2013 22:00,2.0000016,30,17,NNE,Clear,16,-5,23,1012,-999,-9999,-5
28/4/2013 23:00,6.0000048,340,11,NNW,Clear,17,-9,16,1013,-999,-9999,-9
29/4/2013 0:00,6.0000048,310,11,NW,Clear,19,-10,13,1014,-999,-9999,-10
29/4/2013 1:00,4.0000032,310,14,NW,Clear,17,-11,14,1014,-999,-9999,-11
29/4/2013 2:00,2.0000016,260,14,West,Clear,16,-11,15,1014,-999,-9999,-11
29/4/2013 3:00,1.0000008,0,15,Variable,Clear,11,-2,41,1014,-999,-9999,-2
29/4/2013 4:00,2.0000016,190,17,South,Clear,9,-3,43,1013,-999,-9999,-3
29/4/2013 5:00,1.0000008,0,17,Variable,Clear,8,-1,53,1013,-999,-9999,-1
29/4/2013 6:00,1.0000008,0,21,Variable,Clear,8,1,62,1013,-999,-9999,1
29/4/2013 7:00,1.0000008,0,24,Variable,Clear,14,1,41,1014,-999,-9999,1
29/4/2013 8:00,2.0000016,70,20,ENE,Clear,20,-4,20,1014,-999,-9999,-4
29/4/2013 9:00,3.0000024,320,17,NW,Clear,22,-9,12,1014,-999,-9999,-9
29/4/2013 10:00,3.0000024,320,47,NW,Clear,23,-9,11,1013,-999,-9999,-9
29/4/2013 11:00,3.0000024,320,44,NW,Clear,25,-9,10,1012,-999,-9999,-9
29/4/2013 12:00,5.000004,340,39,NNW,Clear,27,-8,10,1012,-999,-9999,-8
29/4/2013 13:00,8.0000064,310,27,NW,Clear,27,-11,8,1011,-999,-9999,-11
29/4/2013 14:00,9.0000072,320,30,NW,Clear,28,-11,7,1009,-999,-9999,-11
29/4/2013 15:00,11.0000088,340,11,NNW,Clear,29,-14,5,1009,-999,-9999,-14
29/4/2013 16:00,9.0000072,340,12,NNW,Clear,29,-14,5,1008,-999,-9999,-14
29/4/2013 17:00,11.0000088,340,38,NNW,Clear,28,-15,5,1008,-999,-9999,-15
29/4/2013 18:00,9.0000072,340,74,NNW,Clear,27,-13,6,1008,-999,-9999,-13
29/4/2013 19:00,9.0000072,340,37,NNW,Clear,26,-15,6,1009,-999,-9999,-15
29/4/2013 20:00,7.0000056,330,31,NNW,Clear,25,-13,7,1010,-999,-9999,-13
29/4/2013 21:00,6.0000048,340,32,NNW,Clear,24,-14,7,1011,-999,-9999,-14
29/4/2013 22:00,7.0000056,330,48,NNW,Clear,24,-14,7,1011,-999,-9999,-14
29/4/2013 23:00,6.0000048,340,81,NNW,Clear,23,-13,8,1011,-999,-9999,-13
30/4/2013 0:00,4.0000032,360,36,North,Clear,18,-10,14,1012,-999,-9999,-10
30/4/2013 1:00,5.000004,30,12,NNE,Clear,20,-11,12,1013,-999,-9999,-11
30/4/2013 2:00,5.000004,30,10,NNE,Clear,18,-13,11,1014,-999,-9999,-13
30/4/2013 3:00,2.0000016,30,11,NNE,Clear,16,-12,14,1014,-999,-9999,-12
30/4/2013 4:00,2.0000016,350,15,North,Clear,12,-7,26,1014,-999,-9999,-7
30/4/2013 5:00,1.0000008,0,10,Variable,Clear,10,-4,37,1014,-999,-9999,-4
30/4/2013 6:00,3.0000024,320,11,NW,Clear,14,-8,21,1015,-999,-9999,-8
30/4/2013 7:00,5.000004,30,14,NNE,Clear,17,-11,14,1015,-999,-9999,-11
30/4/2013 8:00,5.000004,30,10,NNE,Clear,19,-10,13,1016,-999,-9999,-10
30/4/2013 9:00,4.0000032,30,9,NNE,Clear,21,-10,12,1016,-999,-9999,-10
30/4/2013 10:00,5.000004,40,11,NE,Clear,22,-10,11,1015,-999,-9999,-10
30/4/2013 11:00,5.000004,30,70,NNE,Clear,24,-10,10,1015,-999,-9999,-10
30/4/2013 12:00,4.0000032,30,11,NNE,Clear,26,-11,8,1014,-999,-9999,-11
30/4/2013 13:00,4.0000032,350,12,North,Clear,28,-9,8,1013,-999,-9999,-9
30/4/2013 14:00,3.0000024,0,13,Variable,Clear,28,-9,8,1012,-999,-9999,-9
30/4/2013 15:00,2.0000016,0,16,Variable,Clear,28,-13,6,1011,-999,-9999,-13
30/4/2013 16:00,3.0000024,70,11,ENE,Clear,28,-11,7,1011,-999,-9999,-11
30/4/2013 17:00,4.0000032,80,13,East,Clear,27,-12,7,1011,-999,-9999,-12
30/4/2013 18:00,3.0000024,70,22,ENE,Clear,26,-15,6,1011,-999,-9999,-15
30/4/2013 19:00,1.0000008,0,36,Variable,Clear,23,-10,10,1012,-999,-9999,-10
30/4/2013 20:00,1.0000008,0,45,Variable,Clear,20,-9,13,1013,-999,-9999,-9
30/4/2013 21:00,1.0000008,0,40,Variable,Clear,18,-6,19,1014,-999,-9999,-6
30/4/2013 22:00,2.0000016,90,38,East,Clear,19,-10,13,1015,-999,-9999,-10
30/4/2013 23:00,5.000004,110,38,ESE,Clear,15,-4,27,1016,-999,-9999,-4
1/5/2013 0:00,4.0000032,110,81,ESE,Clear,14,-2,33,1017,-999,-9999,-2
1/5/2013 1:00,2.0000016,100,41,East,Clear,13,-2,36,1018,-999,-9999,-2
1/5/2013 2:00,2.0000016,350,36,North,Clear,10,-1,47,1018,-999,-9999,-1
1/5/2013 3:00,2.0000016,350,59,North,Clear,9,0,54,1018,-999,-9999,0
1/5/2013 4:00,1.0000008,20,46,NNE,Clear,8,2,66,1018,-999,-9999,2
1/5/2013 5:00,1.0000008,0,48,Variable,Clear,8,4,76,1018,-999,-9999,4
1/5/2013 6:00,1.0000008,330,83,NNW,Clear,8,2,66,1018,-999,-9999,2
1/5/2013 7:00,1.0000008,0,45,Variable,Clear,13,2,47,1018,-999,-9999,2
1/5/2013 8:00,1.0000008,0,33,Variable,Clear,17,2,37,1018,-999,-9999,2
1/5/2013 9:00,1.0000008,0,30,Variable,Clear,18,1,32,1018,-999,-9999,1
1/5/2013 10:00,2.0000016,280,27,West,Clear,19,0,28,1017,-999,-9999,0
1/5/2013 11:00,2.0000016,300,24,WNW,Clear,21,-2,21,1016,-999,-9999,-2
1/5/2013 12:00,2.0000016,190,28,South,Clear,22,-6,15,1015,-999,-9999,-6
1/5/2013 13:00,2.0000016,80,34,East,Clear,23,-7,13,1014,-999,-9999,-7
1/5/2013 14:00,2.0000016,0,33,Variable,Clear,25,-5,13,1013,-999,-9999,-5
1/5/2013 15:00,3.0000024,150,28,SSE,Clear,25,-5,13,1012,-999,-9999,-5
1/5/2013 16:00,4.0000032,200,35,SSW,Clear,24,-4,15,1011,-999,-9999,-4
1/5/2013 17:00,6.0000048,190,38,South,Clear,23,-1,20,1011,-999,-9999,-1
1/5/2013 18:00,7.0000056,190,59,South,Clear,22,-1,22,1011,-999,-9999,-1
1/5/2013 19:00,6.0000048,220,41,SW,Clear,21,0,25,1012,-999,-9999,0
1/5/2013 20:00,3.0000024,210,51,SSW,Clear,21,-1,23,1012,-999,-9999,-1
1/5/2013 21:00,2.0000016,170,56,South,Clear,17,0,32,1012,-999,-9999,0
1/5/2013 22:00,2.0000016,170,70,South,Clear,16,1,36,1013,-999,-9999,1
1/5/2013 23:00,3.0000024,160,71,SSE,Clear,15,4,48,1013,-999,-9999,4
2/5/2013 0:00,3.0000024,150,55,SSE,Clear,16,1,36,1013,-999,-9999,1
2/5/2013 1:00,3.0000024,150,52,SSE,Clear,16,0,34,1013,-999,-9999,0
2/5/2013 2:00,2.0000016,130,53,SE,Clear,15,1,39,1013,-999,-9999,1
2/5/2013 3:00,2.0000016,100,57,East,Clear,14,2,44,1013,-999,-9999,2
2/5/2013 4:00,4.0000032,140,72,SE,Clear,14,3,48,1013,-999,-9999,3
2/5/2013 5:00,3.0000024,150,88,SSE,Clear,14,5,55,1013,-999,-9999,5
2/5/2013 6:00,2.0000016,140,98,SE,Unknown,13,6,63,1014,-999,6,6
2/5/2013 7:00,3.0000024,140,103,SE,Haze,14,6,59,1014,-999,5,6
2/5/2013 8:00,2.0000016,70,100,ENE,Haze,16,6,52,1015,-999,5,6
2/5/2013 9:00,2.0000016,80,102,East,Unknown,17,7,52,1014,-999,6,7
2/5/2013 10:00,1.0000008,0,75,Variable,Unknown,19,7,46,1014,-999,7,7
2/5/2013 11:00,3.0000024,150,78,SSE,Clear,21,4,33,1013,-999,-9999,4
2/5/2013 12:00,2.0000016,120,89,ESE,Clear,22,4,31,1012,-999,-9999,4
2/5/2013 13:00,4.0000032,160,98,SSE,Clear,23,3,27,1012,-999,-9999,3
2/5/2013 14:00,3.0000024,130,96,SE,Clear,24,1,22,1011,-999,-9999,1
2/5/2013 15:00,3.0000024,150,97,SSE,Clear,24,2,24,1010,-999,-9999,2
2/5/2013 16:00,4.0000032,170,96,South,Clear,23,4,29,1009,-999,-9999,4
2/5/2013 17:00,4.0000032,120,95,ESE,Clear,23,3,27,1008,-999,-9999,3
2/5/2013 18:00,6.0000048,140,86,SE,Clear,21,4,33,1009,-999,-9999,4
2/5/2013 19:00,5.000004,120,94,ESE,Clear,20,3,33,1009,-999,-9999,3
2/5/2013 20:00,6.0000048,130,79,SE,Clear,19,4,37,1010,-999,-9999,4
2/5/2013 21:00,5.000004,130,87,SE,Clear,18,4,40,1011,-999,-9999,4
2/5/2013 22:00,4.0000032,110,81,ESE,Clear,17,4,42,1012,-999,-9999,4
2/5/2013 23:00,6.0000048,130,59,SE,Clear,17,5,45,1013,-999,-9999,5
3/5/2013 0:00,4.0000032,110,68,ESE,Clear,17,4,42,1013,-999,-9999,4
3/5/2013 1:00,4.0000032,70,82,ENE,Light Thunderstorms and Rain,13,7,67,1015,-999,10,7
3/5/2013 2:00,2.0000016,80,60,East,Light Thunderstorms and Rain,12,9,82,1016,-999,10,9
3/5/2013 3:00,3.0000024,100,44,East,Light Thunderstorms and Rain,13,9,77,1016,-999,10,9
3/5/2013 4:00,1.0000008,0,48,Variable,Clear,12,9,82,1016,-999,-9999,9
3/5/2013 5:00,1.0000008,10,52,North,Clear,12,9,82,1017,-999,-9999,9
3/5/2013 6:00,1.0000008,0,51,Variable,Clear,13,9,77,1017,-999,-9999,9
3/5/2013 7:00,2.0000016,10,51,North,Clear,14,10,77,1018,-999,-9999,10
3/5/2013 8:00,2.0000016,360,56,North,Clear,16,8,59,1018,-999,-9999,8
3/5/2013 9:00,1.0000008,0,57,Variable,Clear,17,8,55,1018,-999,-9999,8
3/5/2013 10:00,1.0000008,0,63,Variable,Clear,19,9,52,1018,-999,-9999,9
3/5/2013 11:00,2.0000016,0,61,Variable,Clear,19,7,46,1018,-999,-9999,7
3/5/2013 12:00,1.0000008,0,69,Variable,Clear,20,6,40,1018,-999,-9999,6
3/5/2013 13:00,2.0000016,0,71,Variable,Clear,21,7,40,1017,-999,-9999,7
3/5/2013 14:00,3.0000024,220,73,SW,Clear,22,5,33,1016,-999,-9999,5
3/5/2013 15:00,2.0000016,0,67,Variable,Clear,22,5,33,1016,-999,-9999,5
3/5/2013 16:00,4.0000032,180,60,South,Clear,22,5,33,1015,-999,-9999,5
3/5/2013 17:00,4.0000032,170,57,South,Clear,22,4,31,1015,-999,-9999,4
3/5/2013 18:00,5.000004,180,52,South,Clear,21,4,33,1015,-999,-9999,4
3/5/2013 19:00,4.0000032,180,66,South,Clear,19,5,40,1015,-999,-9999,5
3/5/2013 20:00,3.0000024,200,72,SSW,Clear,19,6,43,1016,-999,-9999,6
3/5/2013 21:00,3.0000024,180,77,South,Clear,16,7,55,1016,-999,-9999,7
3/5/2013 22:00,2.0000016,160,96,SSE,Clear,17,7,52,1016,-999,-9999,7
3/5/2013 23:00,2.0000016,160,86,SSE,Clear,16,7,55,1017,-999,-9999,7
4/5/2013 0:00,4.0000032,180,71,South,Clear,15,7,59,1017,-999,-9999,7
4/5/2013 1:00,4.0000032,180,67,South,Clear,15,7,59,1017,-999,-9999,7
4/5/2013 2:00,2.0000016,150,74,SSE,Clear,14,7,63,1017,-999,-9999,7
4/5/2013 3:00,3.0000024,150,83,SSE,Clear,14,7,63,1017,-999,-9999,7
4/5/2013 4:00,3.0000024,140,88,SE,Clear,13,7,67,1017,-999,-9999,7
4/5/2013 5:00,3.0000024,140,98,SE,Unknown,13,7,67,1017,-999,8,7
4/5/2013 6:00,2.0000016,70,112,ENE,Unknown,12,8,77,1018,-999,7,8
4/5/2013 7:00,2.0000016,120,124,ESE,Unknown,14,9,72,1018,-999,6,9
4/5/2013 8:00,2.0000016,180,131,South,Haze,16,10,68,1018,-999,5,10
4/5/2013 9:00,2.0000016,180,139,South,Haze,18,9,56,1018,-999,4.5,9
4/5/2013 10:00,2.0000016,0,117,Variable,Haze,19,10,56,1018,-999,4,10
4/5/2013 11:00,7.0000056,190,83,South,Haze,23,9,41,1017,-999,5,9
4/5/2013 12:00,7.0000056,170,82,South,Clear,23,7,36,1017,-999,-9999,7
4/5/2013 13:00,5.000004,190,78,South,Clear,24,5,29,1016,-999,-9999,5
4/5/2013 14:00,7.0000056,170,70,South,Clear,24,3,25,1015,-999,-9999,3
4/5/2013 15:00,6.0000048,220,64,SW,Clear,25,2,22,1015,-999,-9999,2
4/5/2013 16:00,4.0000032,180,65,South,Clear,25,0,19,1014,-999,-9999,0
4/5/2013 17:00,6.0000048,210,54,SSW,Clear,25,-1,18,1014,-999,-9999,-1
4/5/2013 18:00,6.0000048,220,65,SW,Clear,24,-1,19,1014,-999,-9999,-1
4/5/2013 19:00,4.0000032,220,71,SW,Clear,23,1,23,1014,-999,-9999,1
4/5/2013 20:00,3.0000024,190,75,South,Clear,21,3,31,1015,-999,-9999,3
4/5/2013 21:00,2.0000016,180,80,South,Clear,20,4,35,1016,-999,-9999,4
4/5/2013 22:00,1.0000008,120,84,ESE,Clear,16,9,63,1016,-999,-9999,9
4/5/2013 23:00,2.0000016,100,104,East,Unknown,17,8,55,1016,-999,7,8
5/5/2013 0:00,2.0000016,100,134,East,Unknown,17,8,55,1016,-999,7,8
5/5/2013 1:00,2.0000016,110,136,ESE,Unknown,16,8,59,1016,-999,7,8
5/5/2013 2:00,2.0000016,100,145,East,Unknown,15,9,67,1016,-999,6,9
5/5/2013 3:00,1.0000008,0,144,Variable,Unknown,14,9,72,1016,-999,6,9
5/5/2013 4:00,0,0,153,North,Unknown,14,8,67,1017,-999,6,8
5/5/2013 5:00,1.0000008,60,167,ENE,Unknown,12,9,82,1017,-999,6,9
5/5/2013 6:00,1.0000008,0,157,Variable,Unknown,12,9,82,1017,-999,6,9
5/5/2013 7:00,1.0000008,20,152,NNE,Unknown,15,10,72,1018,-999,6,10
5/5/2013 8:00,2.0000016,80,166,East,Unknown,17,8,55,1018,-999,6,8
5/5/2013 9:00,1.0000008,0,169,Variable,Haze,19,10,56,1018,-999,4,10
5/5/2013 10:00,1.0000008,0,161,Variable,Haze,21,10,49,1018,-999,3.5,10
5/5/2013 11:00,1.0000008,0,156,Variable,Haze,23,11,47,1018,-999,3.5,11
5/5/2013 12:00,1.0000008,0,172,Variable,Haze,25,12,44,1017,-999,4,12
5/5/2013 13:00,1.0000008,0,177,Variable,Haze,26,12,42,1016,-999,4,12
5/5/2013 14:00,3.0000024,170,182,South,Haze,27,11,37,1016,-999,4,11
5/5/2013 15:00,3.0000024,170,179,South,Haze,27,11,37,1015,-999,3.5,11
5/5/2013 16:00,4.0000032,190,187,South,Haze,27,12,39,1014,-999,3.5,12
5/5/2013 17:00,4.0000032,190,209,South,Haze,27,13,42,1013,-999,3.5,13
5/5/2013 18:00,4.0000032,180,211,South,Haze,26,13,44,1013,-999,-9999,13
5/5/2013 19:00,4.0000032,190,230,South,Haze,25,13,47,1014,-999,-9999,13
5/5/2013 20:00,3.0000024,180,254,South,Haze,22,14,60,1014,-999,5,14
5/5/2013 21:00,4.0000032,190,271,South,Unknown,23,15,61,1015,-999,6,15
5/5/2013 22:00,2.0000016,160,275,SSE,Unknown,21,15,68,1015,-999,6,15
5/5/2013 23:00,1.0000008,0,284,Variable,Unknown,19,15,78,1015,-999,6,15
6/5/2013 0:00,1.0000008,80,297,East,Mist,18,15,83,1015,-999,5,15
6/5/2013 1:00,1.0000008,90,314,East,Mist,18,15,83,1015,-999,4,15
6/5/2013 2:00,1.0000008,0,301,Variable,Mist,17,15,88,1015,-999,3.5,15
6/5/2013 3:00,1.0000008,0,320,Variable,Mist,16,14,88,1015,-999,-9999,14
6/5/2013 4:00,1.0000008,60,315,ENE,Mist,15,14,94,1015,-999,3,14
6/5/2013 5:00,1.0000008,0,318,Variable,Mist,15,14,94,1015,-999,2.3,14
6/5/2013 6:00,0,0,312,North,Mist,15,14,94,1015,-999,1.5,14
6/5/2013 7:00,1.0000008,20,286,NNE,Mist,17,16,94,1015,-999,1.4,16
6/5/2013 8:00,1.0000008,0,271,Variable,Mist,20,15,73,1016,-999,1.6,15
6/5/2013 9:00,1.0000008,0,261,Variable,Haze,23,16,65,1015,-999,1.7,16
6/5/2013 10:00,1.0000008,0,266,Variable,Haze,24,15,57,1015,-999,2,15
6/5/2013 11:00,1.0000008,0,265,Variable,Haze,26,16,54,1015,-999,2.3,16
6/5/2013 12:00,3.0000024,240,259,WSW,Haze,27,16,51,1014,-999,2.3,16
6/5/2013 13:00,2.0000016,0,171,Variable,Haze,29,14,40,1014,-999,2.5,14
6/5/2013 14:00,4.0000032,200,103,SSW,Haze,30,11,31,1013,-999,2.5,11
6/5/2013 15:00,4.0000032,190,103,South,Haze,31,9,25,1012,-999,5,9
6/5/2013 16:00,5.000004,200,82,SSW,Unknown,31,8,24,1012,-999,6,8
6/5/2013 17:00,5.000004,190,85,South,Clear,30,7,23,1012,-999,-9999,7
6/5/2013 18:00,4.0000032,180,90,South,Clear,28,7,26,1012,-999,-9999,7
6/5/2013 19:00,4.0000032,200,135,SSW,Clear,27,8,30,1012,-999,-9999,8
6/5/2013 20:00,2.0000016,160,148,SSE,Unknown,25,10,39,1013,-999,8,10
6/5/2013 21:00,2.0000016,180,143,South,Unknown,23,11,47,1014,-999,7,11
6/5/2013 22:00,1.0000008,0,137,Variable,Unknown,20,14,68,1014,-999,6,14
6/5/2013 23:00,0,0,161,North,Unknown,19,14,73,1014,-999,6,14
7/5/2013 0:00,2.0000016,80,157,East,Unknown,18,14,77,1015,-999,6,14
7/5/2013 1:00,1.0000008,90,170,East,Unknown,18,14,77,1015,-999,6,14
7/5/2013 2:00,1.0000008,0,156,Variable,Unknown,18,14,77,1014,-999,6,14
7/5/2013 3:00,1.0000008,0,157,Variable,Unknown,17,13,77,1015,-999,6,13
7/5/2013 4:00,1.0000008,70,169,ENE,Mist,17,13,77,1015,-999,5,13
7/5/2013 5:00,1.0000008,0,185,Variable,Mist,15,13,88,1015,-999,4,13
7/5/2013 6:00,1.0000008,50,217,NE,Mist,16,13,82,1015,-999,3.5,13
7/5/2013 7:00,1.0000008,0,230,Variable,Mist,18,14,77,1016,-999,3.5,14
7/5/2013 8:00,1.0000008,0,251,Variable,Haze,20,14,68,1016,-999,-9999,14
7/5/2013 9:00,1.0000008,0,251,Variable,Haze,23,16,65,1017,-999,3,16
7/5/2013 10:00,1.0000008,0,246,Variable,Haze,24,16,61,1017,-999,3,16
7/5/2013 11:00,2.0000016,130,194,SE,Haze,25,16,57,1017,-999,3,16
7/5/2013 12:00,3.0000024,130,137,SE,Haze,27,15,48,1016,-999,3.5,15
7/5/2013 13:00,3.0000024,170,127,South,Haze,28,14,42,1015,-999,4.5,14
7/5/2013 14:00,3.0000024,180,130,South,Unknown,29,13,37,1014,-999,6,13
7/5/2013 15:00,5.000004,160,143,SSE,Unknown,29,11,33,1014,-999,7,11
7/5/2013 16:00,4.0000032,150,143,SSE,Unknown,29,12,35,1013,-999,7,12
7/5/2013 17:00,3.0000024,150,153,SSE,Unknown,28,13,39,1013,-999,7,13
7/5/2013 18:00,3.0000024,150,172,SSE,Unknown,28,12,37,1013,-999,6,12
7/5/2013 19:00,4.0000032,140,182,SE,Haze,27,13,42,1013,-999,5,13
7/5/2013 20:00,4.0000032,140,164,SE,Haze,26,12,42,1013,-999,5,12
7/5/2013 21:00,4.0000032,140,166,SE,Haze,24,9,38,1014,-999,5,9
7/5/2013 22:00,3.0000024,140,199,SE,Haze,22,11,50,1014,-999,4.5,11
7/5/2013 23:00,3.0000024,120,196,ESE,Haze,21,11,53,1014,-999,4,11
8/5/2013 0:00,2.0000016,100,223,East,Haze,21,11,53,1014,-999,4.5,11
8/5/2013 1:00,2.0000016,110,218,ESE,Haze,20,10,52,1014,-999,5,10
8/5/2013 2:00,2.0000016,110,272,ESE,Unknown,19,10,56,1014,-999,6,10
8/5/2013 3:00,1.0000008,0,172,Variable,Haze,18,11,64,1014,-999,5,11
8/5/2013 4:00,0,0,137,North,Haze,16,10,68,1014,-999,5,10
8/5/2013 5:00,2.0000016,120,119,ESE,Haze,16,10,68,1014,-999,5,10
8/5/2013 6:00,3.0000024,130,116,SE,Unknown,17,10,63,1014,-999,6,10
8/5/2013 7:00,1.0000008,0,120,Variable,Unknown,18,9,56,1015,-999,6,9
8/5/2013 8:00,3.0000024,110,135,ESE,Unknown,20,10,52,1015,-999,6,10
8/5/2013 9:00,3.0000024,120,126,ESE,Unknown,20,9,49,1015,-999,6,9
8/5/2013 10:00,3.0000024,120,123,ESE,Unknown,22,10,46,1015,-999,7,10
8/5/2013 11:00,4.0000032,160,116,SSE,Unknown,22,10,46,1015,-999,7,10
8/5/2013 12:00,3.0000024,160,141,SSE,Light Rain,23,11,47,1014,-999,7,11
8/5/2013 13:00,4.0000032,140,163,SE,Haze,24,12,47,1014,-999,5,12
8/5/2013 14:00,5.000004,140,148,SE,Haze,22,13,57,1014,-999,4,13
8/5/2013 15:00,4.0000032,170,139,South,Haze,23,13,53,1013,-999,4,13
8/5/2013 16:00,3.0000024,200,88,SSW,Haze,23,14,57,1013,-999,5,14
8/5/2013 17:00,3.0000024,210,68,SSW,Unknown,23,13,53,1012,-999,7,13
8/5/2013 18:00,3.0000024,210,60,SSW,Unknown,22,13,57,1012,-999,8,13
8/5/2013 19:00,2.0000016,200,103,SSW,Unknown,22,12,53,1012,-999,8,12
8/5/2013 20:00,2.0000016,190,77,South,Unknown,21,12,56,1012,-999,8,12
8/5/2013 21:00,2.0000016,200,42,SSW,Light Rain Showers,22,12,53,1013,-999,8,12
8/5/2013 22:00,5.000004,230,35,SW,Clear,20,10,52,1013,-999,-9999,10
8/5/2013 23:00,4.0000032,240,42,WSW,Clear,20,10,52,1013,-999,-9999,10
9/5/2013 0:00,3.0000024,260,53,West,Clear,19,10,56,1012,-999,-9999,10
9/5/2013 1:00,2.0000016,220,54,SW,Clear,19,10,56,1012,-999,-9999,10
9/5/2013 2:00,2.0000016,190,48,South,Clear,18,11,64,1011,-999,-9999,11
9/5/2013 3:00,2.0000016,120,49,ESE,Clear,17,12,72,1011,-999,-9999,12
9/5/2013 4:00,2.0000016,140,55,SE,Clear,17,12,72,1011,-999,-9999,12
9/5/2013 5:00,2.0000016,150,56,SSE,Clear,17,12,72,1011,-999,-9999,12
9/5/2013 6:00,3.0000024,140,64,SE,Clear,17,12,72,1011,-999,-9999,12
9/5/2013 7:00,4.0000032,150,52,SSE,Clear,17,12,72,1011,-999,-9999,12
9/5/2013 8:00,4.0000032,150,17,SSE,Clear,17,11,68,1011,-999,-9999,11
9/5/2013 9:00,3.0000024,150,21,SSE,Clear,17,11,68,1012,-999,-9999,11
9/5/2013 10:00,3.0000024,150,24,SSE,Clear,17,12,72,1011,-999,-9999,12
9/5/2013 11:00,4.0000032,130,25,SE,Clear,18,12,68,1011,-999,-9999,12
9/5/2013 12:00,3.0000024,160,35,SSE,Clear,18,11,64,1010,-999,-9999,11
9/5/2013 13:00,2.0000016,150,28,SSE,Clear,18,12,68,1010,-999,-9999,12
9/5/2013 14:00,3.0000024,170,47,South,Clear,20,11,56,1009,-999,-9999,11
9/5/2013 15:00,3.0000024,140,53,SE,Clear,20,12,60,1008,-999,-9999,12
9/5/2013 16:00,3.0000024,170,60,South,Overcast,19,12,64,1008,-999,10,12
9/5/2013 17:00,2.0000016,160,60,SSE,Clear,19,12,64,1007,-999,-9999,12
9/5/2013 18:00,2.0000016,150,66,SSE,Clear,19,12,64,1007,-999,-9999,12
9/5/2013 19:00,1.0000008,0,64,Variable,Clear,18,12,68,1007,-999,-9999,12
9/5/2013 20:00,2.0000016,160,60,SSE,Clear,16,12,77,1008,-999,-9999,12
9/5/2013 21:00,2.0000016,130,64,SE,Clear,15,12,82,1008,-999,-9999,12
9/5/2013 22:00,2.0000016,160,65,SSE,Clear,15,12,82,1008,-999,-9999,12
9/5/2013 23:00,1.0000008,0,73,Variable,Clear,14,12,88,1008,-999,-9999,12
10/5/2013 0:00,3.0000024,170,76,South,Clear,13,11,88,1007,-999,-9999,11
10/5/2013 1:00,1.0000008,0,93,Variable,Clear,12,10,88,1006,-999,-9999,10
10/5/2013 2:00,1.0000008,0,97,Variable,Unknown,11,10,94,1005,-999,7,10
10/5/2013 3:00,1.0000008,180,108,South,Mist,11,10,94,1004,-999,4,10
10/5/2013 4:00,1.0000008,10,105,North,Mist,8,7,93,1003,-999,3,7
10/5/2013 5:00,1.0000008,0,108,Variable,Mist,9,9,100,1003,-999,3,9
10/5/2013 6:00,1.0000008,0,116,Variable,Mist,9,9,100,1003,-999,2,9
10/5/2013 7:00,1.0000008,0,98,Variable,Mist,12,11,94,1003,-999,1.2,11
10/5/2013 8:00,2.0000016,0,27,Variable,Mist,16,13,82,1003,-999,4,13
10/5/2013 9:00,7.0000056,280,9,West,Clear,23,1,23,1003,-999,-9999,1
10/5/2013 10:00,8.0000064,310,13,NW,Clear,25,-1,18,1002,-999,-9999,-1
10/5/2013 11:00,12.0000096,320,16,NW,Clear,27,-3,14,1002,-999,-9999,-3
10/5/2013 12:00,4.0000032,50,14,NE,Clear,27,3,21,1001,-999,-9999,3
10/5/2013 13:00,9.0000072,340,12,NNW,Clear,30,-2,12,1001,-999,-9999,-2
10/5/2013 14:00,6.0000048,290,9,WNW,Clear,30,-3,12,1000,-999,-9999,-3
10/5/2013 15:00,4.0000032,330,14,NNW,Clear,31,-2,12,999,-999,-9999,-2
10/5/2013 16:00,3.0000024,0,13,Variable,Clear,31,-5,9,998,-999,-9999,-5
10/5/2013 17:00,5.000004,320,16,NW,Clear,31,-9,7,998,-999,-9999,-9
10/5/2013 18:00,3.0000024,310,19,NW,Clear,30,-9,7,997,-999,-9999,-9
10/5/2013 19:00,2.0000016,50,38,NE,Clear,25,5,28,998,-999,-9999,5
10/5/2013 20:00,6.0000048,210,33,SSW,Clear,27,-3,14,999,-999,-9999,-3
10/5/2013 21:00,7.0000056,230,43,SW,Clear,26,-1,17,999,-999,-9999,-1
10/5/2013 22:00,6.0000048,230,46,SW,Clear,25,1,21,999,-999,-9999,1
10/5/2013 23:00,4.0000032,230,47,SW,Clear,24,2,24,999,-999,-9999,2
11/5/2013 0:00,2.0000016,160,60,SSE,Clear,19,5,40,999,-999,-9999,5
11/5/2013 1:00,2.0000016,100,52,East,Clear,15,7,59,998,-999,-9999,7
11/5/2013 2:00,1.0000008,0,54,Variable,Clear,14,8,67,997,-999,-9999,8
11/5/2013 3:00,1.0000008,0,70,Variable,Clear,13,8,72,997,-999,-9999,8
11/5/2013 4:00,1.0000008,0,89,Variable,Clear,12,7,72,996,-999,-9999,7
11/5/2013 5:00,1.0000008,0,115,Variable,Clear,11,6,71,996,-999,-9999,6
11/5/2013 6:00,2.0000016,50,111,NE,Clear,10,8,87,995,-999,-9999,8
11/5/2013 7:00,1.0000008,0,106,Variable,Clear,17,8,55,995,-999,-9999,8
11/5/2013 8:00,1.0000008,0,77,Variable,Clear,21,8,43,995,-999,-9999,8
11/5/2013 9:00,1.0000008,0,83,Variable,Clear,23,5,31,995,-999,-9999,5
11/5/2013 10:00,3.0000024,320,58,NW,Clear,27,3,21,995,-999,-9999,3
11/5/2013 11:00,5.000004,300,26,WNW,Clear,31,-3,11,994,-999,-9999,-3
11/5/2013 12:00,6.0000048,330,27,NNW,Clear,32,-6,8,994,-999,-9999,-6
11/5/2013 13:00,4.0000032,340,25,NNW,Clear,33,-5,8,993,-999,-9999,-5
11/5/2013 14:00,9.0000072,320,17,NW,Clear,34,-14,4,993,-999,-9999,-14
11/5/2013 15:00,7.0000056,280,25,West,Clear,34,-17,4,992,-999,-9999,-17
11/5/2013 16:00,8.0000064,330,22,NNW,Clear,34,-14,4,992,-999,-9999,-14
11/5/2013 17:00,5.000004,350,55,North,Clear,33,-9,6,993,-999,-9999,-9
11/5/2013 18:00,4.0000032,10,26,North,Clear,30,-7,9,993,-999,-9999,-7
11/5/2013 19:00,3.0000024,10,37,North,Clear,26,-8,10,994,-999,-9999,-8
11/5/2013 20:00,3.0000024,10,38,North,Clear,21,-7,15,995,-999,-9999,-7
11/5/2013 21:00,2.0000016,50,48,NE,Clear,21,-4,18,996,-999,-9999,-4
11/5/2013 22:00,1.0000008,70,31,ENE,Clear,21,-8,14,997,-999,-9999,-8
11/5/2013 23:00,2.0000016,20,25,NNE,Clear,16,0,34,997,-999,-9999,0
12/5/2013 0:00,3.0000024,10,32,North,Clear,18,-9,15,997,-999,-9999,-9
12/5/2013 1:00,1.0000008,0,67,Variable,Clear,17,-7,19,998,-999,-9999,-7
12/5/2013 2:00,1.0000008,0,119,Variable,Clear,14,3,48,998,-999,-9999,3
12/5/2013 3:00,1.0000008,350,122,North,Clear,11,0,47,998,-999,-9999,0
12/5/2013 4:00,2.0000016,40,52,NE,Clear,12,-1,41,998,-999,-9999,-1
12/5/2013 5:00,2.0000016,350,36,North,Clear,13,-4,31,999,-999,-9999,-4
12/5/2013 6:00,1.0000008,0,53,Variable,Clear,15,-4,27,999,-999,-9999,-4
12/5/2013 7:00,2.0000016,40,47,NE,Clear,19,-5,19,1000,-999,-9999,-5
12/5/2013 8:00,6.0000048,20,29,NNE,Clear,21,-9,13,1000,-999,-9999,-9
12/5/2013 9:00,5.000004,10,24,North,Mostly Cloudy,23,-6,14,1000,-999,10,-6
12/5/2013 10:00,4.0000032,40,22,NE,Clear,25,-6,12,1001,-999,-9999,-6
12/5/2013 11:00,2.0000016,0,10,Variable,Clear,26,-6,12,1001,-999,-9999,-6
12/5/2013 12:00,2.0000016,150,12,SSE,Clear,28,-9,8,1000,-999,-9999,-9
12/5/2013 13:00,3.0000024,160,23,SSE,Clear,29,-12,6,1000,-999,-9999,-12
12/5/2013 14:00,3.0000024,0,93,Variable,Clear,29,-8,8,999,-999,-9999,-8
12/5/2013 15:00,3.0000024,150,35,SSE,Clear,30,-8,8,999,-999,-9999,-8
12/5/2013 16:00,4.0000032,140,24,SE,Clear,28,-4,12,999,-999,-9999,-4
12/5/2013 17:00,2.0000016,140,35,SE,Clear,28,-5,11,999,-999,-9999,-5
12/5/2013 18:00,3.0000024,150,46,SSE,Clear,28,-4,12,999,-999,-9999,-4
12/5/2013 19:00,3.0000024,150,43,SSE,Clear,26,-4,14,999,-999,-9999,-4
12/5/2013 20:00,4.0000032,160,77,SSE,Clear,24,-3,17,1000,-999,-9999,-3
12/5/2013 21:00,3.0000024,150,79,SSE,Clear,22,-2,20,1002,-999,-9999,-2
12/5/2013 22:00,3.0000024,150,59,SSE,Clear,20,-2,23,1002,-999,-9999,-2
12/5/2013 23:00,1.0000008,140,35,SE,Clear,19,-1,26,1002,-999,-9999,-1
13/5/2013 0:00,1.0000008,20,87,NNE,Clear,16,2,39,1003,-999,-9999,2
13/5/2013 1:00,1.0000008,0,50,Variable,Clear,15,5,51,1003,-999,-9999,5
13/5/2013 2:00,1.0000008,0,53,Variable,Clear,17,6,48,1003,-999,-9999,6
13/5/2013 3:00,1.0000008,0,76,Variable,Clear,14,6,59,1002,-999,-9999,6
13/5/2013 4:00,2.0000016,10,91,North,Clear,13,6,63,1003,-999,-9999,6
13/5/2013 5:00,2.0000016,360,96,North,Clear,12,5,62,1002,-999,-9999,5
13/5/2013 6:00,2.0000016,10,96,North,Clear,15,6,55,1003,-999,-9999,6
13/5/2013 7:00,2.0000016,10,130,North,Clear,17,6,48,1004,-999,-9999,6
13/5/2013 8:00,2.0000016,360,83,North,Clear,20,4,35,1004,-999,-9999,4
13/5/2013 9:00,3.0000024,360,78,North,Clear,21,4,33,1004,-999,-9999,4
13/5/2013 10:00,1.0000008,0,69,Variable,Clear,23,4,29,1003,-999,-9999,4
13/5/2013 11:00,1.0000008,0,65,Variable,Clear,24,-1,19,1004,-999,-9999,-1
13/5/2013 12:00,2.0000016,70,68,ENE,Clear,25,1,21,1002,-999,-9999,1
13/5/2013 13:00,2.0000016,140,72,SE,Clear,26,4,24,1002,-999,-9999,4
13/5/2013 14:00,2.0000016,120,75,ESE,Clear,27,6,26,1000,-999,-9999,6
13/5/2013 15:00,6.0000048,170,90,South,Clear,27,5,24,1000,-999,-9999,5
13/5/2013 16:00,4.0000032,160,103,SSE,Clear,27,6,26,1000,-999,-9999,6
13/5/2013 17:00,3.0000024,160,115,SSE,Unknown,25,7,32,999,-999,8,7
13/5/2013 18:00,3.0000024,150,120,SSE,Unknown,24,8,36,999,-999,6,8
13/5/2013 19:00,3.0000024,150,128,SSE,Haze,23,9,41,1000,-999,5,9
13/5/2013 20:00,2.0000016,130,144,SE,Unknown,21,11,53,1000,-999,8,11
13/5/2013 21:00,1.0000008,0,179,Variable,Unknown,20,12,60,1002,-999,8,12
13/5/2013 22:00,1.0000008,90,176,East,Unknown,18,13,73,1002,-999,8,13
13/5/2013 23:00,1.0000008,110,264,ESE,Unknown,18,13,73,1003,-999,8,13
14/5/2013 0:00,1.0000008,50,195,NE,Unknown,17,13,77,1004,-999,8,13
14/5/2013 1:00,1.0000008,0,196,Variable,Unknown,16,13,82,1005,-999,8,13
14/5/2013 2:00,2.0000016,350,89,North,Unknown,15,12,82,1005,-999,7,12
14/5/2013 3:00,11.0000088,340,25,NNW,Clear,23,-6,14,1004,-999,-9999,-6
14/5/2013 4:00,0,,50,,,,,,,,,
14/5/2013 5:00,6.0000048,330,15,NNW,Clear,21,-5,17,1006,-999,-9999,-5
14/5/2013 6:00,7.0000056,330,28,NNW,Clear,21,-3,20,1006,-999,-9999,-3
14/5/2013 7:00,7.0000056,330,17,NNW,Clear,23,-3,18,1007,-999,-9999,-3
14/5/2013 8:00,7.0000056,330,47,NNW,Clear,24,-1,19,1008,-999,-9999,-1
14/5/2013 9:00,8.0000064,320,21,NW,Clear,24,-1,19,1008,-999,-9999,-1
14/5/2013 10:00,7.0000056,330,21,NNW,Clear,26,2,21,1009,-999,-9999,2
14/5/2013 11:00,3.0000024,360,93,North,Clear,27,-1,16,1009,-999,-9999,-1
14/5/2013 12:00,3.0000024,350,140,North,Clear,29,-2,13,1009,-999,-9999,-2
14/5/2013 13:00,2.0000016,0,75,Variable,Clear,29,-1,14,1008,-999,-9999,-1
14/5/2013 14:00,2.0000016,0,89,Variable,Clear,31,1,15,1007,-999,-9999,1
14/5/2013 15:00,2.0000016,0,23,Variable,Clear,31,-2,12,1007,-999,-9999,-2
14/5/2013 16:00,1.0000008,0,19,Variable,Clear,31,1,15,1007,-999,-9999,1
14/5/2013 17:00,1.0000008,0,38,Variable,Clear,30,1,15,1007,-999,-9999,1
14/5/2013 18:00,2.0000016,120,44,ESE,Clear,28,4,21,1007,-999,-9999,4
14/5/2013 19:00,2.0000016,170,37,South,Clear,25,2,22,1008,-999,-9999,2
14/5/2013 20:00,3.0000024,220,42,SW,Clear,27,-1,16,1009,-999,-9999,-1
14/5/2013 21:00,4.0000032,260,51,West,Clear,27,0,17,1010,-999,-9999,0
14/5/2013 22:00,2.0000016,50,86,NE,Clear,21,7,40,1011,-999,-9999,7
14/5/2013 23:00,2.0000016,60,67,ENE,Clear,20,7,43,1011,-999,-9999,7
15/5/2013 0:00,1.0000008,0,79,Variable,Clear,19,7,46,1012,-999,-9999,7
15/5/2013 1:00,1.0000008,30,55,NNE,Clear,19,4,37,1013,-999,-9999,4
15/5/2013 2:00,1.0000008,40,77,NE,Clear,16,7,55,1014,-999,-9999,7
15/5/2013 3:00,2.0000016,90,86,East,Clear,17,7,52,1014,-999,-9999,7
15/5/2013 4:00,1.0000008,0,105,Variable,Clear,15,8,63,1015,-999,-9999,8
15/5/2013 5:00,2.0000016,60,111,ENE,Clear,15,8,63,1016,-999,-9999,8
15/5/2013 6:00,1.0000008,0,126,Variable,Clear,16,8,59,1016,-999,-9999,8
15/5/2013 7:00,2.0000016,100,90,East,Clear,20,7,43,1017,-999,-9999,7
15/5/2013 8:00,3.0000024,120,60,ESE,Clear,21,5,35,1018,-999,-9999,5
15/5/2013 9:00,3.0000024,160,99,SSE,Clear,23,5,31,1018,-999,-9999,5
15/5/2013 10:00,2.0000016,200,67,SSW,Clear,25,6,29,1018,-999,-9999,6
15/5/2013 11:00,2.0000016,0,75,Variable,Clear,25,5,28,1018,-999,-9999,5
15/5/2013 12:00,2.0000016,0,76,Variable,Clear,26,4,24,1017,-999,-9999,4
15/5/2013 13:00,2.0000016,0,58,Variable,Clear,28,4,21,1016,-999,-9999,4
15/5/2013 14:00,3.0000024,160,48,SSE,Clear,28,5,23,1015,-999,-9999,5
15/5/2013 15:00,3.0000024,200,42,SSW,Clear,28,3,20,1015,-999,-9999,3
15/5/2013 16:00,5.000004,160,37,SSE,Clear,27,5,24,1014,-999,-9999,5
15/5/2013 17:00,4.0000032,160,39,SSE,Clear,27,6,26,1014,-999,-9999,6
15/5/2013 18:00,5.000004,170,76,South,Clear,25,7,32,1014,-999,-9999,7
15/5/2013 19:00,4.0000032,150,53,SSE,Clear,24,8,36,1015,-999,-9999,8
15/5/2013 20:00,3.0000024,140,44,SE,Clear,22,8,41,1015,-999,-9999,8
15/5/2013 21:00,2.0000016,150,38,SSE,Clear,21,8,43,1016,-999,-9999,8
15/5/2013 22:00,3.0000024,130,39,SE,Clear,20,8,46,1017,-999,-9999,8
15/5/2013 23:00,2.0000016,100,40,East,Clear,18,10,59,1018,-999,-9999,10
16/5/2013 0:00,3.0000024,110,47,ESE,Clear,17,9,59,1018,-999,-9999,9
16/5/2013 1:00,3.0000024,110,38,ESE,Clear,17,9,59,1018,-999,-9999,9
16/5/2013 2:00,2.0000016,90,53,East,Clear,16,9,63,1018,-999,-9999,9
16/5/2013 3:00,1.0000008,0,53,Variable,Clear,15,9,67,1018,-999,-9999,9
16/5/2013 4:00,1.0000008,0,49,Variable,Clear,13,8,72,1018,-999,-9999,8
16/5/2013 5:00,0,0,62,North,Clear,13,9,77,1018,-999,-9999,9
16/5/2013 6:00,0,0,59,North,Clear,14,10,77,1019,-999,-9999,10
16/5/2013 7:00,1.0000008,0,68,Variable,Clear,18,10,59,1019,-999,-9999,10
16/5/2013 8:00,1.0000008,0,70,Variable,Clear,20,10,52,1019,-999,-9999,10
16/5/2013 9:00,1.0000008,0,56,Variable,Clear,22,10,46,1019,-999,-9999,10
16/5/2013 10:00,2.0000016,0,37,Variable,Clear,23,9,41,1019,-999,-9999,9
16/5/2013 11:00,2.0000016,0,63,Variable,Clear,24,8,36,1018,-999,-9999,8
16/5/2013 12:00,2.0000016,140,51,SE,Clear,26,9,34,1017,-999,-9999,9
16/5/2013 13:00,3.0000024,130,124,SE,Clear,26,8,32,1016,-999,-9999,8
16/5/2013 14:00,3.0000024,150,79,SSE,Clear,26,8,32,1016,-999,-9999,8
16/5/2013 15:00,5.000004,180,101,South,Clear,26,8,32,1015,-999,-9999,8
16/5/2013 16:00,4.0000032,170,85,South,Clear,26,9,34,1014,-999,-9999,9
16/5/2013 17:00,4.0000032,140,108,SE,Clear,25,9,36,1014,-999,-9999,9
16/5/2013 18:00,3.0000024,150,65,SSE,Clear,25,8,34,1013,-999,-9999,8
16/5/2013 19:00,3.0000024,150,74,SSE,Clear,24,8,36,1013,-999,-9999,8
16/5/2013 20:00,4.0000032,150,80,SSE,Clear,22,12,53,1014,-999,-9999,12
16/5/2013 21:00,3.0000024,150,79,SSE,Clear,21,11,53,1015,-999,-9999,11
16/5/2013 22:00,3.0000024,150,83,SSE,Clear,20,11,56,1015,-999,-9999,11
16/5/2013 23:00,4.0000032,130,66,SE,Clear,19,11,60,1015,-999,-9999,11
17/5/2013 0:00,3.0000024,130,71,SE,Clear,19,11,60,1015,-999,-9999,11
17/5/2013 1:00,2.0000016,130,79,SE,Unknown,18,12,68,1015,-999,8,12
17/5/2013 2:00,1.0000008,0,97,Variable,Unknown,18,11,64,1014,-999,7,11
17/5/2013 3:00,2.0000016,130,98,SE,Unknown,17,11,68,1014,-999,7,11
17/5/2013 4:00,2.0000016,120,107,ESE,Unknown,17,11,68,1013,-999,7,11
17/5/2013 5:00,1.0000008,0,114,Variable,Unknown,16,11,72,1013,-999,6,11
17/5/2013 6:00,1.0000008,0,119,Variable,Unknown,17,11,68,1013,-999,6,11
17/5/2013 7:00,2.0000016,140,112,SE,Haze,17,11,68,1013,-999,5,11
17/5/2013 8:00,3.0000024,140,121,SE,Haze,18,12,68,1013,-999,5,12
17/5/2013 9:00,2.0000016,150,126,SSE,Haze,19,12,64,1013,-999,4,12
17/5/2013 10:00,2.0000016,160,132,SSE,Haze,19,11,60,1013,-999,4.5,11
17/5/2013 11:00,2.0000016,100,124,East,Haze,20,12,60,1013,-999,4,12
17/5/2013 12:00,1.0000008,0,117,Variable,Haze,22,12,53,1012,-999,4,12
17/5/2013 13:00,2.0000016,100,119,East,Haze,22,13,57,1012,-999,4,13
17/5/2013 14:00,2.0000016,100,96,East,Haze,24,12,47,1010,-999,4,12
17/5/2013 15:00,4.0000032,160,,SSE,Haze,25,13,47,1010,-999,5,13
17/5/2013 16:00,3.0000024,140,,SE,Unknown,24,13,50,1009,-999,6,13
17/5/2013 17:00,4.0000032,180,,South,Unknown,25,12,44,1009,-999,7,12
17/5/2013 18:00,4.0000032,170,,South,Unknown,24,12,47,1009,-999,7,12
17/5/2013 19:00,3.0000024,170,,South,Unknown,23,13,53,1009,-999,7,13
17/5/2013 20:00,3.0000024,140,,SE,Unknown,22,15,64,1009,-999,6,15
17/5/2013 21:00,2.0000016,120,,ESE,Haze,21,14,64,1010,-999,5,14
17/5/2013 22:00,3.0000024,120,,ESE,Haze,20,15,73,1010,-999,5,15
17/5/2013 23:00,2.0000016,110,,ESE,Haze,20,14,68,1009,-999,5,14
18/5/2013 0:00,3.0000024,120,,ESE,Haze,19,15,78,1009,-999,5,15
18/5/2013 1:00,3.0000024,130,,SE,Haze,19,14,73,1009,-999,5,14
18/5/2013 2:00,2.0000016,120,,ESE,Haze,18,14,77,1009,-999,5,14
18/5/2013 3:00,2.0000016,80,,East,Mist,18,14,77,1008,-999,5,14
18/5/2013 4:00,1.0000008,0,,Variable,Mist,17,13,77,1008,-999,5,13
18/5/2013 5:00,2.0000016,100,,East,Mist,17,13,77,1008,-999,4,13
18/5/2013 6:00,1.0000008,0,,Variable,Mist,17,13,77,1008,-999,-9999,13
18/5/2013 7:00,3.0000024,150,150,SSE,Mist,19,14,73,1008,-999,2.2,14
18/5/2013 8:00,4.0000032,180,154,South,Mist,20,15,73,1008,-999,2.5,15
18/5/2013 9:00,4.0000032,210,162,SSW,Mist,21,15,68,1008,-999,2.8,15
18/5/2013 10:00,5.000004,200,150,SSW,Haze,22,15,64,1008,-999,3,15
18/5/2013 11:00,5.000004,200,104,SSW,Haze,23,15,61,1007,-999,3,15
18/5/2013 12:00,6.0000048,200,90,SSW,Haze,24,14,53,1006,-999,5,14
18/5/2013 13:00,6.0000048,210,73,SSW,Scattered Clouds,23,13,53,1006,-999,6,13
18/5/2013 14:00,5.000004,190,83,South,Scattered Clouds,24,13,50,1005,-999,7,13
18/5/2013 15:00,6.0000048,190,87,South,Partly Cloudy,24,13,50,1004,-999,7,13
18/5/2013 16:00,5.000004,180,86,South,Unknown,24,13,50,1004,-999,7,13
18/5/2013 17:00,5.000004,170,72,South,Unknown,23,13,53,1003,-999,7,13
18/5/2013 18:00,4.0000032,160,68,SSE,Unknown,23,13,53,1003,-999,9,13
18/5/2013 19:00,6.0000048,140,54,SE,Clear,22,13,57,1003,-999,-9999,13
18/5/2013 20:00,5.000004,150,32,SSE,Clear,21,13,60,1004,-999,-9999,13
18/5/2013 21:00,5.000004,140,29,SE,Clear,20,14,68,1004,-999,-9999,14
18/5/2013 22:00,5.000004,140,29,SE,Clear,19,13,68,1004,-999,-9999,13
18/5/2013 23:00,4.0000032,0,37,Variable,Clear,18,13,73,1005,-999,-9999,13
19/5/2013 0:00,2.0000016,100,46,East,Clear,18,13,73,1005,-999,-9999,13
19/5/2013 1:00,3.0000024,120,56,ESE,Clear,17,13,77,1004,-999,-9999,13
19/5/2013 2:00,4.0000032,110,58,ESE,Clear,17,12,72,1002,-999,-9999,12
19/5/2013 3:00,3.0000024,150,61,SSE,Partly Cloudy,17,12,72,1002,-999,10,12
19/5/2013 4:00,3.0000024,140,66,SE,Partly Cloudy,16,13,82,1002,-999,10,13
19/5/2013 5:00,4.0000032,120,67,ESE,Unknown,16,13,82,1001,-999,7,13
19/5/2013 6:00,4.0000032,130,70,SE,Unknown,16,13,82,1000,-999,6,13
19/5/2013 7:00,4.0000032,130,73,SE,Mist,16,14,88,1000,-999,4.5,14
19/5/2013 8:00,3.0000024,130,73,SE,Scattered Clouds,17,14,82,999,-999,4,14
19/5/2013 9:00,3.0000024,130,101,SE,Partly Cloudy,18,14,77,998,-999,4,14
19/5/2013 10:00,2.0000016,80,102,East,Scattered Clouds,18,14,77,997,-999,4,14
19/5/2013 11:00,5.000004,10,101,North,Partly Cloudy,17,13,77,999,-999,4.5,13
19/5/2013 12:00,2.0000016,0,79,Variable,Mist,22,14,60,998,-999,4,14
19/5/2013 13:00,6.0000048,330,49,NNW,Clear,26,4,24,998,-999,-9999,4
19/5/2013 14:00,12.0000096,320,36,NW,Clear,28,-18,4,998,-999,-9999,-18
19/5/2013 15:00,11.0000088,300,44,WNW,Clear,27,-16,5,998,-999,-9999,-16
19/5/2013 16:00,13.0000104,300,29,WNW,Clear,27,-16,5,998,-999,-9999,-16
19/5/2013 17:00,14.0000112,310,22,NW,Clear,26,-16,5,998,-999,-9999,-16
19/5/2013 18:00,11.0000088,320,57,NW,Clear,25,-13,7,999,-999,-9999,-13
19/5/2013 19:00,11.0000088,340,34,NNW,Clear,23,-10,10,1000,-999,-9999,-10
19/5/2013 20:00,10.000008,350,22,North,Clear,22,-9,12,1002,-999,-9999,-9
19/5/2013 21:00,7.0000056,360,22,North,Clear,20,-8,15,1003,-999,-9999,-8
19/5/2013 22:00,10.000008,350,13,North,Clear,20,-9,13,1004,-999,-9999,-9
19/5/2013 23:00,4.0000032,50,27,NE,Clear,18,-7,18,1004,-999,-9999,-7
20/5/2013 0:00,1.0000008,0,25,Variable,Clear,16,-4,25,1004,-999,-9999,-4
20/5/2013 1:00,1.0000008,200,16,SSW,Clear,13,-1,38,1003,-999,-9999,-1
20/5/2013 2:00,1.0000008,0,21,Variable,Clear,12,0,44,1003,-999,-9999,0
20/5/2013 3:00,2.0000016,160,22,SSE,Clear,13,-2,36,1003,-999,-9999,-2
20/5/2013 4:00,1.0000008,0,20,Variable,Clear,10,0,50,1003,-999,-9999,0
20/5/2013 5:00,2.0000016,170,23,South,Clear,10,1,54,1003,-999,-9999,1
20/5/2013 6:00,3.0000024,240,29,WSW,Clear,17,-4,24,1003,-999,-9999,-4
20/5/2013 7:00,4.0000032,280,57,West,Clear,20,-5,18,1004,-999,-9999,-5
20/5/2013 8:00,4.0000032,240,27,WSW,Clear,22,-6,15,1004,-999,-9999,-6
20/5/2013 9:00,5.000004,220,40,SW,Clear,24,-7,12,1003,-999,-9999,-7
20/5/2013 10:00,6.0000048,200,34,SSW,Clear,25,-7,12,1003,-999,-9999,-7
20/5/2013 11:00,5.000004,210,27,SSW,Clear,26,-8,10,1002,-999,-9999,-8
20/5/2013 12:00,6.0000048,190,62,South,Clear,27,-8,10,1001,-999,-9999,-8
20/5/2013 13:00,5.000004,230,74,SW,Clear,28,-7,10,1000,-999,-9999,-7
20/5/2013 14:00,7.0000056,210,57,SSW,Clear,29,-4,11,999,-999,-9999,-4
20/5/2013 15:00,8.0000064,190,41,South,Clear,29,-4,11,998,-999,-9999,-4
20/5/2013 16:00,8.0000064,200,42,SSW,Clear,29,-4,11,998,-999,-9999,-4
20/5/2013 17:00,8.0000064,190,41,South,Clear,27,-3,14,997,-999,-9999,-3
20/5/2013 18:00,5.000004,180,43,South,Clear,26,-1,17,997,-999,-9999,-1
20/5/2013 19:00,7.0000056,220,118,SW,Clear,26,-2,16,997,-999,-9999,-2
20/5/2013 20:00,4.0000032,190,107,South,Clear,24,0,21,997,-999,-9999,0
20/5/2013 21:00,4.0000032,180,86,South,Clear,23,2,25,997,-999,-9999,2
20/5/2013 22:00,2.0000016,130,79,SE,Clear,21,4,33,997,-999,-9999,4
20/5/2013 23:00,3.0000024,140,76,SE,Clear,21,4,33,997,-999,-9999,4
21/5/2013 0:00,3.0000024,120,75,ESE,Clear,19,5,40,997,-999,-9999,5
21/5/2013 1:00,4.0000032,130,80,SE,Clear,20,5,37,996,-999,-9999,5
21/5/2013 2:00,2.0000016,100,87,East,Clear,19,6,43,996,-999,-9999,6
21/5/2013 3:00,3.0000024,100,71,East,Clear,18,6,45,996,-999,-9999,6
21/5/2013 4:00,3.0000024,100,72,East,Clear,18,6,45,996,-999,-9999,6
21/5/2013 5:00,1.0000008,0,85,Variable,Clear,17,7,52,996,-999,-9999,7
21/5/2013 6:00,1.0000008,30,92,NNE,Clear,15,8,63,997,-999,-9999,8
21/5/2013 7:00,2.0000016,40,99,NE,Clear,19,9,52,997,-999,-9999,9
21/5/2013 8:00,2.0000016,80,101,East,Clear,21,10,49,998,-999,-9999,10
21/5/2013 9:00,2.0000016,90,99,East,Clear,23,11,47,998,-999,-9999,11
21/5/2013 10:00,4.0000032,30,101,NNE,Clear,25,9,36,998,-999,-9999,9
21/5/2013 11:00,2.0000016,90,105,East,Clear,26,7,30,998,-999,-9999,7
21/5/2013 12:00,2.0000016,130,101,SE,Clear,26,9,34,998,-999,-9999,9
21/5/2013 13:00,3.0000024,130,104,SE,Clear,27,11,37,998,-999,-9999,11
21/5/2013 14:00,4.0000032,110,105,ESE,Unknown,28,12,37,998,-999,8,12
21/5/2013 15:00,3.0000024,100,106,East,Unknown,28,12,37,998,-999,8,12
21/5/2013 16:00,1.0000008,0,118,Variable,Unknown,28,12,37,999,-999,8,12
21/5/2013 17:00,2.0000016,120,109,ESE,Unknown,29,11,33,999,-999,8,11
21/5/2013 18:00,2.0000016,120,124,ESE,Unknown,27,13,42,1000,-999,7,13
21/5/2013 19:00,1.0000008,120,144,ESE,Unknown,25,13,47,1001,-999,6,13
21/5/2013 20:00,2.0000016,110,153,ESE,Unknown,23,14,57,1002,-999,8,14
21/5/2013 21:00,4.0000032,140,129,SE,Unknown,24,12,47,1004,-999,8,12
21/5/2013 22:00,3.0000024,120,112,ESE,Clear,23,9,41,1005,-999,-9999,9
21/5/2013 23:00,2.0000016,170,65,South,Clear,21,5,35,1006,-999,-9999,5
22/5/2013 0:00,1.0000008,0,61,Variable,Clear,20,8,46,1007,-999,-9999,8
22/5/2013 1:00,1.0000008,0,53,Variable,Clear,19,10,56,1007,-999,-9999,10
22/5/2013 2:00,1.0000008,0,61,Variable,Clear,18,10,59,1007,-999,-9999,10
22/5/2013 3:00,1.0000008,0,62,Variable,Clear,17,11,68,1007,-999,-9999,11
22/5/2013 4:00,1.0000008,0,69,Variable,Clear,17,10,63,1008,-999,-9999,10
22/5/2013 5:00,0,0,77,North,Clear,16,10,68,1009,-999,-9999,10
22/5/2013 6:00,1.0000008,50,85,NE,Unknown,18,11,64,1010,-999,8,11
22/5/2013 7:00,0,0,89,North,Unknown,19,11,60,1010,-999,8,11
22/5/2013 8:00,1.0000008,0,98,Variable,Unknown,23,10,44,1010,-999,8,10
22/5/2013 9:00,2.0000016,140,98,SE,Unknown,25,8,34,1011,-999,8,8
22/5/2013 10:00,2.0000016,120,79,ESE,Unknown,26,7,30,1011,-999,9,7
22/5/2013 11:00,4.0000032,120,86,ESE,Clear,27,8,30,1011,-999,-9999,8
22/5/2013 12:00,4.0000032,140,83,SE,Clear,28,8,28,1011,-999,-9999,8
22/5/2013 13:00,6.0000048,150,79,SSE,Clear,28,3,20,1011,-999,-9999,3
22/5/2013 14:00,5.000004,150,65,SSE,Clear,29,5,22,1010,-999,-9999,5
22/5/2013 15:00,5.000004,140,57,SE,Clear,28,7,26,1010,-999,-9999,7
22/5/2013 16:00,4.0000032,140,48,SE,Clear,27,6,26,1010,-999,-9999,6
22/5/2013 17:00,4.0000032,140,40,SE,Clear,27,5,24,1009,-999,-9999,5
22/5/2013 18:00,5.000004,180,39,South,Clear,26,6,28,1010,-999,-9999,6
22/5/2013 19:00,4.0000032,180,29,South,Clear,25,5,28,1010,-999,-9999,5
22/5/2013 20:00,4.0000032,210,36,SSW,Clear,25,3,24,1012,-999,-9999,3
22/5/2013 21:00,2.0000016,180,35,South,Clear,22,3,29,1012,-999,-9999,3
22/5/2013 22:00,2.0000016,130,38,SE,Clear,21,4,33,1012,-999,-9999,4
22/5/2013 23:00,1.0000008,100,38,East,Clear,19,7,46,1012,-999,-9999,7
23/5/2013 0:00,1.0000008,100,29,East,Clear,18,9,56,1012,-999,-9999,9
23/5/2013 1:00,1.0000008,70,54,ENE,Clear,17,9,59,1012,-999,-9999,9
23/5/2013 2:00,1.0000008,30,59,NNE,Clear,16,10,68,1012,-999,-9999,10
23/5/2013 3:00,1.0000008,350,70,North,Clear,16,9,63,1011,-999,-9999,9
23/5/2013 4:00,2.0000016,10,93,North,Clear,16,10,68,1011,-999,-9999,10
23/5/2013 5:00,1.0000008,0,94,Variable,Clear,17,7,52,1011,-999,-9999,7
23/5/2013 6:00,2.0000016,340,50,NNW,Clear,18,7,49,1012,-999,-9999,7
23/5/2013 7:00,2.0000016,320,51,NW,Clear,20,7,43,1012,-999,-9999,7
23/5/2013 8:00,2.0000016,20,55,NNE,Clear,20,10,52,1012,-999,-9999,10
23/5/2013 9:00,1.0000008,0,45,Variable,Clear,23,10,44,1012,-999,-9999,10
23/5/2013 10:00,1.0000008,0,61,Variable,Clear,24,7,34,1012,-999,-9999,7
23/5/2013 11:00,2.0000016,110,71,ESE,Clear,25,6,29,1011,-999,-9999,6
23/5/2013 12:00,2.0000016,0,77,Variable,Clear,26,5,26,1010,-999,-9999,5
23/5/2013 13:00,2.0000016,110,81,ESE,Clear,27,6,26,1010,-999,-9999,6
23/5/2013 14:00,3.0000024,130,104,SE,Clear,27,10,34,1009,-999,-9999,10
23/5/2013 15:00,4.0000032,160,123,SSE,Unknown,28,11,35,1008,-999,8,11
23/5/2013 16:00,3.0000024,130,149,SE,Unknown,28,12,37,1007,-999,8,12
23/5/2013 17:00,3.0000024,140,97,SE,Unknown,28,12,37,1007,-999,7,12
23/5/2013 18:00,2.0000016,130,89,SE,Unknown,27,15,48,1006,-999,6,15
23/5/2013 19:00,3.0000024,170,91,South,Clear,27,11,37,1007,-999,-9999,11
23/5/2013 20:00,2.0000016,160,103,SSE,Clear,25,12,44,1007,-999,-9999,12
23/5/2013 21:00,2.0000016,70,132,ENE,Clear,23,15,61,1009,-999,-9999,15
23/5/2013 22:00,1.0000008,0,148,Variable,Unknown,22,16,69,1009,-999,6,16
23/5/2013 23:00,1.0000008,30,164,NNE,Mist,21,17,78,1009,-999,4,17
24/5/2013 0:00,1.0000008,0,205,Variable,Mist,21,17,78,1009,-999,4,17
24/5/2013 1:00,1.0000008,70,215,ENE,Mist,21,18,83,1009,-999,3.5,18
24/5/2013 2:00,1.0000008,20,233,NNE,Mist,20,18,88,1010,-999,3.5,18
24/5/2013 3:00,2.0000016,60,249,ENE,Mist,19,17,88,1009,-999,3,17
24/5/2013 4:00,2.0000016,60,233,ENE,Mist,19,17,88,1009,-999,2.5,17
24/5/2013 5:00,1.0000008,0,231,Variable,Mist,19,17,88,1010,-999,2.3,17
24/5/2013 6:00,3.0000024,360,201,North,Mist,19,16,83,1010,-999,3.5,16
24/5/2013 7:00,3.0000024,360,173,North,Haze,22,16,69,1011,-999,4,16
24/5/2013 8:00,3.0000024,40,131,NE,Haze,24,15,57,1012,-999,5,15
24/5/2013 9:00,3.0000024,30,90,NNE,Unknown,27,12,39,1012,-999,8,12
24/5/2013 10:00,5.000004,30,59,NNE,Clear,28,10,32,1012,-999,-9999,10
24/5/2013 11:00,6.0000048,20,39,NNE,Clear,30,8,25,1012,-999,-9999,8
24/5/2013 12:00,4.0000032,40,43,NE,Clear,30,9,27,1012,-999,-9999,9
24/5/2013 13:00,2.0000016,70,58,ENE,Clear,30,11,31,1012,-999,-9999,11
24/5/2013 14:00,3.0000024,40,89,NE,Clear,29,11,33,1012,-999,-9999,11
24/5/2013 15:00,4.0000032,90,146,East,Partly Cloudy,24,16,61,1012,-999,10,16
24/5/2013 16:00,3.0000024,100,76,East,Partly Cloudy,23,15,61,1013,-999,10,15
24/5/2013 17:00,2.0000016,100,56,East,Clear,22,16,69,1012,-999,-9999,16
24/5/2013 18:00,1.0000008,0,54,Variable,Clear,23,15,61,1012,-999,-9999,15
24/5/2013 19:00,1.0000008,0,47,Variable,Clear,22,15,64,1011,-999,-9999,15
24/5/2013 20:00,4.0000032,320,46,NW,Clear,23,12,50,1012,-999,-9999,12
24/5/2013 21:00,2.0000016,40,29,NE,Clear,22,13,57,1013,-999,-9999,13
24/5/2013 22:00,1.0000008,0,35,Variable,Clear,21,13,60,1013,-999,-9999,13
24/5/2013 23:00,1.0000008,0,35,Variable,Clear,20,13,64,1013,-999,-9999,13
25/5/2013 0:00,1.0000008,130,37,SE,Clear,20,15,73,1013,-999,-9999,15
25/5/2013 1:00,1.0000008,60,42,ENE,Clear,20,14,68,1013,-999,-9999,14
25/5/2013 2:00,1.0000008,0,55,Variable,Clear,19,14,73,1012,-999,-9999,14
25/5/2013 3:00,1.0000008,50,69,NE,Clear,19,15,78,1012,-999,-9999,15
25/5/2013 4:00,1.0000008,60,74,ENE,Clear,18,14,77,1012,-999,-9999,14
25/5/2013 5:00,1.0000008,0,59,Variable,Clear,16,14,88,1012,-999,-9999,14
25/5/2013 6:00,1.0000008,340,44,NNW,Clear,17,14,82,1012,-999,-9999,14
25/5/2013 7:00,3.0000024,350,32,North,Clear,21,13,60,1012,-999,-9999,13
25/5/2013 8:00,3.0000024,10,34,North,Clear,23,12,50,1012,-999,-9999,12
25/5/2013 9:00,1.0000008,0,43,Variable,Clear,24,12,47,1012,-999,-9999,12
25/5/2013 10:00,1.0000008,0,53,Variable,Clear,27,9,32,1012,-999,-9999,9
25/5/2013 11:00,2.0000016,160,65,SSE,Clear,28,9,30,1011,-999,-9999,9
25/5/2013 12:00,2.0000016,0,77,Variable,Clear,29,10,30,1011,-999,-9999,10
25/5/2013 13:00,3.0000024,180,82,South,Clear,30,10,29,1010,-999,-9999,10
25/5/2013 14:00,4.0000032,170,76,South,Unknown,30,10,29,1009,-999,8,10
25/5/2013 15:00,4.0000032,160,83,SSE,Unknown,30,10,29,1008,-999,9,10
25/5/2013 16:00,3.0000024,150,86,SSE,Unknown,30,11,31,1008,-999,8,11
25/5/2013 17:00,5.000004,170,77,South,Clear,29,11,33,1007,-999,-9999,11
25/5/2013 18:00,4.0000032,140,72,SE,Clear,28,11,35,1007,-999,-9999,11
25/5/2013 19:00,2.0000016,130,76,SE,Clear,26,13,44,1008,-999,-9999,13
25/5/2013 20:00,3.0000024,140,77,SE,Clear,25,13,47,1008,-999,-9999,13
25/5/2013 21:00,4.0000032,140,66,SE,Clear,24,17,65,1009,-999,-9999,17
25/5/2013 22:00,3.0000024,150,67,SSE,Clear,23,18,73,1009,-999,-9999,18
25/5/2013 23:00,3.0000024,130,86,SE,Clear,22,17,73,1009,-999,-9999,17
26/5/2013 0:00,2.0000016,110,103,ESE,Clear,21,18,83,1009,-999,-9999,18
26/5/2013 1:00,1.0000008,0,108,Variable,Clear,21,17,78,1009,-999,-9999,17
26/5/2013 2:00,1.0000008,0,120,Variable,Clear,19,17,88,1009,-999,-9999,17
26/5/2013 3:00,1.0000008,0,118,Variable,Unknown,20,17,83,1008,-999,8,17
26/5/2013 4:00,1.0000008,0,120,Variable,Unknown,20,17,83,1008,-999,7,17
26/5/2013 5:00,1.0000008,0,129,Variable,Mist,20,17,83,1008,-999,5,17
26/5/2013 6:00,2.0000016,50,115,NE,Mist,21,18,83,1008,-999,4,18
26/5/2013 7:00,1.0000008,0,109,Variable,Mist,22,18,78,1008,-999,4,18
26/5/2013 8:00,2.0000016,80,101,East,Mist,23,18,73,1008,-999,4.5,18
26/5/2013 9:00,2.0000016,110,114,ESE,Mist,23,17,69,1008,-999,5,17
26/5/2013 10:00,2.0000016,90,108,East,Mist,23,18,73,1008,-999,4,18
26/5/2013 11:00,2.0000016,0,117,Variable,Mist,23,17,69,1008,-999,3.5,17
26/5/2013 12:00,2.0000016,120,133,ESE,Haze,23,16,65,1008,-999,4.5,16
26/5/2013 13:00,3.0000024,120,140,ESE,Light Rain,22,17,73,1007,-999,-9999,17
26/5/2013 14:00,3.0000024,160,143,SSE,Light Rain,23,17,69,1007,-999,3.5,17
26/5/2013 15:00,4.0000032,140,131,SE,Haze,23,16,65,1007,-999,4,16
26/5/2013 16:00,4.0000032,140,124,SE,Haze,23,16,65,1007,-999,4,16
26/5/2013 17:00,4.0000032,160,80,SSE,Haze,21,16,73,1008,-999,-9999,16
26/5/2013 18:00,5.000004,110,76,ESE,Overcast,20,17,83,1008,-999,5,17
26/5/2013 19:00,4.0000032,130,73,SE,Light Rain,18,17,94,1009,-999,3.5,17
26/5/2013 20:00,5.000004,130,67,SE,Overcast,19,16,83,1009,-999,6,16
26/5/2013 21:00,3.0000024,120,57,ESE,Light Rain,17,16,94,1011,-999,3.5,16
26/5/2013 22:00,4.0000032,120,50,ESE,Light Rain,17,16,94,1011,-999,4,16
26/5/2013 23:00,3.0000024,100,47,East,Light Rain,17,16,94,1011,-999,5,16
27/5/2013 0:00,2.0000016,100,56,East,Overcast,17,15,88,1011,-999,6,15
27/5/2013 1:00,2.0000016,70,60,ENE,Overcast,17,15,88,1010,-999,6,15
27/5/2013 2:00,1.0000008,360,66,North,Overcast,17,15,88,1010,-999,6,15
27/5/2013 3:00,1.0000008,0,68,Variable,Light Rain,17,15,88,1008,-999,5,15
27/5/2013 4:00,3.0000024,10,67,North,Overcast,16,15,94,1009,-999,5,15
27/5/2013 5:00,1.0000008,360,64,North,Overcast,17,15,88,1009,-999,6,15
27/5/2013 6:00,0,0,55,North,Partly Cloudy,17,16,94,1008,-999,6,16
27/5/2013 7:00,2.0000016,360,63,North,Light Rain,17,16,94,1009,-999,6,16
27/5/2013 8:00,2.0000016,360,60,North,Light Rain,17,16,94,1010,-999,5,16
27/5/2013 9:00,1.0000008,0,65,Variable,Partly Cloudy,18,16,88,1009,-999,6,16
27/5/2013 10:00,2.0000016,60,66,ENE,Overcast,19,15,78,1009,-999,7,15
27/5/2013 11:00,2.0000016,90,72,East,Overcast,21,16,73,1009,-999,7,16
27/5/2013 12:00,2.0000016,0,71,Variable,Scattered Clouds,22,16,69,1008,-999,8,16
27/5/2013 13:00,1.0000008,0,75,Variable,Partly Cloudy,22,16,69,1007,-999,10,16
27/5/2013 14:00,2.0000016,150,80,SSE,Mostly Cloudy,23,16,65,1006,-999,10,16
27/5/2013 15:00,2.0000016,0,86,Variable,Mostly Cloudy,23,15,61,1005,-999,10,15
27/5/2013 16:00,2.0000016,0,86,Variable,Clear,24,15,57,1005,-999,-9999,15
27/5/2013 17:00,2.0000016,280,91,West,Clear,23,15,61,1005,-999,-9999,15
27/5/2013 18:00,1.0000008,0,100,Variable,Unknown,22,15,64,1005,-999,7,15
27/5/2013 19:00,3.0000024,340,100,NNW,Unknown,22,16,69,1005,-999,6,16
27/5/2013 20:00,3.0000024,300,111,WNW,Unknown,22,15,64,1006,-999,6,15
27/5/2013 21:00,2.0000016,130,89,SE,Unknown,21,16,73,1006,-999,6,16
27/5/2013 22:00,4.0000032,160,94,SSE,Mist,20,17,83,1006,-999,5,17
27/5/2013 23:00,3.0000024,190,92,South,Mist,20,17,83,1005,-999,5,17
28/5/2013 0:00,3.0000024,180,94,South,Mist,19,16,83,1005,-999,5,16
28/5/2013 1:00,2.0000016,180,89,South,Mist,19,16,83,1004,-999,5,16
28/5/2013 2:00,3.0000024,200,92,SSW,Mist,19,17,88,1004,-999,4,17
28/5/2013 3:00,3.0000024,180,100,South,Mist,19,17,88,1004,-999,4,17
28/5/2013 4:00,2.0000016,190,95,South,Mist,18,16,88,1004,-999,4,16
28/5/2013 5:00,1.0000008,0,101,Variable,Mist,18,16,88,1004,-999,3.5,16
28/5/2013 6:00,1.0000008,0,99,Variable,Light Rain,18,17,94,1004,-999,3.5,17
28/5/2013 7:00,2.0000016,270,117,West,Light Rain,19,17,88,1005,-999,2.3,17
28/5/2013 8:00,2.0000016,0,122,Variable,Overcast,19,17,88,1005,-999,2.5,17
28/5/2013 9:00,3.0000024,270,120,West,Light Rain,19,17,88,1006,-999,2,17
28/5/2013 10:00,4.0000032,310,65,NW,Light Rain,20,17,83,1006,-999,2.3,17
28/5/2013 11:00,3.0000024,330,59,NNW,Light Rain,20,17,83,1006,-999,-9999,17
28/5/2013 12:00,2.0000016,10,,North,Partly Cloudy,22,16,69,1005,-999,6,16
28/5/2013 13:00,2.0000016,340,59,NNW,Unknown,22,15,64,1005,-999,8,15
28/5/2013 14:00,2.0000016,300,64,WNW,Unknown,22,16,69,1005,-999,8,16
28/5/2013 15:00,4.0000032,240,61,WSW,Unknown,23,15,61,1005,-999,9,15
28/5/2013 16:00,5.000004,220,55,SW,Clear,23,15,61,1005,-999,-9999,15
28/5/2013 17:00,5.000004,210,44,SSW,Clear,24,16,61,1004,-999,-9999,16
28/5/2013 18:00,4.0000032,220,48,SW,Clear,24,15,57,1004,-999,-9999,15
28/5/2013 19:00,3.0000024,210,64,SSW,Clear,23,15,61,1004,-999,-9999,15
28/5/2013 20:00,2.0000016,190,88,South,Clear,21,15,68,1005,-999,-9999,15
28/5/2013 21:00,3.0000024,250,102,WSW,Clear,21,16,73,1006,-999,-9999,16
28/5/2013 22:00,5.000004,300,113,WNW,Unknown,21,16,73,1007,-999,8,16
28/5/2013 23:00,6.0000048,340,67,NNW,Clear,21,9,46,1007,-999,-9999,9
29/5/2013 0:00,6.0000048,340,40,NNW,Clear,22,-1,22,1008,-999,-9999,-1
29/5/2013 1:00,7.0000056,330,18,NNW,Clear,22,-2,20,1008,-999,-9999,-2
29/5/2013 2:00,7.0000056,330,13,NNW,Clear,22,1,25,1009,-999,-9999,1
29/5/2013 3:00,6.0000048,320,9,NW,Clear,21,2,28,1009,-999,-9999,2
29/5/2013 4:00,9.0000072,310,13,NW,Clear,20,2,30,1009,-999,-9999,2
29/5/2013 5:00,8.0000064,310,13,NW,Clear,19,3,35,1010,-999,-9999,3
29/5/2013 6:00,6.0000048,290,10,WNW,Clear,20,4,35,1010,-999,-9999,4
29/5/2013 7:00,6.0000048,300,13,WNW,Clear,21,4,33,1011,-999,-9999,4
29/5/2013 8:00,6.0000048,290,13,WNW,Clear,23,3,27,1011,-999,-9999,3
29/5/2013 9:00,6.0000048,300,12,WNW,Clear,25,2,22,1011,-999,-9999,2
29/5/2013 10:00,8.0000064,280,9,West,Clear,26,1,20,1011,-999,-9999,1
29/5/2013 11:00,5.000004,290,15,WNW,Clear,27,0,17,1010,-999,-9999,0
29/5/2013 12:00,4.0000032,270,25,West,Clear,28,-2,14,1009,-999,-9999,-2
29/5/2013 13:00,6.0000048,270,17,West,Clear,30,-6,9,1008,-999,-9999,-6
29/5/2013 14:00,6.0000048,270,17,West,Clear,30,-8,8,1008,-999,-9999,-8
29/5/2013 15:00,6.0000048,270,22,West,Clear,31,-9,7,1007,-999,-9999,-9
29/5/2013 16:00,9.0000072,280,17,West,Clear,31,-8,8,1007,-999,-9999,-8
29/5/2013 17:00,8.0000064,260,18,West,Clear,31,-11,6,1006,-999,-9999,-11
29/5/2013 18:00,7.0000056,280,23,West,Clear,31,-9,7,1006,-999,-9999,-9
29/5/2013 19:00,5.000004,220,25,SW,Clear,29,-5,11,1006,-999,-9999,-5
29/5/2013 20:00,7.0000056,220,32,SW,Clear,27,1,18,1007,-999,-9999,1
29/5/2013 21:00,5.000004,210,34,SSW,Clear,26,3,23,1008,-999,-9999,3
29/5/2013 22:00,6.0000048,210,42,SSW,Clear,25,5,28,1008,-999,-9999,5
29/5/2013 23:00,5.000004,220,40,SW,Clear,24,5,29,1008,-999,-9999,5
30/5/2013 0:00,1.0000008,0,49,Variable,Clear,20,9,49,1008,-999,-9999,9
30/5/2013 1:00,1.0000008,0,49,Variable,Clear,17,10,63,1008,-999,-9999,10
30/5/2013 2:00,0,0,51,North,Clear,15,9,67,1008,-999,-9999,9
30/5/2013 3:00,1.0000008,0,80,Variable,Clear,15,10,72,1008,-999,-9999,10
30/5/2013 4:00,0,0,91,North,Clear,13,9,77,1008,-999,-9999,9
30/5/2013 5:00,0,0,79,North,Clear,14,8,67,1009,-999,-9999,8
30/5/2013 6:00,1.0000008,360,63,North,Clear,16,10,68,1009,-999,-9999,10
30/5/2013 7:00,1.0000008,0,60,Variable,Clear,20,8,46,1009,-999,-9999,8
30/5/2013 8:00,1.0000008,0,54,Variable,Clear,23,8,38,1009,-999,-9999,8
30/5/2013 9:00,1.0000008,0,54,Variable,Clear,25,9,36,1009,-999,-9999,9
30/5/2013 10:00,2.0000016,140,47,SE,Clear,27,8,30,1008,-999,-9999,8
30/5/2013 11:00,2.0000016,0,66,Variable,Clear,30,7,23,1007,-999,-9999,7
30/5/2013 12:00,3.0000024,210,71,SSW,Clear,32,6,20,1006,-999,-9999,6
30/5/2013 13:00,6.0000048,190,65,South,Clear,34,1,12,1005,-999,-9999,1
30/5/2013 14:00,6.0000048,190,37,South,Clear,35,2,12,1004,-999,-9999,2
30/5/2013 15:00,8.0000064,210,42,SSW,Clear,36,-5,7,1003,-999,-9999,-5
30/5/2013 16:00,9.0000072,210,44,SSW,Clear,35,-5,8,1003,-999,-9999,-5
30/5/2013 17:00,9.0000072,200,52,SSW,Clear,35,-2,9,1002,-999,-9999,-2
30/5/2013 18:00,8.0000064,220,62,SW,Clear,33,-1,11,1002,-999,-9999,-1
30/5/2013 19:00,7.0000056,220,65,SW,Clear,32,2,15,1002,-999,-9999,2
30/5/2013 20:00,7.0000056,210,63,SSW,Clear,30,7,23,1003,-999,-9999,7
30/5/2013 21:00,8.0000064,210,70,SSW,Clear,29,7,25,1003,-999,-9999,7
30/5/2013 22:00,8.0000064,220,59,SW,Clear,28,7,26,1003,-999,-9999,7
30/5/2013 23:00,6.0000048,220,52,SW,Clear,28,7,26,1003,-999,-9999,7
31/5/2013 0:00,6.0000048,210,46,SSW,Clear,27,6,26,1003,-999,-9999,6
31/5/2013 1:00,5.000004,180,44,South,Clear,25,7,32,1003,-999,-9999,7
31/5/2013 2:00,3.0000024,160,50,SSE,Clear,23,9,41,1003,-999,-9999,9
31/5/2013 3:00,2.0000016,120,62,ESE,Clear,20,11,56,1003,-999,-9999,11
31/5/2013 4:00,2.0000016,160,73,SSE,Clear,21,11,53,1003,-999,-9999,11
31/5/2013 5:00,1.0000008,0,83,Variable,Clear,18,12,68,1003,-999,-9999,12
31/5/2013 6:00,2.0000016,150,87,SSE,Clear,20,13,64,1004,-999,-9999,13
31/5/2013 7:00,3.0000024,140,89,SE,Clear,21,14,64,1004,-999,-9999,14
31/5/2013 8:00,3.0000024,130,86,SE,Clear,22,14,60,1004,-999,-9999,14
31/5/2013 9:00,3.0000024,130,117,SE,Clear,24,15,57,1004,-999,-9999,15
31/5/2013 10:00,3.0000024,180,96,South,Clear,25,15,54,1004,-999,-9999,15
31/5/2013 11:00,4.0000032,200,105,SSW,Clear,26,15,51,1003,-999,-9999,15
31/5/2013 12:00,4.0000032,170,98,South,Clear,28,15,45,1003,-999,-9999,15
31/5/2013 13:00,4.0000032,160,97,SSE,Clear,29,15,42,1002,-999,-9999,15
31/5/2013 14:00,5.000004,170,104,South,Clear,29,13,37,1001,-999,-9999,13
31/5/2013 15:00,4.0000032,160,101,SSE,Clear,31,13,33,1000,-999,-9999,13
31/5/2013 16:00,6.0000048,160,105,SSE,Clear,30,12,33,1000,-999,-9999,12
31/5/2013 17:00,5.000004,180,113,South,Clear,30,12,33,1000,-999,-9999,12
31/5/2013 18:00,6.0000048,180,101,South,Clear,29,14,40,1000,-999,-9999,14
31/5/2013 19:00,4.0000032,170,108,South,Clear,27,15,48,1000,-999,-9999,15
31/5/2013 20:00,4.0000032,180,110,South,Clear,26,16,54,1001,-999,-9999,16
31/5/2013 21:00,1.0000008,0,110,Variable,Clear,25,16,57,1003,-999,-9999,16
31/5/2013 22:00,4.0000032,180,109,South,Clear,25,16,57,1002,-999,-9999,16
31/5/2013 23:00,1.0000008,0,105,Variable,Clear,23,16,65,1003,-999,-9999,16
1/6/2013 0:00,2.0000016,100,121,East,Clear,23,16,65,1003,-999,-9999,16
1/6/2013 1:00,2.0000016,100,141,East,Clear,22,15,64,1003,-999,-9999,15
1/6/2013 2:00,1.0000008,0,130,Variable,Clear,20,16,78,1004,-999,-9999,16
1/6/2013 3:00,1.0000008,60,146,ENE,Unknown,19,15,78,1004,-999,7,15
1/6/2013 4:00,1.0000008,70,151,ENE,Unknown,18,15,83,1004,-999,7,15
1/6/2013 5:00,1.0000008,0,143,Variable,Unknown,16,14,88,1005,-999,6,14
1/6/2013 6:00,0,0,133,North,Unknown,19,15,78,1006,-999,7,15
1/6/2013 7:00,3.0000024,330,124,NNW,Unknown,23,15,61,1007,-999,8,15
1/6/2013 8:00,3.0000024,20,93,NNE,Clear,25,14,50,1007,-999,-9999,14
1/6/2013 9:00,2.0000016,40,53,NE,Clear,27,11,37,1007,-999,-9999,11
1/6/2013 10:00,2.0000016,30,26,NNE,Clear,30,-2,12,1007,-999,-9999,-2
1/6/2013 11:00,2.0000016,0,26,Variable,Clear,30,-4,11,1007,-999,-9999,-4
1/6/2013 12:00,2.0000016,130,36,SE,Clear,30,-4,11,1006,-999,-9999,-4
1/6/2013 13:00,3.0000024,80,27,East,Clear,32,-3,10,1006,-999,-9999,-3
1/6/2013 14:00,2.0000016,0,23,Variable,Clear,31,-1,13,1006,-999,-9999,-1
1/6/2013 15:00,3.0000024,120,23,ESE,Clear,31,-4,10,1005,-999,-9999,-4
1/6/2013 16:00,2.0000016,140,22,SE,Clear,30,-3,12,1005,-999,-9999,-3
1/6/2013 17:00,1.0000008,0,24,Variable,Clear,30,2,17,1006,-999,-9999,2
1/6/2013 18:00,4.0000032,140,60,SE,Clear,27,10,34,1007,-999,-9999,10
1/6/2013 19:00,4.0000032,160,55,SSE,Clear,26,8,32,1007,-999,-9999,8
1/6/2013 20:00,5.000004,160,54,SSE,Clear,25,8,34,1007,-999,-9999,8
1/6/2013 21:00,3.0000024,160,41,SSE,Clear,24,9,38,1007,-999,-9999,9
1/6/2013 22:00,2.0000016,140,48,SE,Clear,22,10,46,1008,-999,-9999,10
1/6/2013 23:00,0,0,56,North,Clear,21,10,49,1008,-999,-9999,10
2/6/2013 0:00,2.0000016,180,60,South,Clear,20,8,46,1008,-999,-9999,8
2/6/2013 1:00,2.0000016,140,64,SE,Clear,18,11,64,1008,-999,-9999,11
2/6/2013 2:00,1.0000008,0,71,Variable,Clear,19,9,52,1007,-999,-9999,9
2/6/2013 3:00,2.0000016,110,96,ESE,Clear,19,12,64,1007,-999,-9999,12
2/6/2013 4:00,1.0000008,80,121,East,Unknown,18,13,73,1007,-999,6,13
2/6/2013 5:00,1.0000008,0,168,Variable,Mist,18,14,77,1007,-999,5,14
2/6/2013 6:00,3.0000024,130,215,SE,Mist,19,15,78,1007,-999,3,15
2/6/2013 7:00,4.0000032,120,220,ESE,Mist,19,15,78,1006,-999,1.7,15
2/6/2013 8:00,3.0000024,140,210,SE,Mist,20,16,78,1006,-999,1.4,16
2/6/2013 9:00,2.0000016,130,217,SE,Mist,21,16,73,1007,-999,1.3,16
2/6/2013 10:00,2.0000016,120,229,ESE,Mist,22,16,69,1006,-999,1.4,16
2/6/2013 11:00,3.0000024,160,231,SSE,Mist,22,17,73,1005,-999,1.5,17
2/6/2013 12:00,3.0000024,140,244,SE,Haze,24,18,69,1005,-999,1.6,18
2/6/2013 13:00,3.0000024,120,216,ESE,Haze,24,18,69,1004,-999,1.8,18
2/6/2013 14:00,3.0000024,110,186,ESE,Haze,25,19,69,1003,-999,2.1,19
2/6/2013 15:00,3.0000024,110,137,ESE,Haze,25,18,65,1002,-999,2.8,18
2/6/2013 16:00,4.0000032,110,130,ESE,Haze,26,18,61,1002,-999,3.5,18
2/6/2013 17:00,3.0000024,120,138,ESE,Haze,26,18,61,1002,-999,5,18
2/6/2013 18:00,4.0000032,100,135,East,Haze,25,18,65,1001,-999,5,18
2/6/2013 19:00,2.0000016,110,127,ESE,Haze,25,18,65,1002,-999,5,18
2/6/2013 20:00,4.0000032,120,111,ESE,Unknown,24,17,65,1002,-999,6,17
2/6/2013 21:00,3.0000024,110,122,ESE,Unknown,24,17,65,1003,-999,6,17
2/6/2013 22:00,2.0000016,100,136,East,Unknown,23,17,69,1004,-999,6,17
2/6/2013 23:00,1.0000008,0,153,Variable,Haze,22,17,73,1004,-999,5,17
3/6/2013 0:00,1.0000008,0,160,Variable,Haze,22,17,73,1003,-999,5,17
3/6/2013 1:00,1.0000008,90,168,East,Mist,20,17,83,1003,-999,4,17
3/6/2013 2:00,0,0,169,North,Mist,19,17,88,1003,-999,3.5,17
3/6/2013 3:00,1.0000008,0,170,Variable,Mist,18,17,94,1003,-999,4,17
3/6/2013 4:00,2.0000016,360,182,North,Mist,17,15,88,1003,-999,4,15
3/6/2013 5:00,2.0000016,10,189,North,Mist,17,16,94,1003,-999,2.2,16
3/6/2013 6:00,3.0000024,350,186,North,Mist,19,17,88,1004,-999,2,17
3/6/2013 7:00,1.0000008,0,170,Variable,Mist,22,18,78,1005,-999,2.6,18
3/6/2013 8:00,3.0000024,30,152,NNE,Haze,24,17,65,1005,-999,3,17
3/6/2013 9:00,3.0000024,20,141,NNE,Haze,26,17,57,1005,-999,3.5,17
3/6/2013 10:00,3.0000024,20,127,NNE,Haze,29,13,37,1006,-999,5,13
3/6/2013 11:00,2.0000016,0,89,Variable,Unknown,30,12,33,1005,-999,7,12
3/6/2013 12:00,3.0000024,60,65,ENE,Clear,32,7,21,1005,-999,-9999,7
3/6/2013 13:00,3.0000024,100,53,East,Clear,33,3,15,1004,-999,-9999,3
3/6/2013 14:00,3.0000024,120,54,ESE,Clear,34,4,15,1004,-999,-9999,4
3/6/2013 15:00,2.0000016,0,123,Variable,Clear,34,2,13,1004,-999,-9999,2
3/6/2013 16:00,3.0000024,170,70,South,Clear,34,2,13,1004,-999,-9999,2
3/6/2013 17:00,3.0000024,160,115,SSE,Clear,34,3,14,1004,-999,-9999,3
3/6/2013 18:00,4.0000032,160,96,SSE,Clear,32,5,18,1004,-999,-9999,5
3/6/2013 19:00,3.0000024,200,94,SSW,Clear,31,11,29,1005,-999,-9999,11
3/6/2013 20:00,1.0000008,0,103,Variable,Clear,26,15,51,1005,-999,-9999,15
3/6/2013 21:00,1.0000008,0,150,Variable,Clear,24,16,61,1006,-999,-9999,16
3/6/2013 22:00,1.0000008,0,171,Variable,Clear,23,16,65,1007,-999,-9999,16
3/6/2013 23:00,1.0000008,60,166,ENE,Clear,22,14,60,1007,-999,-9999,14
4/6/2013 0:00,2.0000016,90,164,East,Clear,22,13,57,1007,-999,-9999,13
4/6/2013 1:00,2.0000016,100,152,East,Clear,23,12,50,1008,-999,-9999,12
4/6/2013 2:00,2.0000016,100,152,East,Clear,23,12,50,1008,-999,-9999,12
4/6/2013 3:00,6.0000048,110,174,ESE,Clear,23,14,57,1009,-999,-9999,14
4/6/2013 4:00,5.000004,110,203,ESE,Unknown,22,16,69,1009,-999,6,16
4/6/2013 5:00,5.000004,110,179,ESE,Mist,22,16,69,1010,-999,4.5,16
4/6/2013 6:00,4.0000032,110,203,ESE,Mist,23,17,69,1010,-999,4,17
4/6/2013 7:00,4.0000032,130,167,SE,Mist,23,17,69,1012,-999,3.5,17
4/6/2013 8:00,3.0000024,150,149,SSE,Mist,23,17,69,1012,-999,3.5,17
4/6/2013 9:00,2.0000016,150,147,SSE,Haze,23,16,65,1013,-999,4,16
4/6/2013 10:00,4.0000032,120,137,ESE,Haze,22,16,69,1013,-999,4.5,16
4/6/2013 11:00,3.0000024,130,125,SE,Haze,22,16,69,1013,-999,4.5,16
4/6/2013 12:00,2.0000016,120,124,ESE,Haze,22,16,69,1013,-999,4.5,16
4/6/2013 13:00,5.000004,20,143,NNE,Light Thunderstorms and Rain,18,17,94,1013,-999,2.3,17
4/6/2013 14:00,4.0000032,360,113,North,Overcast,18,17,94,1012,-999,4,17
4/6/2013 15:00,2.0000016,20,96,NNE,Mist,18,17,94,1012,-999,4.5,17
4/6/2013 16:00,5.000004,20,86,NNE,Unknown,19,16,83,1013,-999,7,16
4/6/2013 17:00,2.0000016,120,71,ESE,Clear,19,16,83,1011,-999,-9999,16
4/6/2013 18:00,1.0000008,0,77,Variable,Clear,20,17,83,1011,-999,-9999,17
4/6/2013 19:00,3.0000024,320,86,NW,Unknown,20,17,83,1012,-999,6,17
4/6/2013 20:00,2.0000016,30,103,NNE,Mist,19,17,88,1012,-999,5,17
4/6/2013 21:00,2.0000016,20,101,NNE,Mist,19,17,88,1013,-999,5,17
4/6/2013 22:00,2.0000016,360,89,North,Light Thunderstorms and Rain,20,17,83,1013,-999,6,17
4/6/2013 23:00,3.0000024,310,76,NW,Light Thunderstorms and Rain,20,17,83,1013,-999,5,17
5/6/2013 0:00,3.0000024,330,78,NNW,Light Thunderstorms and Rain,19,18,94,1012,-999,4,18
5/6/2013 1:00,1.0000008,0,74,Variable,Light Thunderstorms and Rain,19,17,88,1011,-999,4.5,17
5/6/2013 2:00,1.0000008,0,69,Variable,Light Thunderstorms and Rain,19,18,94,1012,-999,3.5,18
5/6/2013 3:00,2.0000016,360,77,North,Light Rain Showers,19,18,94,1012,-999,4,18
5/6/2013 4:00,1.0000008,0,78,Variable,Light Rain Showers,18,18,100,1012,-999,3.5,18
5/6/2013 5:00,3.0000024,130,93,SE,Light Rain Showers,18,17,94,1011,-999,3.5,17
5/6/2013 6:00,1.0000008,0,109,Variable,Overcast,19,18,94,1012,-999,2.5,18
5/6/2013 7:00,1.0000008,0,114,Variable,Light Rain Showers,19,18,94,1012,-999,1.5,18
5/6/2013 8:00,2.0000016,130,132,SE,Light Rain Showers,18,18,100,1013,-999,0.9,18
5/6/2013 9:00,2.0000016,100,140,East,Light Rain Showers,18,18,100,1013,-999,0.9,18
5/6/2013 10:00,2.0000016,90,142,East,Light Rain,18,18,100,1013,-999,0.9,18
5/6/2013 11:00,2.0000016,110,161,ESE,Overcast,19,18,94,1013,-999,1.2,18
5/6/2013 12:00,2.0000016,110,178,ESE,Overcast,19,17,88,1012,-999,1.5,17
5/6/2013 13:00,3.0000024,110,184,ESE,Overcast,19,17,88,1012,-999,1.5,17
5/6/2013 14:00,4.0000032,130,182,SE,Overcast,19,17,88,1012,-999,1.5,17
5/6/2013 15:00,2.0000016,120,180,ESE,Overcast,19,17,88,1012,-999,1.5,17
5/6/2013 16:00,2.0000016,100,190,East,Overcast,19,17,88,1011,-999,1.5,17
5/6/2013 17:00,2.0000016,100,207,East,Overcast,19,17,88,1011,-999,1.5,17
5/6/2013 18:00,1.0000008,0,225,Variable,Overcast,19,17,88,1011,-999,1.5,17
5/6/2013 19:00,2.0000016,110,196,ESE,Overcast,19,17,88,1011,-999,1.7,17
5/6/2013 20:00,2.0000016,110,192,ESE,Overcast,19,17,88,1011,-999,2.5,17
5/6/2013 21:00,1.0000008,0,178,Variable,Overcast,19,17,88,1012,-999,3,17
5/6/2013 22:00,1.0000008,0,173,Variable,Overcast,19,17,88,1012,-999,3,17
5/6/2013 23:00,2.0000016,140,175,SE,Overcast,19,17,88,1012,-999,3.5,17
6/6/2013 0:00,1.0000008,0,163,Variable,Overcast,19,17,88,1013,-999,3.5,17
6/6/2013 1:00,1.0000008,130,164,SE,Overcast,19,17,88,1012,-999,3.5,17
6/6/2013 2:00,1.0000008,0,165,Variable,Overcast,19,17,88,1011,-999,3.5,17
6/6/2013 3:00,2.0000016,160,176,SSE,Overcast,19,17,88,1010,-999,-9999,17
6/6/2013 4:00,2.0000016,120,166,ESE,Overcast,19,17,88,1011,-999,3,17
6/6/2013 5:00,3.0000024,150,164,SSE,Overcast,18,17,94,1011,-999,2.3,17
6/6/2013 6:00,1.0000008,160,134,SSE,Light Rain,18,17,94,1011,-999,0.9,17
6/6/2013 7:00,1.0000008,160,104,SSE,Light Rain,18,17,94,1012,-999,0.7,17
6/6/2013 8:00,3.0000024,130,99,SE,Light Rain,18,18,100,1012,-999,0.9,18
6/6/2013 9:00,2.0000016,120,106,ESE,Light Rain,18,18,100,1011,-999,1.3,18
6/6/2013 10:00,1.0000008,0,129,Variable,Light Rain,18,18,100,1011,-999,1.3,18
6/6/2013 11:00,2.0000016,110,141,ESE,Light Rain,19,18,94,1011,-999,1.3,18
6/6/2013 12:00,1.0000008,0,158,Variable,Light Rain,19,18,94,1011,-999,1.3,18
6/6/2013 13:00,1.0000008,80,165,East,Light Rain,19,18,94,1010,-999,1.1,18
6/6/2013 14:00,1.0000008,0,140,Variable,Light Rain,19,19,100,1010,-999,1.3,19
6/6/2013 15:00,2.0000016,80,148,East,Light Rain,20,19,94,1009,-999,1.4,19
6/6/2013 16:00,1.0000008,0,173,Variable,Overcast,20,19,94,1008,-999,1.8,19
6/6/2013 17:00,1.0000008,0,207,Variable,Overcast,20,19,94,1008,-999,1.8,19
6/6/2013 18:00,2.0000016,350,200,North,Overcast,21,19,88,1008,-999,1.8,19
6/6/2013 19:00,3.0000024,360,166,North,Overcast,20,19,94,1009,-999,2.5,19
6/6/2013 20:00,3.0000024,350,162,North,Overcast,20,19,94,1009,-999,-9999,19
6/6/2013 21:00,2.0000016,340,158,NNW,Overcast,20,19,94,1009,-999,4,19
6/6/2013 22:00,3.0000024,330,156,NNW,Overcast,21,19,88,1009,-999,4,19
6/6/2013 23:00,2.0000016,310,146,NW,Overcast,21,19,88,1009,-999,4,19
7/6/2013 0:00,3.0000024,330,159,NNW,Overcast,21,19,88,1008,-999,4,19
7/6/2013 1:00,2.0000016,20,157,NNE,Overcast,21,19,88,1008,-999,4,19
7/6/2013 2:00,1.0000008,10,165,North,Overcast,20,19,94,1008,-999,-9999,19
7/6/2013 3:00,1.0000008,0,145,Variable,Overcast,20,19,94,1007,-999,3,19
7/6/2013 4:00,0,0,148,North,Overcast,20,19,94,1007,-999,3,19
7/6/2013 5:00,2.0000016,120,100,ESE,Overcast,21,19,88,1007,-999,2.8,19
7/6/2013 6:00,2.0000016,110,94,ESE,Overcast,21,19,88,1007,-999,2.3,19
7/6/2013 7:00,3.0000024,120,103,ESE,Mostly Cloudy,21,18,83,1008,-999,2.5,18
7/6/2013 8:00,4.0000032,120,117,ESE,Mostly Cloudy,21,18,83,1008,-999,3.5,18
7/6/2013 9:00,5.000004,110,122,ESE,Light Thunderstorms and Rain,21,18,83,1008,-999,4.5,18
7/6/2013 10:00,3.0000024,120,129,ESE,Light Thunderstorms and Rain,19,18,94,1009,-999,1.5,18
7/6/2013 11:00,2.0000016,80,136,East,Light Rain Showers,20,19,94,1008,-999,1.4,19
7/6/2013 12:00,1.0000008,0,136,Variable,Light Rain Showers,20,19,94,1009,-999,1.7,19
7/6/2013 13:00,1.0000008,0,138,Variable,Light Rain Showers,21,19,88,1009,-999,1.7,19
7/6/2013 14:00,3.0000024,130,150,SE,Overcast,21,19,88,1008,-999,2,19
7/6/2013 15:00,2.0000016,80,161,East,Overcast,21,19,88,1008,-999,2.2,19
7/6/2013 16:00,1.0000008,0,162,Variable,Overcast,21,19,88,1008,-999,2.5,19
7/6/2013 17:00,2.0000016,70,141,ENE,Overcast,21,19,88,1007,-999,2.7,19
7/6/2013 18:00,1.0000008,20,134,NNE,Overcast,21,19,88,1008,-999,2.5,19
7/6/2013 19:00,2.0000016,10,137,North,Overcast,21,19,88,1008,-999,2.5,19
7/6/2013 20:00,2.0000016,350,140,North,Overcast,21,19,88,1009,-999,2.8,19
7/6/2013 21:00,2.0000016,360,142,North,Overcast,21,19,88,1009,-999,3,19
7/6/2013 22:00,1.0000008,0,137,Variable,Overcast,20,19,94,1009,-999,3,19
7/6/2013 23:00,1.0000008,0,139,Variable,Overcast,20,19,94,1009,-999,3,19
8/6/2013 0:00,1.0000008,360,139,North,Overcast,20,19,94,1009,-999,2.8,19
8/6/2013 1:00,2.0000016,10,138,North,Overcast,20,19,94,1009,-999,2.5,19
8/6/2013 2:00,2.0000016,360,139,North,Light Rain Showers,20,19,94,1008,-999,2.3,19
8/6/2013 3:00,1.0000008,0,135,Variable,Light Rain Showers,20,19,94,1008,-999,2,19
8/6/2013 4:00,1.0000008,0,134,Variable,Overcast,20,19,94,1008,-999,1.7,19
8/6/2013 5:00,1.0000008,360,139,North,Overcast,20,19,94,1007,-999,1.7,19
8/6/2013 6:00,1.0000008,0,140,Variable,Overcast,19,18,94,1007,-999,2,18
8/6/2013 7:00,1.0000008,0,147,Variable,Overcast,19,18,94,1008,-999,2,18
8/6/2013 8:00,0,0,161,North,Light Rain Showers,20,18,88,1008,-999,1.7,18
8/6/2013 9:00,2.0000016,130,191,SE,Overcast,20,18,88,1008,-999,1.7,18
8/6/2013 10:00,1.0000008,0,212,Variable,Overcast,20,18,88,1008,-999,1.7,18
8/6/2013 11:00,2.0000016,140,220,SE,Overcast,21,19,88,1008,-999,1.5,19
8/6/2013 12:00,2.0000016,130,221,SE,Overcast,21,19,88,1008,-999,1.5,19
8/6/2013 13:00,2.0000016,120,206,ESE,Overcast,21,19,88,1008,-999,1.5,19
8/6/2013 14:00,2.0000016,130,189,SE,Overcast,21,19,88,1007,-999,1.5,19
8/6/2013 15:00,1.0000008,0,187,Variable,Overcast,21,19,88,1007,-999,1.5,19
8/6/2013 16:00,1.0000008,0,187,Variable,Overcast,21,19,88,1006,-999,1.5,19
8/6/2013 17:00,1.0000008,0,191,Variable,Overcast,22,19,83,1006,-999,1.5,19
8/6/2013 18:00,2.0000016,330,191,NNW,Overcast,22,19,83,1006,-999,1.5,19
8/6/2013 19:00,3.0000024,340,196,NNW,Overcast,21,19,88,1006,-999,1.5,19
8/6/2013 20:00,2.0000016,350,194,North,Light Rain Showers,21,19,88,1007,-999,1.7,19
8/6/2013 21:00,3.0000024,330,184,NNW,Overcast,21,19,88,1007,-999,1.8,19
8/6/2013 22:00,1.0000008,0,182,Variable,Overcast,20,19,94,1007,-999,1.8,19
8/6/2013 23:00,1.0000008,150,172,SSE,Overcast,20,19,94,1007,-999,1.8,19
9/6/2013 0:00,1.0000008,30,169,NNE,Overcast,20,19,94,1007,-999,1.5,19
9/6/2013 1:00,3.0000024,330,169,NNW,Overcast,20,19,94,1007,-999,1.5,19
9/6/2013 2:00,0,0,146,North,Overcast,20,19,94,1007,-999,1.5,19
9/6/2013 3:00,2.0000016,340,142,NNW,Overcast,20,19,94,1007,-999,1.5,19
9/6/2013 4:00,1.0000008,0,130,Variable,Overcast,20,19,94,1006,-999,1.6,19
9/6/2013 5:00,1.0000008,0,153,Variable,Overcast,20,19,94,1007,-999,2,19
9/6/2013 6:00,0,0,110,North,Overcast,20,19,94,1007,-999,2,19
9/6/2013 7:00,2.0000016,10,21,North,Overcast,20,19,94,1008,-999,2,19
9/6/2013 8:00,2.0000016,340,14,NNW,Light Rain,19,18,94,1009,-999,3.5,18
9/6/2013 9:00,6.0000048,320,13,NW,Light Rain,18,16,88,1010,-999,9,16
9/6/2013 10:00,8.0000064,300,36,WNW,Light Rain,18,16,88,1010,-999,10,16
9/6/2013 11:00,6.0000048,320,14,NW,Light Rain,19,16,83,1010,-999,10,16
9/6/2013 12:00,6.0000048,310,15,NW,Light Rain,18,16,88,1011,-999,10,16
9/6/2013 13:00,6.0000048,340,16,NNW,Light Rain,17,16,94,1012,-999,10,16
9/6/2013 14:00,5.000004,320,18,NW,Light Rain,17,16,94,1012,-999,10,16
9/6/2013 15:00,4.0000032,330,16,NNW,Light Rain,18,16,88,1012,-999,10,16
9/6/2013 16:00,6.0000048,330,12,NNW,Light Rain,18,16,88,1012,-999,10,16
9/6/2013 17:00,4.0000032,340,17,NNW,Light Rain,18,16,88,1011,-999,10,16
9/6/2013 18:00,5.000004,340,16,NNW,Light Rain,18,15,83,1012,-999,10,15
9/6/2013 19:00,3.0000024,340,22,NNW,Light Rain,18,15,83,1012,-999,10,15
9/6/2013 20:00,4.0000032,340,24,NNW,Light Rain,18,15,83,1012,-999,10,15
9/6/2013 21:00,4.0000032,320,27,NW,Mostly Cloudy,18,15,83,1013,-999,10,15
9/6/2013 22:00,1.0000008,0,29,Variable,Light Rain,18,16,88,1013,-999,10,16
9/6/2013 23:00,1.0000008,0,33,Variable,Light Rain,17,16,94,1013,-999,10,16
10/6/2013 0:00,1.0000008,0,33,Variable,Light Rain,17,16,94,1013,-999,10,16
10/6/2013 1:00,1.0000008,0,32,Variable,Overcast,16,15,94,1013,-999,10,15
10/6/2013 2:00,1.0000008,0,28,Variable,Light Rain,16,15,94,1013,-999,10,15
10/6/2013 3:00,1.0000008,190,31,South,Overcast,16,15,94,1013,-999,10,15
10/6/2013 4:00,1.0000008,0,28,Variable,Clear,16,15,94,1013,-999,-9999,15
10/6/2013 5:00,1.0000008,30,38,NNE,Clear,16,15,94,1013,-999,-9999,15
10/6/2013 6:00,1.0000008,0,44,Variable,Clear,16,15,94,1014,-999,-9999,15
10/6/2013 7:00,1.0000008,0,45,Variable,Clear,16,16,100,1014,-999,-9999,16
10/6/2013 8:00,1.0000008,0,47,Variable,Clear,17,16,94,1014,-999,-9999,16
10/6/2013 9:00,2.0000016,360,48,North,Clear,19,16,83,1014,-999,-9999,16
10/6/2013 10:00,2.0000016,20,27,NNE,Clear,20,16,78,1014,-999,-9999,16
10/6/2013 11:00,2.0000016,0,29,Variable,Clear,23,17,69,1014,-999,-9999,17
10/6/2013 12:00,1.0000008,0,25,Variable,Clear,25,14,50,1013,-999,-9999,14
10/6/2013 13:00,2.0000016,0,22,Variable,Clear,25,13,47,1012,-999,-9999,13
10/6/2013 14:00,1.0000008,0,18,Variable,Clear,26,14,47,1012,-999,-9999,14
10/6/2013 15:00,1.0000008,0,16,Variable,Clear,26,13,44,1011,-999,-9999,13
10/6/2013 16:00,4.0000032,150,18,SSE,Clear,25,12,44,1010,-999,-9999,12
10/6/2013 17:00,2.0000016,180,21,South,Clear,25,12,44,1011,-999,-9999,12
10/6/2013 18:00,3.0000024,180,35,South,Clear,24,12,47,1011,-999,-9999,12
10/6/2013 19:00,3.0000024,180,33,South,Clear,23,13,53,1010,-999,-9999,13
10/6/2013 20:00,3.0000024,170,34,South,Clear,22,15,64,1011,-999,-9999,15
10/6/2013 21:00,2.0000016,140,41,SE,Clear,20,15,73,1011,-999,-9999,15
10/6/2013 22:00,2.0000016,160,40,SSE,Clear,20,16,78,1011,-999,-9999,16
10/6/2013 23:00,2.0000016,150,40,SSE,Clear,20,16,78,1011,-999,-9999,16
11/6/2013 0:00,2.0000016,160,37,SSE,Clear,19,16,83,1010,-999,-9999,16
11/6/2013 1:00,1.0000008,0,42,Variable,Clear,19,15,78,1010,-999,-9999,15
11/6/2013 2:00,1.0000008,0,48,Variable,Clear,18,16,88,1010,-999,-9999,16
11/6/2013 3:00,2.0000016,70,51,ENE,Clear,18,16,88,1009,-999,-9999,16
11/6/2013 4:00,2.0000016,90,62,East,Clear,18,16,88,1009,-999,-9999,16
11/6/2013 5:00,1.0000008,0,64,Variable,Unknown,17,16,94,1009,-999,7,16
11/6/2013 6:00,0,0,87,North,Mist,18,16,88,1009,-999,5,16
11/6/2013 7:00,0,0,86,North,Mist,19,16,83,1009,-999,5,16
11/6/2013 8:00,3.0000024,340,75,NNW,Unknown,20,16,78,1009,-999,6,16
11/6/2013 9:00,3.0000024,50,70,NE,Clear,22,16,69,1009,-999,-9999,16
11/6/2013 10:00,3.0000024,100,69,East,Clear,22,16,69,1009,-999,-9999,16
11/6/2013 11:00,3.0000024,140,81,SE,Clear,24,16,61,1008,-999,-9999,16
11/6/2013 12:00,3.0000024,150,96,SSE,Clear,25,16,57,1008,-999,-9999,16
11/6/2013 13:00,4.0000032,130,107,SE,Unknown,26,16,54,1007,-999,8,16
11/6/2013 14:00,5.000004,140,86,SE,Unknown,26,16,54,1007,-999,8,16
11/6/2013 15:00,4.0000032,140,98,SE,Unknown,25,15,54,1006,-999,8,15
11/6/2013 16:00,3.0000024,160,67,SSE,Light Thunderstorms and Rain,24,15,57,1006,-999,8,15
11/6/2013 17:00,3.0000024,0,20,Variable,Partly Cloudy,22,13,57,1005,-999,8,13
11/6/2013 18:00,3.0000024,10,27,North,Clear,24,15,57,1005,-999,-9999,15
11/6/2013 19:00,4.0000032,110,41,ESE,Clear,23,13,53,1006,-999,-9999,13
11/6/2013 20:00,4.0000032,130,72,SE,Clear,21,12,56,1007,-999,-9999,12
11/6/2013 21:00,5.000004,100,55,East,Partly Cloudy,21,12,56,1008,-999,10,12
11/6/2013 22:00,3.0000024,90,24,East,Light Thunderstorms and Rain,18,13,73,1009,-999,10,13
11/6/2013 23:00,2.0000016,60,22,ENE,Thunderstorm,17,13,77,1009,-999,10,13
12/6/2013 0:00,3.0000024,250,24,WSW,Clear,18,13,73,1009,-999,-9999,13
12/6/2013 1:00,1.0000008,0,24,Variable,Clear,17,13,77,1009,-999,-9999,13
12/6/2013 2:00,2.0000016,350,30,North,Clear,15,12,82,1008,-999,-9999,12
12/6/2013 3:00,0,0,33,North,Clear,15,13,88,1008,-999,-9999,13
12/6/2013 4:00,1.0000008,0,47,Variable,Clear,14,13,94,1008,-999,-9999,13
12/6/2013 5:00,1.0000008,0,61,Variable,Clear,14,12,88,1008,-999,-9999,12
12/6/2013 6:00,1.0000008,20,76,NNE,Clear,15,14,94,1008,-999,-9999,14
12/6/2013 7:00,1.0000008,0,59,Variable,Clear,17,14,82,1009,-999,-9999,14
12/6/2013 8:00,2.0000016,110,55,ESE,Clear,19,15,78,1009,-999,-9999,15
12/6/2013 9:00,1.0000008,0,50,Variable,Unknown,21,14,64,1009,-999,8,14
12/6/2013 10:00,3.0000024,0,55,Variable,Unknown,23,14,57,1008,-999,9,14
12/6/2013 11:00,3.0000024,210,65,SSW,Partly Cloudy,24,14,53,1008,-999,9,14
12/6/2013 12:00,4.0000032,180,60,South,Clear,25,14,50,1008,-999,-9999,14
12/6/2013 13:00,3.0000024,190,65,South,Clear,26,14,47,1007,-999,-9999,14
12/6/2013 14:00,3.0000024,170,72,South,Clear,27,15,48,1007,-999,-9999,15
12/6/2013 15:00,4.0000032,150,83,SSE,Clear,27,15,48,1006,-999,-9999,15
12/6/2013 16:00,3.0000024,130,87,SE,Partly Cloudy,26,15,51,1006,-999,10,15
12/6/2013 17:00,4.0000032,180,83,South,Clear,26,14,47,1006,-999,-9999,14
12/6/2013 18:00,3.0000024,150,90,SSE,Clear,26,14,47,1006,-999,-9999,14
12/6/2013 19:00,3.0000024,150,101,SSE,Clear,25,14,50,1006,-999,-9999,14
12/6/2013 20:00,2.0000016,130,113,SE,Clear,23,15,61,1007,-999,-9999,15
12/6/2013 21:00,3.0000024,130,101,SE,Clear,22,15,64,1007,-999,-9999,15
12/6/2013 22:00,3.0000024,120,104,ESE,Clear,22,15,64,1008,-999,-9999,15
12/6/2013 23:00,1.0000008,90,93,East,Clear,21,15,68,1008,-999,-9999,15
13/6/2013 0:00,2.0000016,120,98,ESE,Unknown,20,15,73,1008,-999,7,15
13/6/2013 1:00,1.0000008,0,110,Variable,Unknown,18,15,83,1008,-999,7,15
13/6/2013 2:00,2.0000016,10,108,North,Unknown,17,15,88,1008,-999,7,15
13/6/2013 3:00,1.0000008,30,111,NNE,Unknown,17,15,88,1008,-999,7,15
13/6/2013 4:00,1.0000008,0,106,Variable,Unknown,17,15,88,1008,-999,7,15
13/6/2013 5:00,1.0000008,0,109,Variable,Unknown,17,15,88,1008,-999,6,15
13/6/2013 6:00,2.0000016,10,111,North,Mist,18,16,88,1009,-999,5,16
13/6/2013 7:00,2.0000016,30,112,NNE,Unknown,21,16,73,1009,-999,6,16
13/6/2013 8:00,3.0000024,50,112,NE,Unknown,22,15,64,1009,-999,7,15
13/6/2013 9:00,2.0000016,0,110,Variable,Unknown,24,16,61,1009,-999,7,16
13/6/2013 10:00,3.0000024,120,121,ESE,Unknown,25,16,57,1009,-999,7,16
13/6/2013 11:00,2.0000016,100,125,East,Unknown,26,16,54,1009,-999,7,16
13/6/2013 12:00,3.0000024,140,130,SE,Unknown,27,16,51,1009,-999,6,16
13/6/2013 13:00,3.0000024,130,134,SE,Haze,29,17,48,1008,-999,5,17
13/6/2013 14:00,4.0000032,170,124,South,Haze,29,17,48,1008,-999,5,17
13/6/2013 15:00,5.000004,190,109,South,Unknown,30,16,43,1007,-999,6,16
13/6/2013 16:00,6.0000048,190,78,South,Unknown,30,15,40,1007,-999,8,15
13/6/2013 17:00,4.0000032,210,90,SSW,Clear,30,12,33,1006,-999,-9999,12
13/6/2013 18:00,3.0000024,180,103,South,Clear,30,14,37,1006,-999,-9999,14
13/6/2013 19:00,2.0000016,150,103,SSE,Clear,28,15,45,1006,-999,-9999,15
13/6/2013 20:00,1.0000008,0,122,Variable,Clear,25,18,65,1007,-999,-9999,18
13/6/2013 21:00,3.0000024,160,97,SSE,Clear,25,16,57,1007,-999,-9999,16
13/6/2013 22:00,4.0000032,180,75,South,Clear,25,13,47,1008,-999,-9999,13
13/6/2013 23:00,4.0000032,180,80,South,Clear,25,11,41,1008,-999,-9999,11
14/6/2013 0:00,3.0000024,200,81,SSW,Clear,25,10,39,1008,-999,-9999,10
14/6/2013 1:00,2.0000016,140,70,SE,Clear,21,13,60,1008,-999,-9999,13
14/6/2013 2:00,2.0000016,150,77,SSE,Clear,22,11,50,1008,-999,-9999,11
14/6/2013 3:00,3.0000024,160,80,SSE,Unknown,22,11,50,1008,-999,8,11
14/6/2013 4:00,3.0000024,150,82,SSE,Unknown,21,11,53,1008,-999,8,11
14/6/2013 5:00,3.0000024,160,83,SSE,Unknown,21,11,53,1009,-999,8,11
14/6/2013 6:00,3.0000024,140,91,SE,Unknown,21,12,56,1009,-999,8,12
14/6/2013 7:00,3.0000024,140,94,SE,Unknown,22,13,57,1009,-999,7,13
14/6/2013 8:00,4.0000032,140,105,SE,Unknown,24,13,50,1010,-999,7,13
14/6/2013 9:00,3.0000024,150,115,SSE,Unknown,26,13,44,1009,-999,6,13
14/6/2013 10:00,3.0000024,180,130,South,Unknown,27,14,45,1009,-999,6,14
14/6/2013 11:00,3.0000024,160,143,SSE,Haze,28,13,39,1009,-999,5,13
14/6/2013 12:00,3.0000024,140,132,SE,Haze,30,14,37,1009,-999,5,14
14/6/2013 13:00,4.0000032,180,119,South,Haze,30,14,37,1008,-999,5,14
14/6/2013 14:00,5.000004,180,111,South,Unknown,31,14,35,1007,-999,6,14
14/6/2013 15:00,5.000004,200,127,SSW,Unknown,31,13,33,1007,-999,7,13
14/6/2013 16:00,5.000004,190,126,South,Unknown,31,14,35,1006,-999,7,14
14/6/2013 17:00,5.000004,130,132,SE,Unknown,30,15,40,1006,-999,6,15
14/6/2013 18:00,3.0000024,140,127,SE,Haze,29,15,42,1005,-999,4,15
14/6/2013 19:00,3.0000024,150,131,SSE,Unknown,29,14,40,1006,-999,6,14
14/6/2013 20:00,5.000004,140,117,SE,Unknown,27,14,45,1007,-999,8,14
14/6/2013 21:00,4.0000032,140,115,SE,Clear,26,13,44,1007,-999,-9999,13
14/6/2013 22:00,4.0000032,140,105,SE,Clear,24,13,50,1008,-999,-9999,13
14/6/2013 23:00,2.0000016,130,103,SE,Clear,22,13,57,1008,-999,-9999,13
15/6/2013 0:00,3.0000024,130,107,SE,Clear,22,13,57,1007,-999,-9999,13
15/6/2013 1:00,2.0000016,20,101,NNE,Clear,21,13,60,1007,-999,-9999,13
15/6/2013 2:00,2.0000016,20,100,NNE,Clear,19,13,68,1008,-999,-9999,13
15/6/2013 3:00,3.0000024,110,69,ESE,Clear,21,12,56,1007,-999,-9999,12
15/6/2013 4:00,1.0000008,0,70,Variable,Clear,20,12,60,1007,-999,-9999,12
15/6/2013 5:00,2.0000016,100,69,East,Clear,20,13,64,1008,-999,-9999,13
15/6/2013 6:00,1.0000008,0,78,Variable,Unknown,20,14,68,1008,-999,7,14
15/6/2013 7:00,3.0000024,110,93,ESE,Unknown,21,14,64,1008,-999,6,14
15/6/2013 8:00,3.0000024,130,95,SE,Haze,22,14,60,1009,-999,5,14
15/6/2013 9:00,2.0000016,140,108,SE,Haze,24,15,57,1009,-999,5,15
15/6/2013 10:00,2.0000016,80,123,East,Haze,25,15,54,1008,-999,5,15
15/6/2013 11:00,2.0000016,110,129,ESE,Haze,26,15,51,1008,-999,5,15
15/6/2013 12:00,1.0000008,0,132,Variable,Haze,28,15,45,1007,-999,5,15
15/6/2013 13:00,2.0000016,180,141,South,Haze,29,15,42,1006,-999,5,15
15/6/2013 14:00,2.0000016,0,151,Variable,Haze,30,16,43,1006,-999,5,16
15/6/2013 15:00,2.0000016,110,144,ESE,Haze,31,15,38,1006,-999,5,15
15/6/2013 16:00,2.0000016,140,140,SE,Haze,31,16,40,1005,-999,4,16
15/6/2013 17:00,3.0000024,140,148,SE,Haze,31,16,40,1005,-999,5,16
15/6/2013 18:00,2.0000016,140,168,SE,Haze,30,18,48,1005,-999,5,18
15/6/2013 19:00,2.0000016,110,197,ESE,Haze,29,19,55,1005,-999,5,19
15/6/2013 20:00,2.0000016,100,203,East,Haze,28,19,58,1005,-999,4.5,19
15/6/2013 21:00,3.0000024,110,157,ESE,Haze,27,18,58,1006,-999,4.5,18
15/6/2013 22:00,2.0000016,110,146,ESE,Haze,26,16,54,1006,-999,5,16
15/6/2013 23:00,2.0000016,110,148,ESE,Haze,25,15,54,1006,-999,5,15
16/6/2013 0:00,1.0000008,0,138,Variable,Haze,24,16,61,1006,-999,5,16
16/6/2013 1:00,1.0000008,0,147,Variable,Unknown,23,16,65,1005,-999,6,16
16/6/2013 2:00,1.0000008,60,133,ENE,Unknown,23,16,65,1005,-999,6,16
16/6/2013 3:00,2.0000016,110,131,ESE,Unknown,24,15,57,1004,-999,7,15
16/6/2013 4:00,2.0000016,90,138,East,Unknown,23,16,65,1004,-999,6,16
16/6/2013 5:00,2.0000016,110,140,ESE,Haze,23,17,69,1004,-999,5,17
16/6/2013 6:00,4.0000032,120,154,ESE,Haze,23,17,69,1004,-999,3.5,17
16/6/2013 7:00,2.0000016,110,152,ESE,Mist,23,18,73,1004,-999,-9999,18
16/6/2013 8:00,4.0000032,120,160,ESE,Mist,23,18,73,1004,-999,3,18
16/6/2013 9:00,2.0000016,110,165,ESE,Mist,24,19,73,1004,-999,2.8,19
16/6/2013 10:00,2.0000016,100,181,East,Mist,24,19,73,1004,-999,2.8,19
16/6/2013 11:00,2.0000016,110,196,ESE,Light Rain Showers,23,20,83,1003,-999,2.5,20
16/6/2013 12:00,2.0000016,110,200,ESE,Light Rain Showers,23,20,83,1003,-999,2.3,20
16/6/2013 13:00,3.0000024,360,201,North,Light Rain Showers,22,20,88,1003,-999,2,20
16/6/2013 14:00,2.0000016,40,200,NE,Light Rain Showers,21,20,94,1002,-999,1.8,20
16/6/2013 15:00,2.0000016,20,198,NNE,Mist,22,20,88,1002,-999,2,20
16/6/2013 16:00,3.0000024,360,199,North,Mist,22,20,88,1002,-999,1.8,20
16/6/2013 17:00,3.0000024,360,205,North,Mist,22,20,88,1001,-999,1.6,20
16/6/2013 18:00,2.0000016,360,199,North,Mist,22,20,88,1002,-999,2,20
16/6/2013 19:00,3.0000024,360,209,North,Light Rain Showers,21,20,94,1002,-999,2,20
16/6/2013 20:00,3.0000024,10,199,North,Mist,22,20,88,1003,-999,2.3,20
16/6/2013 21:00,3.0000024,10,190,North,Mist,22,19,83,1004,-999,2.5,19
16/6/2013 22:00,3.0000024,30,189,NNE,Mist,22,20,88,1003,-999,2.8,20
16/6/2013 23:00,5.000004,20,163,NNE,Light Rain Showers,22,19,83,1003,-999,3.5,19
17/6/2013 0:00,5.000004,20,101,NNE,Mist,22,19,83,1003,-999,4.5,19
17/6/2013 1:00,4.0000032,20,50,NNE,Clear,21,18,83,1003,-999,-9999,18
17/6/2013 2:00,4.0000032,30,41,NNE,Clear,21,17,78,1003,-999,-9999,17
17/6/2013 3:00,4.0000032,20,43,NNE,Clear,21,17,78,1003,-999,-9999,17
17/6/2013 4:00,4.0000032,20,25,NNE,Clear,21,17,78,1002,-999,-9999,17
17/6/2013 5:00,3.0000024,10,17,North,Clear,20,17,83,1003,-999,-9999,17
17/6/2013 6:00,3.0000024,10,14,North,Clear,21,17,78,1003,-999,-9999,17
17/6/2013 7:00,2.0000016,10,16,North,Clear,22,17,73,1003,-999,-9999,17
17/6/2013 8:00,4.0000032,30,20,NNE,Clear,24,17,65,1003,-999,-9999,17
17/6/2013 9:00,4.0000032,30,8,NNE,Clear,26,16,54,1003,-999,-9999,16
17/6/2013 10:00,3.0000024,50,14,NE,Clear,27,16,51,1002,-999,-9999,16
17/6/2013 11:00,2.0000016,50,18,NE,Clear,27,14,45,1002,-999,-9999,14
17/6/2013 12:00,1.0000008,0,16,Variable,Clear,27,15,48,1002,-999,-9999,15
17/6/2013 13:00,2.0000016,170,17,South,Clear,29,16,45,1001,-999,-9999,16
17/6/2013 14:00,2.0000016,140,29,SE,Clear,30,14,37,1001,-999,-9999,14
17/6/2013 15:00,3.0000024,0,39,Variable,Clear,31,15,38,1000,-999,-9999,15
17/6/2013 16:00,3.0000024,190,40,South,Clear,31,15,38,1000,-999,-9999,15
17/6/2013 17:00,3.0000024,180,41,South,Clear,30,16,43,999,-999,-9999,16
17/6/2013 18:00,3.0000024,160,46,SSE,Clear,29,16,45,999,-999,-9999,16
17/6/2013 19:00,3.0000024,190,55,South,Clear,28,15,45,999,-999,-9999,15
17/6/2013 20:00,4.0000032,190,57,South,Clear,27,17,54,1000,-999,-9999,17
17/6/2013 21:00,3.0000024,190,52,South,Clear,27,17,54,1000,-999,-9999,17
17/6/2013 22:00,3.0000024,200,52,SSW,Clear,27,16,51,1000,-999,-9999,16
17/6/2013 23:00,3.0000024,210,49,SSW,Clear,27,15,48,1000,-999,-9999,15
18/6/2013 0:00,1.0000008,0,54,Variable,Clear,24,17,65,999,-999,-9999,17
18/6/2013 1:00,1.0000008,0,62,Variable,Clear,24,18,69,999,-999,-9999,18
18/6/2013 2:00,1.0000008,110,55,ESE,Clear,23,18,73,999,-999,-9999,18
18/6/2013 3:00,1.0000008,40,68,NE,Clear,22,18,78,999,-999,-9999,18
18/6/2013 4:00,2.0000016,10,66,North,Unknown,22,19,83,998,-999,8,19
18/6/2013 5:00,1.0000008,80,67,East,Unknown,22,19,83,998,-999,7,19
18/6/2013 6:00,1.0000008,60,80,ENE,Unknown,23,20,83,998,-999,6,20
18/6/2013 7:00,1.0000008,0,74,Variable,Unknown,26,20,69,998,-999,6,20
18/6/2013 8:00,1.0000008,0,64,Variable,Unknown,27,20,65,998,-999,7,20
18/6/2013 9:00,1.0000008,0,23,Variable,Unknown,29,17,48,998,-999,7,17
18/6/2013 10:00,3.0000024,200,31,SSW,Unknown,30,16,43,998,-999,8,16
18/6/2013 11:00,4.0000032,220,28,SW,Clear,32,12,29,997,-999,-9999,12
18/6/2013 12:00,5.000004,180,48,South,Clear,33,12,28,997,-999,-9999,12
18/6/2013 13:00,5.000004,180,37,South,Clear,33,13,29,996,-999,-9999,13
18/6/2013 14:00,6.0000048,210,39,SSW,Clear,33,14,31,995,-999,-9999,14
18/6/2013 15:00,6.0000048,190,33,South,Clear,33,13,29,995,-999,-9999,13
18/6/2013 16:00,5.000004,200,35,SSW,Clear,33,12,28,994,-999,-9999,12
18/6/2013 17:00,5.000004,210,40,SSW,Clear,33,12,28,995,-999,-9999,12
18/6/2013 18:00,4.0000032,200,45,SSW,Clear,32,12,29,995,-999,-9999,12
18/6/2013 19:00,4.0000032,180,51,South,Clear,30,13,35,996,-999,-9999,13
18/6/2013 20:00,2.0000016,130,62,SE,Clear,28,16,48,997,-999,-9999,16
18/6/2013 21:00,2.0000016,60,66,ENE,Clear,27,17,54,998,-999,-9999,17
18/6/2013 22:00,2.0000016,90,75,East,Clear,27,17,54,1000,-999,-9999,17
18/6/2013 23:00,3.0000024,120,86,ESE,Unknown,25,18,65,1000,-999,8,18
19/6/2013 0:00,2.0000016,130,76,SE,Unknown,24,18,69,1001,-999,7,18
19/6/2013 1:00,1.0000008,0,70,Variable,Unknown,23,18,73,1001,-999,7,18
19/6/2013 2:00,1.0000008,0,69,Variable,Clear,22,18,78,1002,-999,-9999,18
19/6/2013 3:00,1.0000008,20,78,NNE,Clear,21,18,83,1002,-999,-9999,18
19/6/2013 4:00,1.0000008,90,86,East,Clear,21,18,83,1002,-999,-9999,18
19/6/2013 5:00,1.0000008,0,85,Variable,Mist,21,18,83,1002,-999,5,18
19/6/2013 6:00,0,0,89,North,Mist,22,19,83,1003,-999,5,19
19/6/2013 7:00,2.0000016,10,94,North,Unknown,25,19,69,1003,-999,6,19
19/6/2013 8:00,3.0000024,360,67,North,Unknown,27,19,61,1003,-999,6,19
19/6/2013 9:00,2.0000016,340,47,NNW,Unknown,30,19,51,1003,-999,6,19
19/6/2013 10:00,3.0000024,350,34,North,Clear,32,17,40,1003,-999,-9999,17
19/6/2013 11:00,1.0000008,0,21,Variable,Clear,32,13,31,1003,-999,-9999,13
19/6/2013 12:00,3.0000024,0,22,Variable,Clear,34,11,24,1003,-999,-9999,11
19/6/2013 13:00,2.0000016,0,18,Variable,Clear,35,11,23,1002,-999,-9999,11
19/6/2013 14:00,2.0000016,50,20,NE,Clear,35,9,20,1002,-999,-9999,9
19/6/2013 15:00,3.0000024,120,16,ESE,Clear,36,8,18,1001,-999,-9999,8
19/6/2013 16:00,2.0000016,310,16,NW,Clear,36,6,16,1001,-999,-9999,6
19/6/2013 17:00,2.0000016,150,21,SSE,Clear,35,9,20,1001,-999,-9999,9
19/6/2013 18:00,2.0000016,130,36,SE,Clear,33,10,24,1001,-999,-9999,10
19/6/2013 19:00,1.0000008,120,44,ESE,Clear,31,13,33,1002,-999,-9999,13
19/6/2013 20:00,3.0000024,190,48,South,Clear,33,10,24,1002,-999,-9999,10
19/6/2013 21:00,3.0000024,0,56,Variable,Clear,32,12,29,1002,-999,-9999,12
19/6/2013 22:00,2.0000016,190,59,South,Clear,31,13,33,1003,-999,-9999,13
19/6/2013 23:00,1.0000008,0,64,Variable,Clear,28,17,51,1003,-999,-9999,17
20/6/2013 0:00,2.0000016,100,58,East,Clear,28,16,48,1003,-999,-9999,16
20/6/2013 1:00,2.0000016,70,95,ENE,Clear,26,17,57,1003,-999,-9999,17
20/6/2013 2:00,2.0000016,100,108,East,Clear,26,17,57,1004,-999,-9999,17
20/6/2013 3:00,1.0000008,50,105,NE,Clear,25,18,65,1004,-999,-9999,18
20/6/2013 4:00,1.0000008,0,128,Variable,Clear,25,19,69,1005,-999,-9999,19
20/6/2013 5:00,2.0000016,10,124,North,Clear,24,19,73,1005,-999,-9999,19
20/6/2013 6:00,2.0000016,10,95,North,Clear,24,19,73,1005,-999,-9999,19
20/6/2013 7:00,2.0000016,360,41,North,Clear,24,19,73,1006,-999,-9999,19
20/6/2013 8:00,1.0000008,10,37,North,Clear,25,19,69,1007,-999,-9999,19
20/6/2013 9:00,2.0000016,60,39,ENE,Partly Cloudy,27,18,58,1007,-999,10,18
20/6/2013 10:00,3.0000024,30,,NNE,Partly Cloudy,29,17,48,1007,-999,10,17
20/6/2013 11:00,4.0000032,20,,NNE,Partly Cloudy,30,15,40,1007,-999,10,15
20/6/2013 12:00,3.0000024,40,38,NE,Scattered Clouds,31,14,35,1007,-999,10,14
20/6/2013 13:00,1.0000008,30,30,NNE,Partly Cloudy,31,14,35,1007,-999,10,14
20/6/2013 14:00,2.0000016,180,34,South,Scattered Clouds,31,15,38,1007,-999,10,15
20/6/2013 15:00,2.0000016,150,51,SSE,Partly Cloudy,31,15,38,1007,-999,10,15
20/6/2013 16:00,3.0000024,210,68,SSW,Scattered Clouds,30,14,37,1007,-999,10,14
20/6/2013 17:00,3.0000024,210,118,SSW,Mostly Cloudy,30,16,43,1007,-999,10,16
20/6/2013 18:00,2.0000016,170,77,South,Mostly Cloudy,28,19,58,1008,-999,6,19
20/6/2013 19:00,3.0000024,180,212,South,Mostly Cloudy,27,17,54,1008,-999,6,17
20/6/2013 20:00,1.0000008,0,188,Variable,Scattered Clouds,26,15,51,1008,-999,6,15
20/6/2013 21:00,2.0000016,170,146,South,Mostly Cloudy,26,16,54,1009,-999,6,16
20/6/2013 22:00,3.0000024,200,129,SSW,Mostly Cloudy,27,17,54,1009,-999,7,17
20/6/2013 23:00,1.0000008,0,102,Variable,Scattered Clouds,26,18,61,1009,-999,7,18
21/6/2013 0:00,1.0000008,60,123,ENE,Unknown,24,18,69,1009,-999,7,18
21/6/2013 1:00,2.0000016,160,132,SSE,Unknown,24,18,69,1009,-999,6,18
21/6/2013 2:00,1.0000008,0,155,Variable,Unknown,23,18,73,1009,-999,6,18
21/6/2013 3:00,2.0000016,90,165,East,Unknown,22,18,78,1009,-999,6,18
21/6/2013 4:00,1.0000008,60,154,ENE,Mist,21,18,83,1009,-999,5,18
21/6/2013 5:00,1.0000008,80,69,East,Mist,22,18,78,1009,-999,5,18
21/6/2013 6:00,0,0,58,North,Mist,22,19,83,1010,-999,4,19
21/6/2013 7:00,2.0000016,10,88,North,Haze,24,19,73,1010,-999,5,19
21/6/2013 8:00,2.0000016,360,122,North,Haze,26,18,61,1010,-999,5,18
21/6/2013 9:00,1.0000008,0,105,Variable,Unknown,28,18,54,1010,-999,6,18
21/6/2013 10:00,3.0000024,350,84,North,Clear,30,17,45,1010,-999,-9999,17
21/6/2013 11:00,3.0000024,250,52,WSW,Clear,31,16,40,1010,-999,-9999,16
21/6/2013 12:00,3.0000024,240,32,WSW,Clear,32,15,36,1009,-999,-9999,15
21/6/2013 13:00,3.0000024,230,30,SW,Clear,32,16,38,1009,-999,-9999,16
21/6/2013 14:00,6.0000048,210,46,SSW,Clear,32,14,33,1008,-999,-9999,14
21/6/2013 15:00,7.0000056,210,67,SSW,Clear,31,14,35,1008,-999,-9999,14
21/6/2013 16:00,6.0000048,220,67,SW,Clear,29,17,48,1008,-999,-9999,17
21/6/2013 17:00,5.000004,220,67,SW,Clear,28,17,51,1008,-999,-9999,17
21/6/2013 18:00,4.0000032,210,70,SSW,Clear,28,18,54,1008,-999,-9999,18
21/6/2013 19:00,5.000004,220,48,SW,Clear,27,17,54,1008,-999,-9999,17
21/6/2013 20:00,5.000004,200,29,SSW,Clear,26,16,54,1008,-999,-9999,16
21/6/2013 21:00,4.0000032,210,28,SSW,Clear,26,15,51,1008,-999,-9999,15
21/6/2013 22:00,2.0000016,170,29,South,Clear,25,15,54,1009,-999,-9999,15
21/6/2013 23:00,2.0000016,180,42,South,Clear,24,14,53,1009,-999,-9999,14
22/6/2013 0:00,2.0000016,160,37,SSE,Clear,24,16,61,1009,-999,-9999,16
22/6/2013 1:00,2.0000016,130,42,SE,Clear,23,16,65,1009,-999,-9999,16
22/6/2013 2:00,2.0000016,90,45,East,Clear,23,16,65,1008,-999,-9999,16
22/6/2013 3:00,2.0000016,70,47,ENE,Clear,23,16,65,1008,-999,-9999,16
22/6/2013 4:00,2.0000016,140,61,SE,Clear,22,17,73,1008,-999,-9999,17
22/6/2013 5:00,2.0000016,160,79,SSE,Light Rain Showers,22,17,73,1008,-999,10,17
22/6/2013 6:00,1.0000008,0,98,Variable,Light Rain Showers,21,18,83,1009,-999,7,18
22/6/2013 7:00,1.0000008,0,108,Variable,Light Rain,21,19,88,1009,-999,-9999,19
22/6/2013 8:00,2.0000016,60,85,ENE,Light Rain,21,20,94,1010,-999,3.5,20
22/6/2013 9:00,2.0000016,10,70,North,Light Rain,21,20,94,1010,-999,3.5,20
22/6/2013 10:00,3.0000024,10,63,North,Light Rain,21,20,94,1010,-999,3.5,20
22/6/2013 11:00,3.0000024,10,54,North,Light Rain,21,19,88,1009,-999,3.5,19
22/6/2013 12:00,3.0000024,20,40,NNE,Light Rain,21,20,94,1009,-999,4,20
22/6/2013 13:00,4.0000032,30,45,NNE,Unknown,22,18,78,1008,-999,7,18
22/6/2013 14:00,3.0000024,30,56,NNE,Light Rain,22,19,83,1008,-999,6,19
22/6/2013 15:00,3.0000024,30,69,NNE,Mist,22,19,83,1007,-999,5,19
22/6/2013 16:00,2.0000016,40,69,NE,Unknown,22,19,83,1007,-999,7,19
22/6/2013 17:00,1.0000008,140,59,SE,Unknown,23,19,78,1007,-999,7,19
22/6/2013 18:00,2.0000016,160,57,SSE,Clear,22,19,83,1007,-999,-9999,19
22/6/2013 19:00,1.0000008,160,54,SSE,Clear,22,19,83,1007,-999,-9999,19
22/6/2013 20:00,3.0000024,200,45,SSW,Clear,21,19,88,1007,-999,-9999,19
22/6/2013 21:00,2.0000016,210,44,SSW,Clear,21,18,83,1007,-999,-9999,18
22/6/2013 22:00,2.0000016,220,51,SW,Clear,21,18,83,1008,-999,-9999,18
22/6/2013 23:00,1.0000008,0,57,Variable,Clear,20,18,88,1007,-999,-9999,18
23/6/2013 0:00,1.0000008,90,85,East,Clear,20,18,88,1007,-999,-9999,18
23/6/2013 1:00,1.0000008,80,91,East,Clear,20,19,94,1006,-999,-9999,19
23/6/2013 2:00,1.0000008,140,90,SE,Clear,20,18,88,1006,-999,-9999,18
23/6/2013 3:00,1.0000008,160,94,SSE,Unknown,20,18,88,1006,-999,8,18
23/6/2013 4:00,1.0000008,90,103,East,Unknown,20,19,94,1006,-999,6,19
23/6/2013 5:00,1.0000008,70,103,ENE,Mist,20,19,94,1005,-999,5,19
23/6/2013 6:00,0,0,113,North,Mist,20,19,94,1005,-999,4,19
23/6/2013 7:00,2.0000016,340,87,NNW,Mist,22,19,83,1005,-999,4,19
23/6/2013 8:00,2.0000016,340,61,NNW,Mist,24,19,73,1005,-999,5,19
23/6/2013 9:00,2.0000016,20,55,NNE,Unknown,25,18,65,1005,-999,7,18
23/6/2013 10:00,1.0000008,0,40,Variable,Clear,27,18,58,1004,-999,-9999,18
23/6/2013 11:00,1.0000008,0,33,Variable,Clear,28,16,48,1004,-999,-9999,16
23/6/2013 12:00,3.0000024,350,39,North,Clear,31,15,38,1003,-999,-9999,15
23/6/2013 13:00,2.0000016,0,33,Variable,Clear,30,13,35,1003,-999,-9999,13
23/6/2013 14:00,3.0000024,0,32,Variable,Clear,31,14,35,1002,-999,-9999,14
23/6/2013 15:00,3.0000024,150,40,SSE,Clear,31,13,33,1001,-999,-9999,13
23/6/2013 16:00,3.0000024,150,59,SSE,Clear,31,13,33,1001,-999,-9999,13
23/6/2013 17:00,3.0000024,140,65,SE,Clear,31,14,35,1000,-999,-9999,14
23/6/2013 18:00,3.0000024,190,67,South,Clear,30,16,43,1001,-999,-9999,16
23/6/2013 19:00,4.0000032,190,60,South,Clear,29,17,48,1001,-999,-9999,17
23/6/2013 20:00,4.0000032,180,60,South,Clear,27,18,58,1001,-999,-9999,18
23/6/2013 21:00,4.0000032,190,68,South,Clear,27,17,54,1002,-999,-9999,17
23/6/2013 22:00,4.0000032,200,86,SSW,Clear,27,17,54,1003,-999,-9999,17
23/6/2013 23:00,2.0000016,160,88,SSE,Clear,25,18,65,1003,-999,-9999,18
24/6/2013 0:00,3.0000024,150,75,SSE,Clear,24,18,69,1003,-999,-9999,18
24/6/2013 1:00,3.0000024,140,46,SE,Unknown,24,18,69,1003,-999,7,18
24/6/2013 2:00,2.0000016,120,50,ESE,Unknown,23,18,73,1003,-999,6,18
24/6/2013 3:00,3.0000024,130,57,SE,Mist,22,19,83,1002,-999,4,19
24/6/2013 4:00,1.0000008,0,67,Variable,Mist,21,19,88,1003,-999,-9999,19
24/6/2013 5:00,2.0000016,80,66,East,Mist,21,20,94,1003,-999,1.2,20
24/6/2013 6:00,3.0000024,110,176,ESE,Fog,21,20,94,1003,-999,0.6,20
24/6/2013 7:00,2.0000016,110,248,ESE,Fog,22,20,88,1003,-999,0.7,20
24/6/2013 8:00,3.0000024,140,194,SE,Mist,24,20,78,1004,-999,1.3,20
24/6/2013 9:00,2.0000016,120,153,ESE,Mist,26,20,69,1004,-999,2.3,20
24/6/2013 10:00,4.0000032,110,143,ESE,Haze,27,20,65,1002,-999,-9999,20
24/6/2013 11:00,3.0000024,130,147,SE,Haze,27,20,65,1003,-999,-9999,20
24/6/2013 12:00,4.0000032,150,148,SSE,Haze,28,20,62,1003,-999,3,20
24/6/2013 13:00,3.0000024,140,125,SE,Haze,28,21,66,1002,-999,3,21
24/6/2013 14:00,4.0000032,140,126,SE,Haze,29,20,58,1002,-999,2.8,20
24/6/2013 15:00,4.0000032,190,110,South,Haze,29,20,58,1001,-999,4.5,20
24/6/2013 16:00,3.0000024,170,120,South,Haze,29,20,58,1000,-999,4.5,20
24/6/2013 17:00,5.000004,170,122,South,Haze,29,20,58,1000,-999,5,20
24/6/2013 18:00,4.0000032,180,122,South,Haze,29,20,58,1000,-999,5,20
24/6/2013 19:00,3.0000024,150,120,SSE,Light Thunderstorms and Rain,28,21,66,1000,-999,3.5,21
24/6/2013 20:00,6.0000048,320,45,NW,Light Thunderstorms and Rain,22,21,94,1001,-999,8,21
24/6/2013 21:00,3.0000024,150,45,SSE,Light Rain Showers,22,20,88,1000,-999,8,20
24/6/2013 22:00,1.0000008,0,58,Variable,Clear,22,20,88,1002,-999,-9999,20
24/6/2013 23:00,2.0000016,60,48,ENE,Clear,21,19,88,1002,-999,-9999,19
25/6/2013 0:00,1.0000008,0,50,Variable,Clear,21,19,88,1002,-999,-9999,19
25/6/2013 1:00,1.0000008,0,52,Variable,Clear,21,20,94,1002,-999,-9999,20
25/6/2013 2:00,1.0000008,0,58,Variable,Clear,21,20,94,1002,-999,-9999,20
25/6/2013 3:00,2.0000016,360,64,North,Unknown,21,20,94,1003,-999,8,20
25/6/2013 4:00,2.0000016,110,73,ESE,Thunderstorm,21,20,94,1002,-999,6,20
25/6/2013 5:00,2.0000016,50,82,NE,Overcast,21,20,94,1001,-999,5,20
25/6/2013 6:00,1.0000008,0,103,Variable,Scattered Clouds,22,20,88,1001,-999,3.5,20
25/6/2013 7:00,1.0000008,40,120,NE,Scattered Clouds,22,20,88,1001,-999,3.5,20
25/6/2013 8:00,1.0000008,0,127,Variable,Partly Cloudy,22,20,88,1001,-999,3,20
25/6/2013 9:00,1.0000008,0,150,Variable,Light Rain,22,20,88,1001,-999,2,20
25/6/2013 10:00,2.0000016,70,168,ENE,Overcast,23,20,83,1001,-999,2.5,20
25/6/2013 11:00,2.0000016,70,161,ENE,Overcast,23,21,88,1001,-999,2.5,21
25/6/2013 12:00,2.0000016,110,103,ESE,Overcast,23,20,83,1001,-999,2.8,20
25/6/2013 13:00,1.0000008,0,113,Variable,Overcast,23,20,83,1000,-999,2.8,20
25/6/2013 14:00,1.0000008,0,128,Variable,Overcast,24,20,78,1000,-999,2.8,20
25/6/2013 15:00,3.0000024,110,139,ESE,Overcast,24,20,78,999,-999,3,20
25/6/2013 16:00,2.0000016,130,162,SE,Overcast,24,21,83,998,-999,2.7,21
25/6/2013 17:00,2.0000016,120,183,ESE,Mostly Cloudy,23,21,88,998,-999,2,21
25/6/2013 18:00,2.0000016,190,189,South,Light Rain Showers,23,21,88,999,-999,1.7,21
25/6/2013 19:00,6.0000048,10,166,North,Light Thunderstorms and Rain,22,21,94,999,-999,1.5,21
25/6/2013 20:00,4.0000032,150,172,SSE,Light Rain Showers,22,21,94,998,-999,1.5,21
25/6/2013 21:00,2.0000016,190,159,South,Overcast,22,21,94,998,-999,1.7,21
25/6/2013 22:00,2.0000016,220,164,SW,Overcast,23,21,88,998,-999,1.7,21
25/6/2013 23:00,2.0000016,170,171,South,Overcast,22,21,94,1000,-999,1.7,21
26/6/2013 0:00,2.0000016,120,171,ESE,Overcast,22,21,94,999,-999,1.7,21
26/6/2013 1:00,1.0000008,0,166,Variable,Overcast,22,20,88,998,-999,1.7,20
26/6/2013 2:00,1.0000008,0,158,Variable,Overcast,22,21,94,998,-999,1.8,21
26/6/2013 3:00,2.0000016,70,161,ENE,Overcast,21,19,88,998,-999,3.5,19
26/6/2013 4:00,1.0000008,0,178,Variable,Overcast,21,19,88,998,-999,3,19
26/6/2013 5:00,1.0000008,0,186,Variable,Overcast,21,20,94,998,-999,2,20
26/6/2013 6:00,1.0000008,0,188,Variable,Overcast,21,20,94,998,-999,1.4,20
26/6/2013 7:00,1.0000008,0,186,Variable,Overcast,22,21,94,998,-999,1.2,21
26/6/2013 8:00,1.0000008,0,189,Variable,Overcast,22,21,94,998,-999,1.4,21
26/6/2013 9:00,2.0000016,110,187,ESE,Overcast,23,21,88,998,-999,1.5,21
26/6/2013 10:00,2.0000016,150,177,SSE,Mist,25,21,78,998,-999,1.8,21
26/6/2013 11:00,3.0000024,160,172,SSE,Mist,26,21,74,998,-999,1.8,21
26/6/2013 12:00,2.0000016,130,167,SE,Haze,28,21,66,997,-999,2,21
26/6/2013 13:00,3.0000024,160,147,SSE,Haze,29,22,66,997,-999,2.7,22
26/6/2013 14:00,3.0000024,190,111,South,Haze,29,21,62,996,-999,3,21
26/6/2013 15:00,4.0000032,170,87,South,Haze,31,21,55,995,-999,3.5,21
26/6/2013 16:00,6.0000048,180,87,South,Haze,31,21,55,994,-999,4.5,21
26/6/2013 17:00,5.000004,190,86,South,Unknown,31,22,58,994,-999,6,22
26/6/2013 18:00,4.0000032,180,94,South,Unknown,31,22,58,994,-999,6,22
26/6/2013 19:00,2.0000016,140,101,SE,Unknown,30,22,62,995,-999,6,22
26/6/2013 20:00,3.0000024,110,119,ESE,Haze,29,22,66,996,-999,5,22
26/6/2013 21:00,5.000004,120,137,ESE,Haze,28,22,70,997,-999,4.5,22
26/6/2013 22:00,4.0000032,110,254,ESE,Haze,27,22,74,997,-999,4,22
26/6/2013 23:00,3.0000024,20,277,NNE,Unknown,24,20,78,997,-999,6,20
27/6/2013 0:00,1.0000008,80,184,East,Mist,24,21,83,998,-999,5,21
27/6/2013 1:00,2.0000016,20,111,NNE,Unknown,23,19,78,997,-999,7,19
27/6/2013 2:00,4.0000032,350,93,North,Clear,23,19,78,997,-999,-9999,19
27/6/2013 3:00,1.0000008,0,62,Variable,Clear,21,19,88,997,-999,-9999,19
27/6/2013 4:00,1.0000008,90,58,East,Clear,22,19,83,997,-999,-9999,19
27/6/2013 5:00,6.0000048,340,64,NNW,Clear,23,19,78,998,-999,-9999,19
27/6/2013 6:00,1.0000008,0,89,Variable,Clear,22,19,83,998,-999,-9999,19
27/6/2013 7:00,3.0000024,360,165,North,Unknown,24,20,78,998,-999,6,20
27/6/2013 8:00,3.0000024,360,183,North,Unknown,26,20,69,999,-999,7,20
27/6/2013 9:00,2.0000016,360,145,North,Clear,28,19,58,998,-999,-9999,19
27/6/2013 10:00,3.0000024,350,54,North,Clear,28,18,54,998,-999,-9999,18
27/6/2013 11:00,3.0000024,360,40,North,Clear,31,17,43,998,-999,-9999,17
27/6/2013 12:00,3.0000024,40,29,NE,Clear,32,13,31,998,-999,-9999,13
27/6/2013 13:00,3.0000024,150,26,SSE,Clear,33,14,31,998,-999,-9999,14
27/6/2013 14:00,2.0000016,0,29,Variable,Partly Cloudy,33,13,29,997,-999,10,13
27/6/2013 15:00,3.0000024,0,42,Variable,Partly Cloudy,34,15,32,997,-999,10,15
27/6/2013 16:00,2.0000016,130,50,SE,Partly Cloudy,33,15,34,997,-999,10,15
27/6/2013 17:00,3.0000024,70,56,ENE,Clear,32,16,38,996,-999,-9999,16
27/6/2013 18:00,3.0000024,100,88,East,Clear,32,18,43,996,-999,-9999,18
27/6/2013 19:00,2.0000016,120,96,ESE,Unknown,30,20,55,998,-999,8,20
27/6/2013 20:00,1.0000008,0,103,Variable,Unknown,29,20,58,998,-999,8,20
27/6/2013 21:00,2.0000016,90,124,East,Mist,28,22,70,998,-999,5,22
27/6/2013 22:00,2.0000016,110,150,ESE,Haze,28,21,66,999,-999,5,21
27/6/2013 23:00,1.0000008,70,184,ENE,Mist,27,22,74,999,-999,4,22
28/6/2013 0:00,3.0000024,120,248,ESE,Mist,27,23,79,1000,-999,2.2,23
28/6/2013 1:00,3.0000024,110,339,ESE,Partly Cloudy,26,22,78,1000,-999,1.7,22
28/6/2013 2:00,4.0000032,120,342,ESE,Mist,26,22,78,1000,-999,2.2,22
28/6/2013 3:00,1.0000008,0,292,Variable,Mist,25,22,83,1000,-999,2.5,22
28/6/2013 4:00,1.0000008,70,277,ENE,Mist,24,22,89,1000,-999,2.3,22
28/6/2013 5:00,2.0000016,100,265,East,Mist,24,22,89,1001,-999,1.8,22
28/6/2013 6:00,3.0000024,110,257,ESE,Mist,25,22,83,1001,-999,1.4,22
28/6/2013 7:00,4.0000032,110,240,ESE,Mist,25,22,83,1002,-999,1.3,22
28/6/2013 8:00,5.000004,120,243,ESE,Mist,25,21,78,1002,-999,1.4,21
28/6/2013 9:00,4.0000032,120,229,ESE,Mist,25,21,78,1002,-999,2,21
28/6/2013 10:00,3.0000024,140,247,SE,Mist,25,22,83,1002,-999,2,22
28/6/2013 11:00,3.0000024,130,230,SE,Mist,26,22,78,1002,-999,1.7,22
28/6/2013 12:00,3.0000024,130,242,SE,Mist,26,21,74,1002,-999,1.6,21
28/6/2013 13:00,3.0000024,150,297,SSE,Mist,27,22,74,1001,-999,1.4,22
28/6/2013 14:00,4.0000032,160,369,SSE,Mist,27,22,74,1001,-999,1.4,22
28/6/2013 15:00,3.0000024,160,428,SSE,Mist,27,22,74,1000,-999,1.3,22
28/6/2013 16:00,4.0000032,130,432,SE,Mist,27,22,74,999,-999,1.3,22
28/6/2013 17:00,3.0000024,120,441,ESE,Mist,27,22,74,999,-999,1.2,22
28/6/2013 18:00,2.0000016,110,466,ESE,Mist,27,22,74,1000,-999,1.2,22
28/6/2013 19:00,1.0000008,0,448,Variable,Light Rain Showers,27,23,79,1000,-999,1.5,23
28/6/2013 20:00,3.0000024,120,406,ESE,Overcast,26,23,83,999,-999,1.7,23
28/6/2013 21:00,1.0000008,0,267,Variable,Mostly Cloudy,25,23,89,1000,-999,1.7,23
28/6/2013 22:00,2.0000016,10,37,North,Light Thunderstorms and Rain,20,19,94,1002,-999,7,19
28/6/2013 23:00,2.0000016,0,25,Variable,Light Thunderstorms and Rain,21,19,88,1001,-999,8,19
29/6/2013 0:00,3.0000024,80,34,East,Thunderstorm,22,20,88,1002,-999,8,20
29/6/2013 1:00,1.0000008,0,52,Variable,Thunderstorm,21,20,94,1002,-999,8,20
29/6/2013 2:00,2.0000016,60,68,ENE,Unknown,21,20,94,1002,-999,8,20
29/6/2013 3:00,2.0000016,110,68,ESE,Unknown,21,20,94,1002,-999,8,20
29/6/2013 4:00,0,0,72,North,Unknown,21,20,94,1002,-999,6,20
29/6/2013 5:00,0,0,70,North,Mist,21,20,94,1003,-999,4.5,20
29/6/2013 6:00,2.0000016,190,63,South,Mist,22,20,88,1004,-999,3.5,20
29/6/2013 7:00,1.0000008,0,65,Variable,Light Rain Showers,22,20,88,1004,-999,5,20
29/6/2013 8:00,2.0000016,80,63,East,Mist,22,20,88,1004,-999,5,20
29/6/2013 9:00,2.0000016,110,85,ESE,Mist,22,20,88,1005,-999,5,20
29/6/2013 10:00,2.0000016,50,103,NE,Mist,22,20,88,1005,-999,4,20
29/6/2013 11:00,2.0000016,70,105,ENE,Mist,23,20,83,1005,-999,4,20
29/6/2013 12:00,2.0000016,20,113,NNE,Mist,23,21,88,1005,-999,4,21
29/6/2013 13:00,3.0000024,100,126,East,Mist,24,21,83,1004,-999,2.8,21
29/6/2013 14:00,1.0000008,0,122,Variable,Mist,24,21,83,1004,-999,2.5,21
29/6/2013 15:00,2.0000016,30,133,NNE,Mist,25,22,83,1004,-999,2.8,22
29/6/2013 16:00,3.0000024,360,122,North,Mist,26,22,78,1004,-999,3,22
29/6/2013 17:00,2.0000016,10,120,North,Mist,27,22,74,1004,-999,3,22
29/6/2013 18:00,2.0000016,20,125,NNE,Mist,26,23,83,1004,-999,3,23
29/6/2013 19:00,2.0000016,30,137,NNE,Mist,25,22,83,1004,-999,3,22
29/6/2013 20:00,1.0000008,0,146,Variable,Mist,24,22,89,1005,-999,3,22
29/6/2013 21:00,1.0000008,0,164,Variable,Mist,24,22,89,1005,-999,3,22
29/6/2013 22:00,2.0000016,360,164,North,Mist,23,22,94,1005,-999,3,22
29/6/2013 23:00,1.0000008,0,186,Variable,Mist,23,22,94,1005,-999,3,22
30/6/2013 0:00,2.0000016,360,183,North,Mist,23,22,94,1005,-999,3,22
30/6/2013 1:00,1.0000008,0,185,Variable,Mist,23,21,88,1005,-999,3,21
30/6/2013 2:00,1.0000008,360,189,North,Mist,22,21,94,1004,-999,2,21
30/6/2013 3:00,1.0000008,130,189,SE,Mist,22,21,94,1004,-999,1.8,21
30/6/2013 4:00,1.0000008,0,194,Variable,Mist,22,21,94,1004,-999,1.5,21
30/6/2013 5:00,1.0000008,0,194,Variable,Mist,22,21,94,1004,-999,1.5,21
30/6/2013 6:00,1.0000008,110,190,ESE,Mist,22,21,94,1005,-999,1.5,21
30/6/2013 7:00,3.0000024,150,236,SSE,Mist,23,22,94,1004,-999,1.4,22
30/6/2013 8:00,2.0000016,130,250,SE,Mist,24,22,89,1005,-999,1.3,22
30/6/2013 9:00,2.0000016,150,270,SSE,Mist,24,22,89,1005,-999,1,22
30/6/2013 10:00,3.0000024,150,244,SSE,Mist,25,22,83,1004,-999,1,22
30/6/2013 11:00,4.0000032,140,178,SE,Mist,27,23,79,1004,-999,1,23
30/6/2013 12:00,3.0000024,160,167,SSE,Mist,27,23,79,1004,-999,1.6,23
30/6/2013 13:00,2.0000016,110,156,ESE,Mist,28,24,79,1003,-999,1.8,24
30/6/2013 14:00,3.0000024,140,151,SE,Mist,28,23,74,1002,-999,2,23
30/6/2013 15:00,4.0000032,170,155,South,Mist,28,23,74,1002,-999,2,23
30/6/2013 16:00,2.0000016,140,145,SE,Mist,28,23,74,1002,-999,2,23
30/6/2013 17:00,1.0000008,0,149,Variable,Mist,28,24,79,1003,-999,2,24
30/6/2013 18:00,2.0000016,110,146,ESE,Mist,28,24,79,1001,-999,2,24
30/6/2013 19:00,3.0000024,120,,ESE,Mist,27,24,84,1002,-999,2,24
30/6/2013 20:00,2.0000016,70,,ENE,Mist,27,23,79,1002,-999,2.5,23
30/6/2013 21:00,3.0000024,150,,SSE,Mist,26,23,83,1002,-999,2.5,23
30/6/2013 22:00,1.0000008,0,,Variable,Mist,26,23,83,1003,-999,3,23
30/6/2013 23:00,1.0000008,0,,Variable,Mist,25,23,89,1003,-999,-9999,23
1/7/2013 0:00,1.000000008,0,144,Variable,Mist,25,23,89,1002,-999,-9999,23
1/7/2013 1:00,1.000000008,0,141,Variable,Mist,25,22,83,1001,-999,3.5,22
1/7/2013 2:00,3.000000024,120,156,ESE,Mist,24,22,89,1000,-999,3.5,22
1/7/2013 3:00,1.000000008,0,147,Variable,Light Rain Showers,24,22,89,1000,-999,3,22
1/7/2013 4:00,1.000000008,30,154,NNE,Mist,24,22,89,1000,-999,2.5,22
1/7/2013 5:00,0,0,153,North,Mist,24,22,89,1000,-999,2,22
1/7/2013 6:00,1.000000008,0,152,Variable,Mist,24,22,89,1000,-999,1.7,22
1/7/2013 7:00,2.000000016,110,144,ESE,Mist,25,22,83,1001,-999,1.6,22
1/7/2013 8:00,1.000000008,0,147,Variable,Mist,25,22,83,1001,-999,1.7,22
1/7/2013 9:00,3.000000024,100,143,East,Mist,25,22,83,1001,-999,1.7,22
1/7/2013 10:00,2.000000016,110,150,ESE,Mist,25,22,83,1000,-999,1.7,22
1/7/2013 11:00,1.000000008,0,160,Variable,Mist,26,23,83,1000,-999,1.7,23
1/7/2013 12:00,1.000000008,30,172,NNE,Mist,26,23,83,1000,-999,1.5,23
1/7/2013 13:00,2.000000016,360,183,North,Mist,26,23,83,999,-999,1.5,23
1/7/2013 14:00,3.000000024,70,195,ENE,Mist,26,23,83,998,-999,1.5,23
1/7/2013 15:00,3.000000024,90,191,East,Mist,26,23,83,998,-999,1.5,23
1/7/2013 16:00,2.000000016,70,193,ENE,Mist,26,23,83,998,-999,1.6,23
1/7/2013 17:00,2.000000016,50,199,NE,Mist,25,23,89,997,-999,1.7,23
1/7/2013 18:00,3.000000024,80,156,East,Mist,25,22,83,997,-999,2.8,22
1/7/2013 19:00,3.000000024,70,104,ENE,Partly Cloudy,25,22,83,997,-999,-9999,22
1/7/2013 20:00,2.000000016,90,95,East,Light Rain Showers,24,22,89,996,-999,-9999,22
1/7/2013 21:00,2.000000016,80,69,East,Light Rain Showers,24,22,89,996,-999,4,22
1/7/2013 22:00,2.000000016,90,50,East,Light Thunderstorms and Rain,24,22,89,996,-999,3.5,22
1/7/2013 23:00,3.000000024,40,41,NE,Light Rain Showers,24,23,94,995,-999,3,23
2/7/2013 0:00,5.00000004,10,32,North,Light Rain Showers,23,21,88,994,-999,4.5,21
2/7/2013 1:00,6.000000048,330,19,NNW,Light Rain Showers,21,20,94,995,-999,4.5,20
2/7/2013 2:00,6.000000048,10,18,North,Light Rain Showers,21,19,88,995,-999,10,19
2/7/2013 3:00,3.000000024,360,14,North,Clear,21,19,88,994,-999,-9999,19
2/7/2013 4:00,4.000000032,340,11,NNW,Clear,21,19,88,994,-999,-9999,19
2/7/2013 5:00,2.000000016,360,13,North,Clear,20,18,88,994,-999,-9999,18
2/7/2013 6:00,3.000000024,10,18,North,Clear,22,19,83,994,-999,-9999,19
2/7/2013 7:00,4.000000032,360,15,North,Clear,24,19,73,995,-999,-9999,19
2/7/2013 8:00,2.000000016,350,15,North,Clear,27,19,61,996,-999,-9999,19
2/7/2013 9:00,3.000000024,360,16,North,Clear,28,19,58,996,-999,-9999,19
2/7/2013 10:00,6.000000048,290,11,WNW,Clear,29,17,48,996,-999,-9999,17
2/7/2013 11:00,5.00000004,300,13,WNW,Clear,31,17,43,996,-999,-9999,17
2/7/2013 12:00,7.000000056,290,15,WNW,Clear,32,15,36,996,-999,-9999,15
2/7/2013 13:00,7.000000056,300,9,WNW,Clear,34,15,32,996,-999,-9999,15
2/7/2013 14:00,7.000000056,290,13,WNW,Clear,34,15,32,995,-999,-9999,15
2/7/2013 15:00,6.000000048,260,14,West,Clear,35,15,30,995,-999,-9999,15
2/7/2013 16:00,6.000000048,270,13,West,Clear,36,15,28,994,-999,-9999,15
2/7/2013 17:00,7.000000056,290,18,WNW,Clear,35,14,28,994,-999,-9999,14
2/7/2013 18:00,6.000000048,250,19,WSW,Clear,35,14,28,994,-999,-9999,14
2/7/2013 19:00,4.000000032,210,24,SSW,Clear,34,16,34,994,-999,-9999,16
2/7/2013 20:00,6.000000048,220,27,SW,Clear,33,17,38,994,-999,-9999,17
2/7/2013 21:00,6.000000048,220,23,SW,Clear,32,18,43,995,-999,-9999,18
2/7/2013 22:00,6.000000048,210,25,SSW,Clear,31,18,46,995,-999,-9999,18
2/7/2013 23:00,5.00000004,220,24,SW,Clear,30,18,48,995,-999,-9999,18
3/7/2013 0:00,3.000000024,210,31,SSW,Clear,29,19,55,995,-999,-9999,19
3/7/2013 1:00,2.000000016,260,30,West,Clear,29,18,51,995,-999,-9999,18
3/7/2013 2:00,1.000000008,0,29,Variable,Clear,25,20,74,995,-999,-9999,20
3/7/2013 3:00,2.000000016,60,37,ENE,Clear,23,20,83,995,-999,-9999,20
3/7/2013 4:00,1.000000008,20,43,NNE,Clear,22,20,88,995,-999,-9999,20
3/7/2013 5:00,1.000000008,20,50,NNE,Clear,22,20,88,996,-999,-9999,20
3/7/2013 6:00,2.000000016,360,56,North,Clear,24,21,83,996,-999,-9999,21
3/7/2013 7:00,2.000000016,360,44,North,Clear,27,21,70,996,-999,-9999,21
3/7/2013 8:00,2.000000016,20,31,NNE,Clear,29,21,62,997,-999,-9999,21
3/7/2013 9:00,4.000000032,10,30,North,Clear,31,19,49,997,-999,-9999,19
3/7/2013 10:00,4.000000032,20,14,NNE,Clear,32,18,43,996,-999,-9999,18
3/7/2013 11:00,4.000000032,20,16,NNE,Clear,33,19,43,996,-999,-9999,19
3/7/2013 12:00,6.000000048,330,25,NNW,Clear,35,16,32,995,-999,-9999,16
3/7/2013 13:00,3.000000024,340,26,NNW,Clear,36,16,30,995,-999,-9999,16
3/7/2013 14:00,5.00000004,320,24,NW,Clear,36,14,27,995,-999,-9999,14
3/7/2013 15:00,4.000000032,310,23,NW,Clear,36,15,28,994,-999,-9999,15
3/7/2013 16:00,4.000000032,340,14,NNW,Clear,36,16,30,994,-999,-9999,16
3/7/2013 17:00,4.000000032,300,17,WNW,Clear,35,14,28,994,-999,-9999,14
3/7/2013 18:00,4.000000032,290,20,WNW,Clear,35,15,30,994,-999,-9999,15
3/7/2013 19:00,2.000000016,350,31,North,Clear,33,17,38,994,-999,-9999,17
3/7/2013 20:00,1.000000008,0,30,Variable,Clear,29,20,58,994,-999,-9999,20
3/7/2013 21:00,2.000000016,330,47,NNW,Clear,28,20,62,995,-999,-9999,20
3/7/2013 22:00,3.000000024,300,51,WNW,Clear,31,20,52,995,-999,-9999,20
3/7/2013 23:00,1.000000008,0,45,Variable,Clear,27,21,70,995,-999,-9999,21
4/7/2013 0:00,3.000000024,290,69,WNW,Clear,29,19,55,995,-999,-9999,19
4/7/2013 1:00,2.000000016,40,49,NE,Clear,27,19,61,995,-999,-9999,19
4/7/2013 2:00,1.000000008,330,27,NNW,Clear,25,18,65,994,-999,-9999,18
4/7/2013 3:00,3.000000024,10,27,North,Clear,23,19,78,994,-999,-9999,19
4/7/2013 4:00,2.000000016,330,35,NNW,Clear,24,20,78,994,-999,-9999,20
4/7/2013 5:00,3.000000024,340,33,NNW,Clear,23,20,83,994,-999,-9999,20
4/7/2013 6:00,3.000000024,360,19,North,Clear,23,20,83,994,-999,-9999,20
4/7/2013 7:00,3.000000024,340,24,NNW,Clear,26,19,65,994,-999,-9999,19
4/7/2013 8:00,4.000000032,350,21,North,Clear,29,19,55,994,-999,-9999,19
4/7/2013 9:00,6.000000048,360,18,North,Clear,29,19,55,994,-999,-9999,19
4/7/2013 10:00,4.000000032,30,19,NNE,Clear,31,17,43,994,-999,-9999,17
4/7/2013 11:00,3.000000024,20,26,NNE,Clear,33,20,46,994,-999,-9999,20
4/7/2013 12:00,3.000000024,360,17,North,Clear,34,18,38,994,-999,-9999,18
4/7/2013 13:00,2.000000016,0,14,Variable,Clear,36,18,34,993,-999,-9999,18
4/7/2013 14:00,2.000000016,70,13,ENE,Clear,36,16,30,992,-999,-9999,16
4/7/2013 15:00,2.000000016,50,17,NE,Clear,36,15,28,991,-999,-9999,15
4/7/2013 16:00,2.000000016,350,25,North,Clear,36,14,27,991,-999,-9999,14
4/7/2013 17:00,3.000000024,10,45,North,Thunderstorm,33,19,43,992,-999,10,19
4/7/2013 18:00,4.000000032,350,29,North,Light Thunderstorms and Rain,25,19,69,995,-999,10,19
4/7/2013 19:00,4.000000032,20,30,NNE,Partly Cloudy,25,20,74,993,-999,10,20
4/7/2013 20:00,3.000000024,360,24,North,Clear,24,19,73,995,-999,-9999,19
4/7/2013 21:00,4.000000032,340,28,NNW,Clear,24,19,73,996,-999,-9999,19
4/7/2013 22:00,2.000000016,50,38,NE,Clear,24,18,69,996,-999,-9999,18
4/7/2013 23:00,0,0,32,North,Clear,23,18,73,997,-999,-9999,18
5/7/2013 0:00,2.000000016,360,25,North,Clear,23,18,73,997,-999,-9999,18
5/7/2013 1:00,3.000000024,360,18,North,Clear,22,18,78,996,-999,-9999,18
5/7/2013 2:00,4.000000032,350,21,North,Clear,23,18,73,996,-999,-9999,18
5/7/2013 3:00,3.000000024,350,24,North,Clear,21,18,83,996,-999,-9999,18
5/7/2013 4:00,4.000000032,360,19,North,Clear,21,18,83,996,-999,-9999,18
5/7/2013 5:00,4.000000032,350,25,North,Clear,22,18,78,997,-999,-9999,18
5/7/2013 6:00,2.000000016,10,26,North,Clear,24,18,69,997,-999,-9999,18
5/7/2013 7:00,2.000000016,350,23,North,Clear,26,19,65,998,-999,-9999,19
5/7/2013 8:00,4.000000032,350,24,North,Clear,28,19,58,998,-999,-9999,19
5/7/2013 9:00,3.000000024,360,25,North,Clear,30,20,55,999,-999,-9999,20
5/7/2013 10:00,3.000000024,350,17,North,Clear,32,19,46,999,-999,-9999,19
5/7/2013 11:00,4.000000032,20,9,NNE,Clear,32,14,33,998,-999,-9999,14
5/7/2013 12:00,2.000000016,0,12,Variable,Clear,34,16,34,998,-999,-9999,16
5/7/2013 13:00,3.000000024,340,14,NNW,Clear,35,14,28,998,-999,-9999,14
5/7/2013 14:00,3.000000024,30,22,NNE,Clear,35,15,30,997,-999,-9999,15
5/7/2013 15:00,3.000000024,140,20,SE,Clear,35,16,32,997,-999,-9999,16
5/7/2013 16:00,3.000000024,120,19,ESE,Clear,35,15,30,997,-999,-9999,15
5/7/2013 17:00,2.000000016,90,24,East,Clear,35,15,30,997,-999,-9999,15
5/7/2013 18:00,3.000000024,140,24,SE,Clear,34,16,34,997,-999,-9999,16
5/7/2013 19:00,4.000000032,180,25,South,Clear,32,16,38,998,-999,-9999,16
5/7/2013 20:00,2.000000016,160,30,SSE,Clear,30,16,43,998,-999,-9999,16
5/7/2013 21:00,2.000000016,160,35,SSE,Clear,29,16,45,999,-999,-9999,16
5/7/2013 22:00,3.000000024,190,35,South,Clear,30,16,43,1000,-999,-9999,16
5/7/2013 23:00,3.000000024,210,39,SSW,Clear,30,16,43,1000,-999,-9999,16
6/7/2013 0:00,3.000000024,240,38,WSW,Clear,30,17,45,1000,-999,-9999,17
6/7/2013 1:00,3.000000024,90,32,East,Clear,26,20,69,1000,-999,-9999,20
6/7/2013 2:00,2.000000016,80,37,East,Clear,25,20,74,1000,-999,-9999,20
6/7/2013 3:00,2.000000016,80,60,East,Clear,24,20,78,1000,-999,-9999,20
6/7/2013 4:00,1.000000008,0,66,Variable,Clear,24,20,78,1000,-999,-9999,20
6/7/2013 5:00,2.000000016,100,74,East,Mist,24,21,83,1001,-999,3.5,21
6/7/2013 6:00,2.000000016,90,93,East,Mist,25,21,78,1001,-999,2.5,21
6/7/2013 7:00,2.000000016,90,117,East,Mist,26,22,78,1002,-999,2.5,22
6/7/2013 8:00,1.000000008,0,119,Variable,Mist,28,22,70,1002,-999,2.6,22
6/7/2013 9:00,2.000000016,140,112,SE,Haze,29,22,66,1002,-999,3,22
6/7/2013 10:00,2.000000016,0,57,Variable,Haze,31,22,58,1002,-999,4,22
6/7/2013 11:00,3.000000024,140,48,SE,Haze,32,21,52,1001,-999,5,21
6/7/2013 12:00,6.000000048,180,44,South,Clear,34,16,34,1001,-999,-9999,16
6/7/2013 13:00,5.00000004,190,42,South,Clear,35,17,34,1000,-999,-9999,17
6/7/2013 14:00,5.00000004,190,43,South,Clear,35,16,32,1000,-999,-9999,16
6/7/2013 15:00,5.00000004,180,45,South,Clear,34,17,36,999,-999,-9999,17
6/7/2013 16:00,5.00000004,160,45,SSE,Clear,35,18,36,999,-999,-9999,18
6/7/2013 17:00,5.00000004,180,64,South,Clear,34,18,38,998,-999,-9999,18
6/7/2013 18:00,4.000000032,180,60,South,Clear,33,19,43,999,-999,-9999,19
6/7/2013 19:00,4.000000032,160,65,SSE,Clear,33,19,43,999,-999,-9999,19
6/7/2013 20:00,5.00000004,140,64,SE,Clear,31,19,49,1000,-999,-9999,19
6/7/2013 21:00,5.00000004,140,77,SE,Scattered Clouds,30,19,51,1001,-999,10,19
6/7/2013 22:00,4.000000032,150,26,SSE,Thunderstorm,29,19,55,1001,-999,10,19
6/7/2013 23:00,5.00000004,270,35,West,Light Thunderstorms and Rain,24,18,69,1002,-999,10,18
7/7/2013 0:00,5.00000004,250,37,WSW,Light Thunderstorms and Rain,24,19,73,1002,-999,10,19
7/7/2013 1:00,6.000000048,320,47,NW,Light Thunderstorms and Rain,22,20,88,1001,-999,8,20
7/7/2013 2:00,3.000000024,280,42,West,Clear,23,21,88,1002,-999,-9999,21
7/7/2013 3:00,1.000000008,0,38,Variable,Clear,23,21,88,1000,-999,-9999,21
7/7/2013 4:00,2.000000016,50,49,NE,Clear,22,20,88,1000,-999,-9999,20
7/7/2013 5:00,1.000000008,0,60,Variable,Unknown,22,20,88,1000,-999,7,20
7/7/2013 6:00,1.000000008,200,51,SSW,Unknown,23,21,88,1000,-999,8,21
7/7/2013 7:00,0,0,53,North,Unknown,24,21,83,1001,-999,7,21
7/7/2013 8:00,3.000000024,360,56,North,Clear,26,22,78,1002,-999,-9999,22
7/7/2013 9:00,2.000000016,20,66,NNE,Unknown,26,22,78,1002,-999,7,22
7/7/2013 10:00,1.000000008,0,72,Variable,Mist,28,23,74,1001,-999,5,23
7/7/2013 11:00,3.000000024,130,66,SE,Mist,29,23,70,1001,-999,3.5,23
7/7/2013 12:00,4.000000032,170,65,South,Haze,29,22,66,1001,-999,4,22
7/7/2013 13:00,3.000000024,160,75,SSE,Haze,30,21,58,1000,-999,5,21
7/7/2013 14:00,3.000000024,150,97,SSE,Haze,31,23,62,1000,-999,5,23
7/7/2013 15:00,4.000000032,140,100,SE,Haze,32,23,59,998,-999,4.5,23
7/7/2013 16:00,4.000000032,170,120,South,Haze,32,23,59,998,-999,4,23
7/7/2013 17:00,4.000000032,190,129,South,Haze,32,23,59,998,-999,4,23
7/7/2013 18:00,4.000000032,180,130,South,Haze,31,24,66,998,-999,3.5,24
7/7/2013 19:00,2.000000016,140,142,SE,Haze,31,24,66,998,-999,3.5,24
7/7/2013 20:00,1.000000008,120,147,ESE,Mist,30,25,74,999,-999,4,25
7/7/2013 21:00,1.000000008,80,164,East,Mist,29,25,79,999,-999,4,25
7/7/2013 22:00,2.000000016,150,195,SSE,Mist,29,25,79,999,-999,4,25
7/7/2013 23:00,3.000000024,140,216,SE,Light Thunderstorms and Rain,29,25,79,999,-999,3.5,25
8/7/2013 0:00,6.000000048,340,70,NNW,Light Thunderstorms and Rain,24,22,89,1001,-999,5,22
8/7/2013 1:00,2.000000016,180,79,South,Light Thunderstorms and Rain,24,22,89,1001,-999,3.5,22
8/7/2013 2:00,1.000000008,0,64,Variable,Light Thunderstorms and Rain,23,22,94,1001,-999,4,22
8/7/2013 3:00,1.000000008,0,61,Variable,Light Thunderstorms and Rain,23,22,94,1001,-999,3.5,22
8/7/2013 4:00,2.000000016,80,56,East,Light Rain Showers,23,22,94,1001,-999,4,22
8/7/2013 5:00,1.000000008,0,69,Variable,Light Rain Showers,23,22,94,1002,-999,3,22
8/7/2013 6:00,1.000000008,0,71,Variable,Overcast,23,22,94,1001,-999,3,22
8/7/2013 7:00,2.000000016,120,73,ESE,Mostly Cloudy,24,23,94,1002,-999,2.8,23
8/7/2013 8:00,1.000000008,0,79,Variable,Scattered Clouds,24,23,94,1003,-999,2.8,23
8/7/2013 9:00,2.000000016,70,80,ENE,Light Rain Showers,25,23,89,1003,-999,-9999,23
8/7/2013 10:00,2.000000016,10,79,North,Scattered Clouds,25,23,89,1003,-999,-9999,23
8/7/2013 11:00,2.000000016,80,80,East,Scattered Clouds,25,23,89,1003,-999,3.5,23
8/7/2013 12:00,1.000000008,0,80,Variable,Partly Cloudy,26,23,83,1003,-999,3.5,23
8/7/2013 13:00,1.000000008,0,85,Variable,Partly Cloudy,27,23,79,1002,-999,4,23
8/7/2013 14:00,2.000000016,110,86,ESE,Light Rain Showers,27,23,79,1002,-999,4,23
8/7/2013 15:00,3.000000024,190,80,South,Overcast,27,23,79,1002,-999,3.5,23
8/7/2013 16:00,3.000000024,180,91,South,Mist,27,23,79,1001,-999,3.5,23
8/7/2013 17:00,2.000000016,170,104,South,Mist,27,23,79,1001,-999,3.5,23
8/7/2013 18:00,3.000000024,150,111,SSE,Mist,27,23,79,1001,-999,3.5,23
8/7/2013 19:00,3.000000024,150,129,SSE,Mist,26,23,83,1001,-999,3.5,23
8/7/2013 20:00,1.000000008,0,133,Variable,Mist,26,23,83,1002,-999,3.5,23
8/7/2013 21:00,1.000000008,100,140,East,Light Rain Showers,25,23,89,1003,-999,4,23
8/7/2013 22:00,1.000000008,0,141,Variable,Light Rain Showers,25,23,89,1003,-999,4,23
8/7/2013 23:00,1.000000008,90,150,East,Mist,25,24,94,1003,-999,3.5,24
9/7/2013 0:00,2.000000016,360,152,North,Mist,25,24,94,1003,-999,3,24
9/7/2013 1:00,1.000000008,0,164,Variable,Light Rain Showers,25,24,94,1003,-999,3,24
9/7/2013 2:00,2.000000016,40,160,NE,Mist,25,24,94,1002,-999,3,24
9/7/2013 3:00,2.000000016,40,143,NE,Mist,25,24,94,1002,-999,2.5,24
9/7/2013 4:00,1.000000008,360,139,North,Light Rain Showers,25,24,94,1002,-999,2.4,24
9/7/2013 5:00,2.000000016,10,135,North,Light Rain Showers,25,23,89,1003,-999,2.2,23
9/7/2013 6:00,1.000000008,0,140,Variable,Light Rain Showers,24,23,94,1003,-999,1.5,23
9/7/2013 7:00,0,0,145,North,Light Rain Showers,25,24,94,1003,-999,1.4,24
9/7/2013 8:00,3.000000024,20,124,NNE,Overcast,25,23,89,1003,-999,1.4,23
9/7/2013 9:00,3.000000024,30,57,NNE,Overcast,25,23,89,1002,-999,5,23
9/7/2013 10:00,3.000000024,10,59,North,Mist,26,23,83,1002,-999,4.5,23
9/7/2013 11:00,3.000000024,350,63,North,Mist,26,23,83,1003,-999,4.5,23
9/7/2013 12:00,2.000000016,30,59,NNE,Light Rain Showers,25,23,89,1003,-999,5,23
9/7/2013 13:00,1.000000008,30,50,NNE,Light Rain,24,22,89,1004,-999,5,22
9/7/2013 14:00,2.000000016,10,46,North,Light Rain,24,23,94,1003,-999,4.5,23
9/7/2013 15:00,2.000000016,30,35,NNE,Light Rain,23,21,88,1003,-999,8,21
9/7/2013 16:00,1.000000008,0,34,Variable,Light Rain,23,22,94,1003,-999,10,22
9/7/2013 17:00,1.000000008,0,32,Variable,Light Rain,24,22,89,1003,-999,7,22
9/7/2013 18:00,1.000000008,40,32,NE,Light Rain,24,22,89,1003,-999,7,22
9/7/2013 19:00,1.000000008,0,40,Variable,Light Rain,24,22,89,1003,-999,7,22
9/7/2013 20:00,1.000000008,0,46,Variable,Unknown,23,22,94,1003,-999,6,22
9/7/2013 21:00,1.000000008,0,55,Variable,Partly Cloudy,23,22,94,1004,-999,6,22
9/7/2013 22:00,1.000000008,0,50,Variable,Unknown,23,22,94,1004,-999,7,22
9/7/2013 23:00,2.000000016,360,39,North,Unknown,23,22,94,1004,-999,8,22
10/7/2013 0:00,1.000000008,0,46,Variable,Unknown,23,22,94,1004,-999,8,22
10/7/2013 1:00,0,0,46,North,Unknown,23,22,94,1003,-999,7,22
10/7/2013 2:00,2.000000016,350,51,North,Unknown,23,22,94,1003,-999,7,22
10/7/2013 3:00,3.000000024,10,49,North,Unknown,23,21,88,1003,-999,7,21
10/7/2013 4:00,2.000000016,10,41,North,Unknown,22,21,94,1003,-999,8,21
10/7/2013 5:00,3.000000024,360,34,North,Light Rain,22,21,94,1004,-999,8,21
10/7/2013 6:00,2.000000016,10,30,North,Light Rain,22,21,94,1004,-999,8,21
10/7/2013 7:00,3.000000024,340,36,NNW,Clear,23,21,88,1005,-999,-9999,21
10/7/2013 8:00,3.000000024,10,34,North,Clear,24,21,83,1005,-999,-9999,21
10/7/2013 9:00,3.000000024,10,34,North,Light Rain,24,21,83,1005,-999,10,21
10/7/2013 10:00,1.000000008,0,37,Variable,Light Rain,25,21,78,1005,-999,10,21
10/7/2013 11:00,2.000000016,340,38,NNW,Light Rain,26,21,74,1005,-999,10,21
10/7/2013 12:00,3.000000024,340,41,NNW,Light Rain,25,21,78,1005,-999,10,21
10/7/2013 13:00,3.000000024,350,44,North,Light Rain,25,22,83,1005,-999,10,22
10/7/2013 14:00,3.000000024,340,28,NNW,Light Rain,25,21,78,1005,-999,10,21
10/7/2013 15:00,4.000000032,290,30,WNW,Light Rain,24,21,83,1006,-999,10,21
10/7/2013 16:00,5.00000004,280,28,West,Light Rain,24,21,83,1005,-999,10,21
10/7/2013 17:00,4.000000032,310,28,NW,Clear,24,22,89,1005,-999,-9999,22
10/7/2013 18:00,4.000000032,280,25,West,Clear,24,21,83,1005,-999,-9999,21
10/7/2013 19:00,4.000000032,330,35,NNW,Clear,24,21,83,1005,-999,-9999,21
10/7/2013 20:00,2.000000016,320,41,NW,Clear,25,21,78,1005,-999,-9999,21
10/7/2013 21:00,4.000000032,320,36,NW,Clear,24,21,83,1006,-999,-9999,21
10/7/2013 22:00,2.000000016,340,40,NNW,Clear,24,21,83,1006,-999,-9999,21
10/7/2013 23:00,2.000000016,350,32,North,Clear,24,21,83,1006,-999,-9999,21
11/7/2013 0:00,2.000000016,10,36,North,Clear,23,21,88,1005,-999,-9999,21
11/7/2013 1:00,2.000000016,350,32,North,Clear,23,21,88,1005,-999,-9999,21
11/7/2013 2:00,2.000000016,350,33,North,Clear,23,20,83,1005,-999,-9999,20
11/7/2013 3:00,2.000000016,10,31,North,Clear,23,21,88,1005,-999,-9999,21
11/7/2013 4:00,2.000000016,350,30,North,Clear,22,21,94,1005,-999,-9999,21
11/7/2013 5:00,1.000000008,350,33,North,Clear,22,21,94,1006,-999,-9999,21
11/7/2013 6:00,1.000000008,340,34,NNW,Unknown,23,21,88,1006,-999,8,21
11/7/2013 7:00,3.000000024,350,34,North,Unknown,23,21,88,1006,-999,8,21
11/7/2013 8:00,2.000000016,360,29,North,Unknown,24,21,83,1006,-999,8,21
11/7/2013 9:00,3.000000024,360,46,North,Clear,25,21,78,1006,-999,-9999,21
11/7/2013 10:00,2.000000016,360,36,North,Clear,26,21,74,1006,-999,-9999,21
11/7/2013 11:00,2.000000016,360,43,North,Clear,27,21,70,1006,-999,-9999,21
11/7/2013 12:00,2.000000016,0,41,Variable,Clear,26,21,74,1006,-999,-9999,21
11/7/2013 13:00,2.000000016,350,44,North,Clear,28,20,62,1006,-999,-9999,20
11/7/2013 14:00,2.000000016,0,45,Variable,Clear,27,19,61,1006,-999,-9999,19
11/7/2013 15:00,3.000000024,300,42,WNW,Clear,27,19,61,1006,-999,-9999,19
11/7/2013 16:00,2.000000016,0,38,Variable,Clear,28,19,58,1005,-999,-9999,19
11/7/2013 17:00,2.000000016,0,42,Variable,Clear,28,19,58,1004,-999,-9999,19
11/7/2013 18:00,2.000000016,170,53,South,Clear,28,19,58,1004,-999,-9999,19
11/7/2013 19:00,1.000000008,0,46,Variable,Clear,26,20,69,1005,-999,-9999,20
11/7/2013 20:00,2.000000016,160,50,SSE,Clear,25,20,74,1005,-999,-9999,20
11/7/2013 21:00,3.000000024,200,53,SSW,Clear,26,20,69,1006,-999,-9999,20
11/7/2013 22:00,3.000000024,210,57,SSW,Clear,25,19,69,1006,-999,-9999,19
11/7/2013 23:00,3.000000024,230,62,SW,Clear,25,20,74,1006,-999,-9999,20
12/7/2013 0:00,2.000000016,200,65,SSW,Clear,24,20,78,1006,-999,-9999,20
12/7/2013 1:00,1.000000008,140,64,SE,Clear,22,20,88,1005,-999,-9999,20
12/7/2013 2:00,2.000000016,70,74,ENE,Unknown,21,20,94,1006,-999,8,20
12/7/2013 3:00,1.000000008,80,74,East,Unknown,21,20,94,1005,-999,7,20
12/7/2013 4:00,1.000000008,50,71,NE,Mist,21,20,94,1006,-999,5,20
12/7/2013 5:00,1.000000008,10,71,North,Mist,21,20,94,1006,-999,3.5,20
12/7/2013 6:00,2.000000016,10,71,North,Mist,22,21,94,1006,-999,3.5,21
12/7/2013 7:00,1.000000008,0,65,Variable,Unknown,23,22,94,1006,-999,6,22
12/7/2013 8:00,2.000000016,360,71,North,Unknown,26,22,78,1006,-999,8,22
12/7/2013 9:00,2.000000016,0,70,Variable,Unknown,27,22,74,1006,-999,8,22
12/7/2013 10:00,2.000000016,30,58,NNE,Clear,28,21,66,1006,-999,-9999,21
12/7/2013 11:00,2.000000016,0,54,Variable,Clear,29,20,58,1006,-999,-9999,20
12/7/2013 12:00,3.000000024,0,52,Variable,Clear,30,22,62,1005,-999,-9999,22
12/7/2013 13:00,2.000000016,200,68,SSW,Clear,31,22,58,1005,-999,-9999,22
12/7/2013 14:00,2.000000016,0,67,Variable,Clear,32,22,55,1004,-999,-9999,22
12/7/2013 15:00,3.000000024,150,53,SSE,Unknown,32,23,59,1004,-999,7,23
12/7/2013 16:00,6.000000048,180,44,South,Unknown,31,23,62,1004,-999,6,23
12/7/2013 17:00,5.00000004,160,51,SSE,Clear,31,22,58,1004,-999,-9999,22
12/7/2013 18:00,4.000000032,160,50,SSE,Clear,30,23,66,1004,-999,-9999,23
12/7/2013 19:00,5.00000004,170,64,South,Unknown,29,23,70,1005,-999,8,23
12/7/2013 20:00,3.000000024,160,115,SSE,Unknown,27,23,79,1005,-999,7,23
12/7/2013 21:00,2.000000016,160,125,SSE,Unknown,27,23,79,1006,-999,6,23
12/7/2013 22:00,2.000000016,140,128,SE,Mist,26,23,83,1006,-999,5,23
12/7/2013 23:00,2.000000016,140,120,SE,Mist,26,23,83,1007,-999,4.5,23
13/7/2013 0:00,3.000000024,160,120,SSE,Mist,25,23,89,1006,-999,4,23
13/7/2013 1:00,3.000000024,160,128,SSE,Mist,25,22,83,1006,-999,4,22
13/7/2013 2:00,1.000000008,150,123,SSE,Mist,25,22,83,1006,-999,3.5,22
13/7/2013 3:00,1.000000008,0,112,Variable,Mist,24,22,89,1006,-999,3.5,22
13/7/2013 4:00,1.000000008,110,121,ESE,Mist,24,22,89,1006,-999,3.5,22
13/7/2013 5:00,1.000000008,0,128,Variable,Mist,24,22,89,1006,-999,2.7,22
13/7/2013 6:00,1.000000008,120,136,ESE,Mist,24,23,94,1007,-999,1.7,23
13/7/2013 7:00,2.000000016,130,130,SE,Mist,25,23,89,1007,-999,1.7,23
13/7/2013 8:00,1.000000008,0,135,Variable,Mist,27,23,79,1007,-999,2,23
13/7/2013 9:00,2.000000016,120,128,ESE,Mist,27,23,79,1007,-999,2.5,23
13/7/2013 10:00,1.000000008,0,108,Variable,Partly Cloudy,29,23,70,1007,-999,-9999,23
13/7/2013 11:00,3.000000024,130,92,SE,Haze,29,22,66,1007,-999,3.5,22
13/7/2013 12:00,2.000000016,140,96,SE,Haze,29,22,66,1007,-999,4,22
13/7/2013 13:00,2.000000016,150,93,SSE,Haze,30,22,62,1007,-999,4.5,22
13/7/2013 14:00,2.000000016,130,80,SE,Haze,30,22,62,1006,-999,5,22
13/7/2013 15:00,2.000000016,150,67,SSE,Haze,31,22,58,1006,-999,5,22
13/7/2013 16:00,3.000000024,150,59,SSE,Unknown,31,23,62,1006,-999,6,23
13/7/2013 17:00,3.000000024,150,68,SSE,Unknown,31,22,58,1006,-999,6,22
13/7/2013 18:00,3.000000024,160,98,SSE,Unknown,30,22,62,1006,-999,6,22
13/7/2013 19:00,3.000000024,160,82,SSE,Unknown,29,22,66,1006,-999,6,22
13/7/2013 20:00,3.000000024,150,116,SSE,Haze,28,23,74,1006,-999,5,23
13/7/2013 21:00,4.000000032,130,140,SE,Mist,27,22,74,1007,-999,4.5,22
13/7/2013 22:00,3.000000024,150,131,SSE,Mist,27,22,74,1007,-999,5,22
13/7/2013 23:00,3.000000024,150,94,SSE,Unknown,26,21,74,1007,-999,6,21
14/7/2013 0:00,2.000000016,140,94,SE,Unknown,25,21,78,1007,-999,6,21
14/7/2013 1:00,2.000000016,110,92,ESE,Unknown,25,21,78,1008,-999,6,21
14/7/2013 2:00,3.000000024,140,101,SE,Mist,25,21,78,1007,-999,5,21
14/7/2013 3:00,3.000000024,140,99,SE,Mist,24,21,83,1008,-999,5,21
14/7/2013 4:00,3.000000024,150,113,SSE,Mist,24,22,89,1008,-999,4.5,22
14/7/2013 5:00,2.000000016,100,136,East,Mist,24,22,89,1008,-999,2.2,22
14/7/2013 6:00,2.000000016,100,162,East,Mist,23,22,94,1009,-999,1.7,22
14/7/2013 7:00,2.000000016,160,127,SSE,Mist,24,21,83,1009,-999,2.5,21
14/7/2013 8:00,2.000000016,140,93,SE,Mist,25,22,83,1009,-999,2.8,22
14/7/2013 9:00,2.000000016,130,83,SE,Mist,26,22,78,1009,-999,3.5,22
14/7/2013 10:00,2.000000016,180,71,South,Mist,27,22,74,1009,-999,3.5,22
14/7/2013 11:00,1.000000008,0,73,Variable,Haze,28,22,70,1009,-999,3.5,22
14/7/2013 12:00,2.000000016,130,80,SE,Haze,29,21,62,1008,-999,5,21
14/7/2013 13:00,2.000000016,140,75,SE,Haze,29,21,62,1007,-999,5,21
14/7/2013 14:00,2.000000016,0,67,Variable,Haze,30,21,58,1007,-999,5,21
14/7/2013 15:00,2.000000016,100,76,East,Haze,30,22,62,1006,-999,5,22
14/7/2013 16:00,2.000000016,150,68,SSE,Haze,30,21,58,1006,-999,5,21
14/7/2013 17:00,3.000000024,170,64,South,Unknown,29,20,58,1006,-999,6,20
14/7/2013 18:00,4.000000032,150,85,SSE,Clear,28,20,62,1005,-999,-9999,20
14/7/2013 19:00,4.000000032,190,67,South,Unknown,28,21,66,1005,-999,8,21
14/7/2013 20:00,3.000000024,0,59,Variable,Mostly Cloudy,28,22,70,1006,-999,6,22
14/7/2013 21:00,3.000000024,200,66,SSW,Mostly Cloudy,27,21,70,1006,-999,8,21
14/7/2013 22:00,3.000000024,170,71,South,Light Rain Showers,26,21,74,1006,-999,8,21
14/7/2013 23:00,1.000000008,0,78,Variable,Light Rain Showers,24,22,89,1006,-999,5,22
15/7/2013 0:00,1.000000008,30,70,NNE,Light Rain,24,23,94,1005,-999,3,23
15/7/2013 1:00,2.000000016,100,75,East,Light Rain,24,23,94,1005,-999,3.5,23
15/7/2013 2:00,3.000000024,110,77,ESE,Light Rain,23,22,94,1004,-999,4,22
15/7/2013 3:00,3.000000024,110,84,ESE,Light Rain,23,22,94,1003,-999,3,22
15/7/2013 4:00,1.000000008,0,68,Variable,Rain,23,22,94,1002,-999,2.5,22
15/7/2013 5:00,2.000000016,80,53,East,Light Rain,23,22,94,1002,-999,2.5,22
15/7/2013 6:00,3.000000024,130,96,SE,Light Rain,23,23,100,1001,-999,1.5,23
15/7/2013 7:00,5.00000004,130,71,SE,Light Rain,24,23,94,1001,-999,1.5,23
15/7/2013 8:00,4.000000032,140,48,SE,Light Rain,24,23,94,1001,-999,1.3,23
15/7/2013 9:00,4.000000032,140,38,SE,Light Rain,24,23,94,1000,-999,1.4,23
15/7/2013 10:00,5.00000004,140,53,SE,Light Rain,25,23,89,1000,-999,1.5,23
15/7/2013 11:00,6.000000048,140,66,SE,Light Rain,25,24,94,999,-999,1.7,24
15/7/2013 12:00,4.000000032,160,65,SSE,Light Rain,25,24,94,998,-999,1.7,24
15/7/2013 13:00,3.000000024,140,71,SE,Light Rain,25,24,94,998,-999,1.7,24
15/7/2013 14:00,3.000000024,140,59,SE,Light Rain,25,24,94,997,-999,1.7,24
15/7/2013 15:00,3.000000024,180,53,South,Light Rain,26,24,89,997,-999,1.7,24
15/7/2013 16:00,3.000000024,240,50,WSW,Light Rain,25,24,94,997,-999,1.7,24
15/7/2013 17:00,4.000000032,260,45,West,Light Rain,25,23,89,996,-999,4.5,23
15/7/2013 18:00,3.000000024,270,59,West,Light Rain,25,22,83,996,-999,5,22
15/7/2013 19:00,1.000000008,0,58,Variable,Light Rain,24,23,94,995,-999,4.5,23
15/7/2013 20:00,2.000000016,160,70,SSE,Light Rain,24,23,94,996,-999,4,23
15/7/2013 21:00,2.000000016,170,61,South,Light Rain,24,23,94,996,-999,4,23
15/7/2013 22:00,2.000000016,180,54,South,Mist,24,23,94,996,-999,4,23
15/7/2013 23:00,2.000000016,210,56,SSW,Mist,25,23,89,996,-999,4,23
16/7/2013 0:00,1.000000008,0,60,Variable,Mist,24,23,94,996,-999,3.5,23
16/7/2013 1:00,1.000000008,0,64,Variable,Mist,24,23,94,996,-999,3.5,23
16/7/2013 2:00,1.000000008,20,66,NNE,Mist,23,22,94,995,-999,3.5,22
16/7/2013 3:00,2.000000016,360,57,North,Scattered Clouds,24,23,94,996,-999,3,23
16/7/2013 4:00,3.000000024,280,33,West,Partly Cloudy,23,23,100,996,-999,2.8,23
16/7/2013 5:00,5.00000004,330,16,NNW,Clear,22,20,88,996,-999,-9999,20
16/7/2013 6:00,3.000000024,20,15,NNE,Clear,22,19,83,997,-999,-9999,19
16/7/2013 7:00,3.000000024,360,11,North,Clear,25,19,69,998,-999,-9999,19
16/7/2013 8:00,4.000000032,10,12,North,Clear,27,18,58,999,-999,-9999,18
16/7/2013 9:00,6.000000048,360,12,North,Clear,28,17,51,999,-999,-9999,17
16/7/2013 10:00,6.000000048,360,9,North,Clear,29,17,48,999,-999,-9999,17
16/7/2013 11:00,6.000000048,10,11,North,Clear,30,14,37,1000,-999,-9999,14
16/7/2013 12:00,6.000000048,360,11,North,Clear,31,13,33,1000,-999,-9999,13
16/7/2013 13:00,6.000000048,340,10,NNW,Clear,32,12,29,1000,-999,-9999,12
16/7/2013 14:00,5.00000004,350,8,North,Clear,32,13,31,1000,-999,-9999,13
16/7/2013 15:00,3.000000024,350,16,North,Clear,33,14,31,1000,-999,-9999,14
16/7/2013 16:00,2.000000016,110,16,ESE,Clear,33,13,29,1000,-999,-9999,13
16/7/2013 17:00,2.000000016,70,16,ENE,Clear,32,14,33,1000,-999,-9999,14
16/7/2013 18:00,2.000000016,130,18,SE,Clear,31,13,33,1001,-999,-9999,13
16/7/2013 19:00,2.000000016,150,31,SSE,Clear,29,16,45,1002,-999,-9999,16
16/7/2013 20:00,1.000000008,120,34,ESE,Clear,26,19,65,1002,-999,-9999,19
16/7/2013 21:00,2.000000016,160,36,SSE,Clear,27,16,51,1003,-999,-9999,16
16/7/2013 22:00,1.000000008,0,39,Variable,Clear,25,17,61,1004,-999,-9999,17
16/7/2013 23:00,2.000000016,170,38,South,Clear,26,16,54,1004,-999,-9999,16
17/7/2013 0:00,1.000000008,0,32,Variable,Clear,22,18,78,1004,-999,-9999,18
17/7/2013 1:00,1.000000008,0,49,Variable,Clear,22,18,78,1005,-999,-9999,18
17/7/2013 2:00,1.000000008,0,59,Variable,Clear,21,18,83,1005,-999,-9999,18
17/7/2013 3:00,1.000000008,30,68,NNE,Clear,21,18,83,1005,-999,-9999,18
17/7/2013 4:00,1.000000008,0,50,Variable,Clear,20,18,88,1006,-999,-9999,18
17/7/2013 5:00,2.000000016,360,43,North,Clear,19,18,94,1006,-999,-9999,18
17/7/2013 6:00,3.000000024,360,42,North,Clear,21,19,88,1006,-999,-9999,19
17/7/2013 7:00,2.000000016,20,47,NNE,Clear,23,18,73,1006,-999,-9999,18
17/7/2013 8:00,1.000000008,0,52,Variable,Clear,25,19,69,1006,-999,-9999,19
17/7/2013 9:00,1.000000008,0,55,Variable,Clear,28,20,62,1006,-999,-9999,20
17/7/2013 10:00,2.000000016,90,60,East,Clear,28,20,62,1006,-999,-9999,20
17/7/2013 11:00,1.000000008,0,58,Variable,Clear,29,20,58,1006,-999,-9999,20
17/7/2013 12:00,2.000000016,0,57,Variable,Clear,31,21,55,1006,-999,-9999,21
17/7/2013 13:00,5.00000004,160,,SSE,Clear,32,18,43,1005,-999,-9999,18
17/7/2013 14:00,3.000000024,170,35,South,Clear,33,19,43,1005,-999,-9999,19
17/7/2013 15:00,4.000000032,170,33,South,Clear,32,15,36,1004,-999,-9999,15
17/7/2013 16:00,3.000000024,160,34,SSE,Clear,32,17,40,1003,-999,-9999,17
17/7/2013 17:00,3.000000024,150,35,SSE,Clear,32,16,38,1002,-999,-9999,16
17/7/2013 18:00,3.000000024,150,33,SSE,Clear,31,14,35,1003,-999,-9999,14
17/7/2013 19:00,3.000000024,140,54,SE,Clear,29,18,51,1003,-999,-9999,18
17/7/2013 20:00,4.000000032,150,79,SSE,Clear,28,20,62,1004,-999,-9999,20
17/7/2013 21:00,3.000000024,150,49,SSE,Clear,28,18,54,1004,-999,-9999,18
17/7/2013 22:00,4.000000032,140,53,SE,Clear,27,20,65,1005,-999,-9999,20
17/7/2013 23:00,4.000000032,130,72,SE,Clear,26,21,74,1005,-999,-9999,21
18/7/2013 0:00,4.000000032,120,100,ESE,Unknown,26,21,74,1005,-999,7,21
18/7/2013 1:00,2.000000016,100,128,East,Unknown,25,21,78,1005,-999,6,21
18/7/2013 2:00,3.000000024,120,135,ESE,Mist,24,22,89,1005,-999,5,22
18/7/2013 3:00,2.000000016,90,149,East,Mist,24,22,89,1004,-999,4,22
18/7/2013 4:00,2.000000016,140,157,SE,Mist,24,23,94,1005,-999,3.5,23
18/7/2013 5:00,1.000000008,0,150,Variable,Mist,24,22,89,1005,-999,3,22
18/7/2013 6:00,1.000000008,0,145,Variable,Mist,24,23,94,1005,-999,1.6,23
18/7/2013 7:00,3.000000024,120,154,ESE,Mist,25,22,83,1005,-999,1.2,22
18/7/2013 8:00,3.000000024,140,163,SE,Mist,25,22,83,1005,-999,1.2,22
18/7/2013 9:00,2.000000016,100,167,East,Light Rain Showers,25,23,89,1005,-999,1.4,23
18/7/2013 10:00,3.000000024,140,169,SE,Light Rain Showers,26,23,83,1005,-999,1.5,23
18/7/2013 11:00,4.000000032,150,175,SSE,Mist,26,22,78,1005,-999,1.6,22
18/7/2013 12:00,4.000000032,120,161,ESE,Mist,26,22,78,1005,-999,1.7,22
18/7/2013 13:00,4.000000032,150,163,SSE,Mist,26,22,78,1004,-999,1.8,22
18/7/2013 14:00,4.000000032,140,173,SE,Mist,27,22,74,1004,-999,1.8,22
18/7/2013 15:00,4.000000032,110,137,ESE,Mist,27,22,74,1004,-999,2,22
18/7/2013 16:00,4.000000032,130,137,SE,Mist,27,23,79,1003,-999,2,23
18/7/2013 17:00,4.000000032,150,122,SSE,Mist,27,23,79,1003,-999,1.8,23
18/7/2013 18:00,3.000000024,150,108,SSE,Mist,27,23,79,1003,-999,2,23
18/7/2013 19:00,2.000000016,160,91,SSE,Mist,26,22,78,1003,-999,-9999,22
18/7/2013 20:00,2.000000016,150,99,SSE,Mist,26,22,78,1003,-999,3,22
18/7/2013 21:00,2.000000016,170,77,South,Unknown,25,21,78,1004,-999,6,21
18/7/2013 22:00,1.000000008,0,86,Variable,Unknown,25,21,78,1004,-999,6,21
18/7/2013 23:00,1.000000008,0,93,Variable,Mist,25,21,78,1004,-999,4,21
19/7/2013 0:00,3.000000024,150,107,SSE,Mist,24,20,78,1003,-999,5,20
19/7/2013 1:00,1.000000008,0,126,Variable,Mist,24,20,78,1003,-999,5,20
19/7/2013 2:00,1.000000008,0,141,Variable,Mist,23,20,83,1002,-999,5,20
19/7/2013 3:00,1.000000008,0,146,Variable,Mist,23,20,83,1002,-999,4,20
19/7/2013 4:00,1.000000008,0,160,Variable,Mist,23,20,83,1002,-999,3.5,20
19/7/2013 5:00,1.000000008,0,165,Variable,Mist,23,21,88,1002,-999,2.5,21
19/7/2013 6:00,1.000000008,0,165,Variable,Mist,23,21,88,1002,-999,1.7,21
19/7/2013 7:00,1.000000008,0,166,Variable,Mist,24,21,83,1002,-999,1.7,21
19/7/2013 8:00,2.000000016,0,150,Variable,Mist,26,21,74,1003,-999,1.8,21
19/7/2013 9:00,2.000000016,290,134,WNW,Mist,26,21,74,1002,-999,1.8,21
19/7/2013 10:00,1.000000008,0,120,Variable,Mist,27,22,74,1002,-999,2,22
19/7/2013 11:00,2.000000016,130,116,SE,Haze,28,22,70,1002,-999,2.5,22
19/7/2013 12:00,3.000000024,110,95,ESE,Haze,29,22,66,1002,-999,-9999,22
19/7/2013 13:00,1.000000008,0,109,Variable,Haze,30,22,62,1002,-999,3.5,22
19/7/2013 14:00,2.000000016,0,118,Variable,Haze,30,21,58,1001,-999,4,21
19/7/2013 15:00,2.000000016,160,111,SSE,Haze,29,22,66,1001,-999,4,22
19/7/2013 16:00,3.000000024,150,98,SSE,Haze,31,22,58,1001,-999,4,22
19/7/2013 17:00,3.000000024,180,94,South,Haze,31,22,58,1000,-999,4,22
19/7/2013 18:00,5.00000004,180,103,South,Haze,29,22,66,1001,-999,5,22
19/7/2013 19:00,4.000000032,180,97,South,Haze,29,22,66,1001,-999,5,22
19/7/2013 20:00,2.000000016,170,111,South,Haze,27,22,74,1001,-999,5,22
19/7/2013 21:00,3.000000024,180,105,South,Haze,27,21,70,1002,-999,5,21
19/7/2013 22:00,1.000000008,0,110,Variable,Mist,26,21,74,1003,-999,4.5,21
19/7/2013 23:00,1.000000008,0,119,Variable,Mist,25,22,83,1003,-999,4,22
20/7/2013 0:00,1.000000008,90,127,East,Mist,24,22,89,1003,-999,4,22
20/7/2013 1:00,1.000000008,70,136,ENE,Mist,23,22,94,1003,-999,3.5,22
20/7/2013 2:00,1.000000008,50,170,NE,Mist,23,21,88,1002,-999,3,21
20/7/2013 3:00,1.000000008,0,170,Variable,Mist,23,22,94,1003,-999,2.7,22
20/7/2013 4:00,1.000000008,0,168,Variable,Mist,23,22,94,1003,-999,2.5,22
20/7/2013 5:00,1.000000008,0,166,Variable,Mist,23,22,94,1004,-999,2.5,22
20/7/2013 6:00,2.000000016,10,161,North,Mist,23,21,88,1004,-999,2,21
20/7/2013 7:00,2.000000016,350,152,North,Mist,25,23,89,1004,-999,2,23
20/7/2013 8:00,1.000000008,0,116,Variable,Mist,28,23,74,1005,-999,2.5,23
20/7/2013 9:00,2.000000016,70,86,ENE,Clear,29,19,55,1005,-999,-9999,19
20/7/2013 10:00,1.000000008,0,31,Variable,Clear,31,19,49,1005,-999,-9999,19
20/7/2013 11:00,3.000000024,20,30,NNE,Clear,32,16,38,1004,-999,-9999,16
20/7/2013 12:00,2.000000016,0,14,Variable,Clear,32,14,33,1004,-999,-9999,14
20/7/2013 13:00,2.000000016,80,16,East,Clear,33,9,23,1004,-999,-9999,9
20/7/2013 14:00,2.000000016,40,15,NE,Clear,33,10,24,1003,-999,-9999,10
20/7/2013 15:00,2.000000016,0,15,Variable,Clear,33,11,26,1003,-999,-9999,11
20/7/2013 16:00,1.000000008,0,17,Variable,Clear,34,11,24,1003,-999,-9999,11
20/7/2013 17:00,2.000000016,160,56,SSE,Clear,31,12,31,1002,-999,-9999,12
20/7/2013 18:00,1.000000008,0,96,Variable,Clear,31,19,49,1003,-999,-9999,19
20/7/2013 19:00,3.000000024,130,137,SE,Unknown,29,20,58,1002,-999,8,20
20/7/2013 20:00,2.000000016,150,139,SSE,Unknown,28,20,62,1003,-999,8,20
20/7/2013 21:00,1.000000008,0,128,Variable,Unknown,28,21,66,1004,-999,7,21
20/7/2013 22:00,2.000000016,160,112,SSE,Haze,27,22,74,1004,-999,5,22
20/7/2013 23:00,3.000000024,180,109,South,Mist,27,23,79,1004,-999,5,23
21/7/2013 0:00,3.000000024,180,93,South,Mist,26,22,78,1005,-999,5,22
21/7/2013 1:00,2.000000016,140,87,SE,Mist,25,22,83,1005,-999,5,22
21/7/2013 2:00,3.000000024,140,74,SE,Mist,25,22,83,1004,-999,5,22
21/7/2013 3:00,3.000000024,150,65,SSE,Unknown,24,21,83,1004,-999,7,21
21/7/2013 4:00,1.000000008,0,65,Variable,Unknown,24,21,83,1004,-999,8,21
21/7/2013 5:00,1.000000008,0,83,Variable,Unknown,24,21,83,1005,-999,6,21
21/7/2013 6:00,2.000000016,100,86,East,Mist,24,21,83,1005,-999,4,21
21/7/2013 7:00,1.000000008,50,85,NE,Mist,24,21,83,1005,-999,4.5,21
21/7/2013 8:00,1.000000008,0,77,Variable,Mist,26,21,74,1005,-999,5,21
21/7/2013 9:00,1.000000008,0,80,Variable,Mist,27,21,70,1005,-999,5,21
21/7/2013 10:00,1.000000008,0,90,Variable,Unknown,29,22,66,1005,-999,6,22
21/7/2013 11:00,2.000000016,160,94,SSE,Haze,30,22,62,1005,-999,5,22
21/7/2013 12:00,2.000000016,0,91,Variable,Haze,30,22,62,1005,-999,4.5,22
21/7/2013 13:00,3.000000024,220,65,SW,Haze,30,21,58,1005,-999,4.5,21
21/7/2013 14:00,3.000000024,0,75,Variable,Unknown,32,21,52,1004,-999,6,21
21/7/2013 15:00,4.000000032,190,66,South,Unknown,32,21,52,1003,-999,8,21
21/7/2013 16:00,5.00000004,180,66,South,Unknown,31,20,52,1003,-999,8,20
21/7/2013 17:00,4.000000032,160,56,SSE,Clear,31,20,52,1003,-999,-9999,20
21/7/2013 18:00,3.000000024,150,48,SSE,Clear,31,19,49,1004,-999,-9999,19
21/7/2013 19:00,2.000000016,160,42,SSE,Clear,29,19,55,1004,-999,-9999,19
21/7/2013 20:00,2.000000016,160,50,SSE,Clear,28,19,58,1004,-999,-9999,19
21/7/2013 21:00,1.000000008,160,48,SSE,Clear,27,21,70,1005,-999,-9999,21
21/7/2013 22:00,1.000000008,120,54,ESE,Clear,24,20,78,1005,-999,-9999,20
21/7/2013 23:00,1.000000008,170,61,South,Clear,24,21,83,1005,-999,-9999,21
22/7/2013 0:00,1.000000008,130,73,SE,Clear,24,21,83,1005,-999,-9999,21
22/7/2013 1:00,3.000000024,180,84,South,Clear,25,20,74,1005,-999,-9999,20
22/7/2013 2:00,1.000000008,80,92,East,Unknown,23,20,83,1004,-999,8,20
22/7/2013 3:00,1.000000008,100,92,East,Unknown,22,20,88,1005,-999,8,20
22/7/2013 4:00,2.000000016,80,104,East,Unknown,23,21,88,1005,-999,7,21
22/7/2013 5:00,1.000000008,0,118,Variable,Mist,22,20,88,1005,-999,4,20
22/7/2013 6:00,2.000000016,110,124,ESE,Mist,23,21,88,1005,-999,-9999,21
22/7/2013 7:00,2.000000016,110,116,ESE,Mist,25,22,83,1004,-999,3,22
22/7/2013 8:00,2.000000016,140,99,SE,Mist,27,21,70,1005,-999,3.5,21
22/7/2013 9:00,1.000000008,0,96,Variable,Haze,28,21,66,1005,-999,4,21
22/7/2013 10:00,2.000000016,120,,ESE,Haze,28,20,62,1004,-999,5,20
22/7/2013 11:00,2.000000016,150,,SSE,Haze,29,19,55,1004,-999,5,19
22/7/2013 12:00,2.000000016,140,,SE,Haze,30,20,55,1004,-999,5,20
22/7/2013 13:00,2.000000016,150,,SSE,Unknown,30,19,51,1004,-999,7,19
22/7/2013 14:00,3.000000024,110,,ESE,Unknown,30,20,55,1004,-999,7,20
22/7/2013 15:00,3.000000024,140,,SE,Unknown,30,19,51,1003,-999,8,19
22/7/2013 16:00,4.000000032,150,75,SSE,Clear,30,18,48,1002,-999,-9999,18
22/7/2013 17:00,3.000000024,150,96,SSE,Unknown,29,20,58,1002,-999,7,20
22/7/2013 18:00,2.000000016,120,117,ESE,Unknown,28,19,58,1001,-999,8,19
22/7/2013 19:00,2.000000016,130,122,SE,Unknown,28,19,58,1002,-999,8,19
22/7/2013 20:00,2.000000016,160,124,SSE,Clear,26,19,65,1003,-999,-9999,19
22/7/2013 21:00,1.000000008,0,107,Variable,Clear,26,19,65,1003,-999,-9999,19
22/7/2013 22:00,2.000000016,170,102,South,Unknown,26,19,65,1003,-999,8,19
22/7/2013 23:00,1.000000008,0,70,Variable,Unknown,26,21,74,1003,-999,7,21
23/7/2013 0:00,1.000000008,0,71,Variable,Unknown,25,21,78,1002,-999,6,21
23/7/2013 1:00,1.000000008,0,80,Variable,Unknown,25,20,74,1002,-999,6,20
23/7/2013 2:00,1.000000008,150,83,SSE,Unknown,26,20,69,1002,-999,7,20
23/7/2013 3:00,3.000000024,200,59,SSW,Light Rain,25,19,69,1002,-999,7,19
23/7/2013 4:00,4.000000032,230,49,SW,Clear,25,16,57,1001,-999,-9999,16
23/7/2013 5:00,2.000000016,180,53,South,Clear,24,17,65,1002,-999,-9999,17
23/7/2013 6:00,3.000000024,180,59,South,Clear,23,17,69,1002,-999,-9999,17
23/7/2013 7:00,4.000000032,180,44,South,Clear,23,18,73,1002,-999,-9999,18
23/7/2013 8:00,2.000000016,0,27,Variable,Clear,25,18,65,1002,-999,-9999,18
23/7/2013 9:00,5.00000004,230,23,SW,Clear,26,17,57,1001,-999,-9999,17
23/7/2013 10:00,4.000000032,270,18,West,Clear,28,16,48,1001,-999,-9999,16
23/7/2013 11:00,3.000000024,0,22,Variable,Clear,29,15,42,1000,-999,-9999,15
23/7/2013 12:00,3.000000024,190,24,South,Clear,30,16,43,1000,-999,-9999,16
23/7/2013 13:00,3.000000024,0,28,Variable,Clear,31,17,43,999,-999,-9999,17
23/7/2013 14:00,3.000000024,200,26,SSW,Clear,32,17,40,998,-999,-9999,17
23/7/2013 15:00,4.000000032,180,31,South,Clear,32,18,43,997,-999,-9999,18
23/7/2013 16:00,5.00000004,210,31,SSW,Clear,31,17,43,997,-999,-9999,17
23/7/2013 17:00,5.00000004,220,33,SW,Clear,31,17,43,996,-999,-9999,17
23/7/2013 18:00,5.00000004,190,41,South,Clear,30,18,48,997,-999,-9999,18
23/7/2013 19:00,4.000000032,180,40,South,Clear,29,18,51,998,-999,-9999,18
23/7/2013 20:00,4.000000032,200,46,SSW,Clear,28,18,54,998,-999,-9999,18
23/7/2013 21:00,3.000000024,190,46,South,Clear,27,19,61,999,-999,-9999,19
23/7/2013 22:00,2.000000016,130,48,SE,Clear,25,19,69,999,-999,-9999,19
23/7/2013 23:00,2.000000016,130,58,SE,Clear,25,19,69,999,-999,-9999,19
24/7/2013 0:00,2.000000016,140,64,SE,Clear,24,19,73,999,-999,-9999,19
24/7/2013 1:00,1.000000008,0,70,Variable,Clear,23,20,83,998,-999,-9999,20
24/7/2013 2:00,1.000000008,60,75,ENE,Unknown,22,20,88,998,-999,8,20
24/7/2013 3:00,1.000000008,10,72,North,Unknown,21,19,88,999,-999,8,19
24/7/2013 4:00,1.000000008,360,80,North,Unknown,22,20,88,999,-999,7,20
24/7/2013 5:00,2.000000016,350,79,North,Unknown,21,19,88,1000,-999,7,19
24/7/2013 6:00,4.000000032,350,72,North,Unknown,22,20,88,1000,-999,7,20
24/7/2013 7:00,4.000000032,360,62,North,Unknown,25,20,74,1000,-999,8,20
24/7/2013 8:00,2.000000016,360,51,North,Clear,28,20,62,1001,-999,-9999,20
24/7/2013 9:00,1.000000008,0,28,Variable,Clear,30,19,51,1001,-999,-9999,19
24/7/2013 10:00,2.000000016,80,17,East,Clear,32,19,46,1001,-999,-9999,19
24/7/2013 11:00,1.000000008,0,12,Variable,Clear,34,17,36,1000,-999,-9999,17
24/7/2013 12:00,5.00000004,290,13,WNW,Clear,35,13,26,1000,-999,-9999,13
24/7/2013 13:00,6.000000048,330,12,NNW,Clear,37,11,21,999,-999,-9999,11
24/7/2013 14:00,5.00000004,300,15,WNW,Clear,37,12,22,999,-999,-9999,12
24/7/2013 15:00,6.000000048,300,14,WNW,Clear,37,11,21,998,-999,-9999,11
24/7/2013 16:00,7.000000056,290,17,WNW,Clear,37,12,22,998,-999,-9999,12
24/7/2013 17:00,6.000000048,320,18,NW,Clear,37,12,22,998,-999,-9999,12
24/7/2013 18:00,4.000000032,310,17,NW,Clear,37,12,22,998,-999,-9999,12
24/7/2013 19:00,4.000000032,300,17,WNW,Clear,36,12,23,998,-999,-9999,12
24/7/2013 20:00,2.000000016,310,29,NW,Clear,33,14,31,999,-999,-9999,14
24/7/2013 21:00,1.000000008,0,40,Variable,Clear,28,19,58,999,-999,-9999,19
24/7/2013 22:00,2.000000016,350,48,North,Clear,27,18,58,1000,-999,-9999,18
24/7/2013 23:00,1.000000008,0,38,Variable,Clear,26,18,61,1000,-999,-9999,18
25/7/2013 0:00,1.000000008,0,26,Variable,Clear,26,19,65,1000,-999,-9999,19
25/7/2013 1:00,2.000000016,20,36,NNE,Clear,25,20,74,1000,-999,-9999,20
25/7/2013 2:00,3.000000024,360,30,North,Clear,24,19,73,1000,-999,-9999,19
25/7/2013 3:00,4.000000032,350,18,North,Clear,23,18,73,1000,-999,-9999,18
25/7/2013 4:00,3.000000024,330,23,NNW,Clear,24,18,69,1000,-999,-9999,18
25/7/2013 5:00,2.000000016,360,18,North,Clear,24,17,65,1001,-999,-9999,17
25/7/2013 6:00,4.000000032,350,17,North,Clear,25,17,61,1001,-999,-9999,17
25/7/2013 7:00,4.000000032,10,18,North,Clear,27,17,54,1001,-999,-9999,17
25/7/2013 8:00,3.000000024,360,17,North,Clear,29,17,48,1002,-999,-9999,17
25/7/2013 9:00,4.000000032,360,24,North,Clear,30,17,45,1002,-999,-9999,17
25/7/2013 10:00,4.000000032,30,19,NNE,Clear,32,16,38,1002,-999,-9999,16
25/7/2013 11:00,2.000000016,360,22,North,Clear,34,15,32,1002,-999,-9999,15
25/7/2013 12:00,2.000000016,130,17,SE,Clear,35,14,28,1002,-999,-9999,14
25/7/2013 13:00,2.000000016,0,20,Variable,Clear,35,14,28,1001,-999,-9999,14
25/7/2013 14:00,4.000000032,150,30,SSE,Clear,36,14,27,1001,-999,-9999,14
25/7/2013 15:00,3.000000024,150,32,SSE,Clear,36,15,28,1000,-999,-9999,15
25/7/2013 16:00,5.00000004,150,30,SSE,Clear,35,15,30,1000,-999,-9999,15
25/7/2013 17:00,4.000000032,150,48,SSE,Clear,35,14,28,1000,-999,-9999,14
25/7/2013 18:00,5.00000004,140,74,SE,Clear,33,17,38,1000,-999,-9999,17
25/7/2013 19:00,4.000000032,150,66,SSE,Clear,31,19,49,1000,-999,-9999,19
25/7/2013 20:00,4.000000032,150,69,SSE,Clear,30,19,51,1001,-999,-9999,19
25/7/2013 21:00,5.00000004,140,53,SE,Clear,29,17,48,1002,-999,-9999,17
25/7/2013 22:00,2.000000016,100,49,East,Clear,28,18,54,1003,-999,-9999,18
25/7/2013 23:00,3.000000024,100,43,East,Clear,27,17,54,1003,-999,-9999,17
26/7/2013 0:00,2.000000016,100,42,East,Clear,26,17,57,1003,-999,-9999,17
26/7/2013 1:00,2.000000016,120,40,ESE,Clear,26,18,61,1003,-999,-9999,18
26/7/2013 2:00,3.000000024,120,32,ESE,Clear,26,19,65,1003,-999,-9999,19
26/7/2013 3:00,3.000000024,100,41,East,Clear,26,18,61,1003,-999,-9999,18
26/7/2013 4:00,2.000000016,110,40,ESE,Clear,26,18,61,1003,-999,-9999,18
26/7/2013 5:00,1.000000008,0,41,Variable,Clear,26,19,65,1003,-999,-9999,19
26/7/2013 6:00,1.000000008,40,55,NE,Clear,26,18,61,1003,-999,-9999,18
26/7/2013 7:00,2.000000016,70,55,ENE,Clear,26,17,57,1003,-999,-9999,17
26/7/2013 8:00,1.000000008,0,54,Variable,Clear,27,18,58,1003,-999,-9999,18
26/7/2013 9:00,1.000000008,0,53,Variable,Clear,28,17,51,1004,-999,-9999,17
26/7/2013 10:00,3.000000024,110,56,ESE,Clear,28,19,58,1004,-999,-9999,19
26/7/2013 11:00,3.000000024,160,59,SSE,Light Rain Showers,27,18,58,1004,-999,10,18
26/7/2013 12:00,3.000000024,150,46,SSE,Light Rain Showers,23,20,83,1004,-999,5,20
26/7/2013 13:00,1.000000008,0,56,Variable,Light Rain Showers,24,21,83,1004,-999,8,21
26/7/2013 14:00,5.00000004,310,71,NW,Clear,25,20,74,1003,-999,-9999,20
26/7/2013 15:00,4.000000032,350,69,North,Clear,25,20,74,1003,-999,-9999,20
26/7/2013 16:00,4.000000032,340,56,NNW,Clear,25,21,78,1003,-999,-9999,21
26/7/2013 17:00,3.000000024,340,56,NNW,Clear,27,21,70,1002,-999,-9999,21
26/7/2013 18:00,2.000000016,360,62,North,Clear,27,21,70,1002,-999,-9999,21
26/7/2013 19:00,4.000000032,340,66,NNW,Clear,26,20,69,1002,-999,-9999,20
26/7/2013 20:00,2.000000016,10,62,North,Clear,25,20,74,1002,-999,-9999,20
26/7/2013 21:00,2.000000016,340,71,NNW,Clear,26,21,74,1002,-999,-9999,21
26/7/2013 22:00,2.000000016,310,71,NW,Clear,26,21,74,1002,-999,-9999,21
26/7/2013 23:00,1.000000008,0,74,Variable,Clear,25,21,78,1002,-999,-9999,21
27/7/2013 0:00,2.000000016,20,85,NNE,Clear,25,21,78,1002,-999,-9999,21
27/7/2013 1:00,1.000000008,40,76,NE,Clear,25,22,83,1002,-999,-9999,22
27/7/2013 2:00,3.000000024,80,80,East,Light Rain Showers,25,21,78,1002,-999,10,21
27/7/2013 3:00,1.000000008,0,83,Variable,Unknown,24,22,89,1001,-999,6,22
27/7/2013 4:00,2.000000016,60,89,ENE,Mist,24,21,83,1001,-999,5,21
27/7/2013 5:00,1.000000008,360,87,North,Mist,24,22,89,1001,-999,4,22
27/7/2013 6:00,2.000000016,360,90,North,Mist,25,22,83,1001,-999,4,22
27/7/2013 7:00,2.000000016,10,88,North,Light Rain Showers,24,22,89,1001,-999,2.2,22
27/7/2013 8:00,1.000000008,0,80,Variable,Light Rain Showers,24,22,89,1001,-999,1.7,22
27/7/2013 9:00,1.000000008,0,87,Variable,Light Rain Showers,24,22,89,1001,-999,1.4,22
27/7/2013 10:00,1.000000008,0,88,Variable,Light Rain,24,22,89,1001,-999,1.1,22
27/7/2013 11:00,2.000000016,10,94,North,Light Rain,24,22,89,1000,-999,1.1,22
27/7/2013 12:00,2.000000016,320,103,NW,Light Rain,24,22,89,1000,-999,1.2,22
27/7/2013 13:00,1.000000008,10,104,North,Light Rain,25,23,89,1000,-999,1.3,23
27/7/2013 14:00,1.000000008,0,118,Variable,Overcast,25,23,89,1000,-999,2,23
27/7/2013 15:00,1.000000008,80,119,East,Light Rain,25,23,89,999,-999,1.8,23
27/7/2013 16:00,2.000000016,80,112,East,Overcast,25,23,89,999,-999,1.8,23
27/7/2013 17:00,2.000000016,110,128,ESE,Overcast,25,23,89,999,-999,1.5,23
27/7/2013 18:00,1.000000008,0,149,Variable,Overcast,25,23,89,1000,-999,1.3,23
27/7/2013 19:00,1.000000008,0,145,Variable,Mostly Cloudy,25,23,89,999,-999,1.4,23
27/7/2013 20:00,1.000000008,0,164,Variable,Partly Cloudy,25,22,83,1000,-999,1.4,22
27/7/2013 21:00,1.000000008,0,156,Variable,Scattered Clouds,25,23,89,1000,-999,1.4,23
27/7/2013 22:00,1.000000008,0,179,Variable,Scattered Clouds,24,23,94,1000,-999,1.4,23
27/7/2013 23:00,1.000000008,70,171,ENE,Scattered Clouds,24,22,89,1000,-999,1.4,22
28/7/2013 0:00,1.000000008,20,178,NNE,Partly Cloudy,24,22,89,999,-999,1.4,22
28/7/2013 1:00,0,0,138,North,Partly Cloudy,23,21,88,999,-999,1.4,21
28/7/2013 2:00,3.000000024,330,141,NNW,Fog,24,22,89,999,-999,0.6,22
28/7/2013 3:00,1.000000008,0,131,Variable,Fog,24,22,89,999,-999,0.6,22
28/7/2013 4:00,3.000000024,330,103,NNW,Scattered Clouds,24,22,89,999,-999,1,22
28/7/2013 5:00,3.000000024,330,89,NNW,Mist,23,21,88,1000,-999,1.2,21
28/7/2013 6:00,3.000000024,360,93,North,Mist,23,21,88,1000,-999,2.5,21
28/7/2013 7:00,3.000000024,10,62,North,Mist,25,23,89,1000,-999,5,23
28/7/2013 8:00,2.000000016,20,48,NNE,Clear,28,21,66,1001,-999,-9999,21
28/7/2013 9:00,1.000000008,0,32,Variable,Clear,29,21,62,1001,-999,-9999,21
28/7/2013 10:00,2.000000016,60,32,ENE,Clear,30,19,51,1001,-999,-9999,19
28/7/2013 11:00,2.000000016,170,23,South,Clear,32,18,43,1001,-999,-9999,18
28/7/2013 12:00,3.000000024,290,20,WNW,Clear,34,16,34,1001,-999,-9999,16
28/7/2013 13:00,3.000000024,280,28,West,Clear,36,16,30,1000,-999,-9999,16
28/7/2013 14:00,4.000000032,240,20,WSW,Clear,37,15,27,999,-999,-9999,15
28/7/2013 15:00,4.000000032,260,22,West,Clear,37,15,27,999,-999,-9999,15
28/7/2013 16:00,3.000000024,260,31,West,Clear,38,15,25,999,-999,-9999,15
28/7/2013 17:00,3.000000024,260,25,West,Clear,38,15,25,998,-999,-9999,15
28/7/2013 18:00,5.00000004,210,26,SSW,Clear,36,17,32,998,-999,-9999,17
28/7/2013 19:00,5.00000004,210,27,SSW,Clear,34,18,38,999,-999,-9999,18
28/7/2013 20:00,3.000000024,180,30,South,Clear,32,19,46,999,-999,-9999,19
28/7/2013 21:00,4.000000032,200,33,SSW,Clear,32,16,38,1000,-999,-9999,16
28/7/2013 22:00,2.000000016,150,33,SSE,Clear,29,19,55,1000,-999,-9999,19
28/7/2013 23:00,1.000000008,0,36,Variable,Clear,27,20,65,1000,-999,-9999,20
29/7/2013 0:00,2.000000016,70,38,ENE,Clear,27,21,70,1000,-999,-9999,21
29/7/2013 1:00,2.000000016,40,49,NE,Clear,27,22,74,1000,-999,-9999,22
29/7/2013 2:00,2.000000016,30,91,NNE,Clear,26,22,78,1000,-999,-9999,22
29/7/2013 3:00,1.000000008,0,79,Variable,Clear,26,22,78,1000,-999,-9999,22
29/7/2013 4:00,1.000000008,0,72,Variable,Clear,26,22,78,999,-999,-9999,22
29/7/2013 5:00,1.000000008,0,69,Variable,Clear,26,22,78,1000,-999,-9999,22
29/7/2013 6:00,0,0,70,North,Unknown,26,23,83,1000,-999,8,23
29/7/2013 7:00,1.000000008,0,74,Variable,Unknown,27,23,79,1000,-999,7,23
29/7/2013 8:00,1.000000008,0,76,Variable,Unknown,28,22,70,1000,-999,7,22
29/7/2013 9:00,1.000000008,0,81,Variable,Unknown,29,23,70,1000,-999,7,23
29/7/2013 10:00,1.000000008,120,87,ESE,Unknown,29,23,70,1000,-999,6,23
29/7/2013 11:00,4.000000032,220,78,SW,Haze,29,23,70,1001,-999,4,23
29/7/2013 12:00,4.000000032,310,69,NW,Light Rain,31,21,55,1001,-999,6,21
29/7/2013 13:00,3.000000024,180,84,South,Haze,30,23,66,1001,-999,5,23
29/7/2013 14:00,2.000000016,140,55,SE,Unknown,31,23,62,1000,-999,7,23
29/7/2013 15:00,1.000000008,0,54,Variable,Unknown,32,21,52,999,-999,6,21
29/7/2013 16:00,1.000000008,0,53,Variable,Haze,31,22,58,998,-999,5,22
29/7/2013 17:00,1.000000008,0,40,Variable,Haze,30,23,66,998,-999,5,23
29/7/2013 18:00,2.000000016,120,50,ESE,Haze,30,23,66,998,-999,5,23
29/7/2013 19:00,2.000000016,160,60,SSE,Haze,30,23,66,998,-999,3.5,23
29/7/2013 20:00,2.000000016,160,59,SSE,Haze,28,22,70,999,-999,5,22
29/7/2013 21:00,4.000000032,180,70,South,Unknown,29,19,55,999,-999,8,19
29/7/2013 22:00,5.00000004,180,98,South,Unknown,28,21,66,999,-999,7,21
29/7/2013 23:00,2.000000016,180,106,South,Unknown,27,21,70,1000,-999,6,21
30/7/2013 0:00,1.000000008,90,99,East,Mist,25,22,83,999,-999,5,22
30/7/2013 1:00,1.000000008,0,96,Variable,Mist,24,22,89,998,-999,5,22
30/7/2013 2:00,1.000000008,0,115,Variable,Mist,24,21,83,998,-999,5,21
30/7/2013 3:00,1.000000008,0,77,Variable,Mist,24,21,83,997,-999,4.5,21
30/7/2013 4:00,2.000000016,30,125,NNE,Mist,24,21,83,997,-999,3.5,21
30/7/2013 5:00,0,0,128,North,Mist,23,21,88,997,-999,3,21
30/7/2013 6:00,1.000000008,120,135,ESE,Mist,23,21,88,998,-999,2,21
30/7/2013 7:00,1.000000008,20,139,NNE,Mist,25,23,89,998,-999,2.2,23
30/7/2013 8:00,2.000000016,80,142,East,Mist,26,22,78,999,-999,3,22
30/7/2013 9:00,2.000000016,100,132,East,Mist,28,23,74,999,-999,3,23
30/7/2013 10:00,1.000000008,0,104,Variable,Haze,30,23,66,998,-999,3,23
30/7/2013 11:00,1.000000008,0,114,Variable,Haze,31,23,62,998,-999,3,23
30/7/2013 12:00,2.000000016,140,128,SE,Haze,32,21,52,997,-999,3.5,21
30/7/2013 13:00,2.000000016,150,96,SSE,Haze,33,22,52,997,-999,3,22
30/7/2013 14:00,3.000000024,0,69,Variable,Haze,33,21,49,996,-999,3.5,21
30/7/2013 15:00,3.000000024,140,65,SE,Haze,34,21,46,996,-999,5,21
30/7/2013 16:00,3.000000024,130,55,SE,Clear,34,20,44,995,-999,-9999,20
30/7/2013 17:00,5.00000004,150,51,SSE,Clear,34,20,44,995,-999,-9999,20
30/7/2013 18:00,4.000000032,160,74,SSE,Clear,33,21,49,995,-999,-9999,21
30/7/2013 19:00,4.000000032,160,99,SSE,Clear,31,21,55,996,-999,-9999,21
30/7/2013 20:00,3.000000024,150,99,SSE,Clear,30,22,62,996,-999,-9999,22
30/7/2013 21:00,2.000000016,150,82,SSE,Unknown,29,22,66,997,-999,7,22
30/7/2013 22:00,2.000000016,130,96,SE,Unknown,28,23,74,998,-999,7,23
30/7/2013 23:00,2.000000016,100,76,East,Unknown,28,23,74,999,-999,6,23
31/7/2013 0:00,9.000000072,290,18,WNW,Thunderstorms and Rain,22,19,83,1001,-999,6,19
31/7/2013 1:00,2.000000016,10,19,North,Light Thunderstorms and Rain,22,19,83,1001,-999,10,19
31/7/2013 2:00,4.000000032,70,22,ENE,Light Thunderstorms and Rain,22,19,83,999,-999,10,19
31/7/2013 3:00,4.000000032,290,20,WNW,Clear,23,19,78,998,-999,-9999,19
31/7/2013 4:00,3.000000024,270,20,West,Clear,23,19,78,999,-999,-9999,19
31/7/2013 5:00,3.000000024,290,25,WNW,Clear,23,19,78,999,-999,-9999,19
31/7/2013 6:00,0,0,29,North,Clear,22,19,83,999,-999,-9999,19
31/7/2013 7:00,1.000000008,140,40,SE,Clear,23,20,83,1000,-999,-9999,20
31/7/2013 8:00,2.000000016,150,34,SSE,Clear,24,20,78,1000,-999,-9999,20
31/7/2013 9:00,2.000000016,150,34,SSE,Clear,26,20,69,1000,-999,-9999,20
31/7/2013 10:00,2.000000016,0,42,Variable,Clear,28,21,66,1000,-999,-9999,21
31/7/2013 11:00,2.000000016,130,35,SE,Clear,29,19,55,1000,-999,-9999,19
31/7/2013 12:00,2.000000016,130,47,SE,Clear,31,19,49,999,-999,-9999,19
31/7/2013 13:00,3.000000024,150,54,SSE,Clear,32,19,46,999,-999,-9999,19
31/7/2013 14:00,3.000000024,150,67,SSE,Clear,32,19,46,999,-999,-9999,19
31/7/2013 15:00,4.000000032,120,69,ESE,Clear,32,22,55,998,-999,-9999,22
31/7/2013 16:00,3.000000024,130,81,SE,Clear,32,22,55,998,-999,-9999,22
31/7/2013 17:00,3.000000024,130,88,SE,Clear,32,23,59,998,-999,-9999,23
31/7/2013 18:00,3.000000024,140,106,SE,Unknown,31,22,58,997,-999,8,22
31/7/2013 19:00,1.000000008,0,85,Variable,Mostly Cloudy,30,23,66,998,-999,6,23
31/7/2013 20:00,10.00000008,340,31,NNW,Light Thunderstorms and Rain,24,18,69,1000,-999,10,18
31/7/2013 21:00,6.000000048,290,24,WNW,Light Thunderstorms and Rain,23,20,83,1002,-999,10,20
31/7/2013 22:00,3.000000024,200,33,SSW,Light Thunderstorms and Rain,23,20,83,1003,-999,10,20
31/7/2013 23:00,4.000000032,90,36,East,Light Thunderstorms and Rain,22,20,88,1002,-999,8,20
1/8/2013 0:00,3.000000024,360,36,North,Unknown,22,20,88,1002,-999,8,20
1/8/2013 1:00,3.000000024,350,31,North,Partly Cloudy,22,20,88,1001,-999,7,20
1/8/2013 2:00,2.000000016,50,31,NE,Unknown,21,19,88,1001,-999,8,19
1/8/2013 3:00,0,0,38,North,Unknown,21,19,88,1001,-999,8,19
1/8/2013 4:00,1.000000008,350,42,North,Unknown,21,19,88,1001,-999,7,19
1/8/2013 5:00,1.000000008,0,37,Variable,Unknown,21,19,88,1001,-999,6,19
1/8/2013 6:00,3.000000024,330,34,NNW,Unknown,22,19,83,1002,-999,6,19
1/8/2013 7:00,2.000000016,30,39,NNE,Unknown,23,20,83,1002,-999,6,20
1/8/2013 8:00,2.000000016,10,42,North,Unknown,24,20,78,1003,-999,7,20
1/8/2013 9:00,3.000000024,360,41,North,Clear,25,20,74,1004,-999,-9999,20
1/8/2013 10:00,2.000000016,360,39,North,Light Rain Showers,24,20,78,1004,-999,7,20
1/8/2013 11:00,1.000000008,0,42,Variable,Light Rain Showers,25,20,74,1004,-999,10,20
1/8/2013 12:00,4.000000032,220,45,SW,Light Rain Showers,24,19,73,1005,-999,10,19
1/8/2013 13:00,2.000000016,140,39,SE,Light Rain Showers,23,20,83,1004,-999,10,20
1/8/2013 14:00,1.000000008,0,46,Variable,Clear,24,21,83,1004,-999,-9999,21
1/8/2013 15:00,3.000000024,130,42,SE,Unknown,24,21,83,1003,-999,8,21
1/8/2013 16:00,3.000000024,210,45,SSW,Unknown,24,20,78,1004,-999,8,20
1/8/2013 17:00,1.000000008,0,56,Variable,Clear,26,19,65,1003,-999,-9999,19
1/8/2013 18:00,2.000000016,30,62,NNE,Clear,26,20,69,1002,-999,-9999,20
1/8/2013 19:00,2.000000016,60,59,ENE,Clear,25,20,74,1003,-999,-9999,20
1/8/2013 20:00,1.000000008,150,55,SSE,Clear,23,20,83,1004,-999,-9999,20
1/8/2013 21:00,0,0,68,North,Clear,22,20,88,1005,-999,-9999,20
1/8/2013 22:00,1.000000008,0,73,Variable,Clear,22,20,88,1006,-999,-9999,20
1/8/2013 23:00,0,0,76,North,Clear,22,20,88,1006,-999,-9999,20
2/8/2013 0:00,1.000000008,0,80,Variable,Clear,22,20,88,1005,-999,-9999,20
2/8/2013 1:00,1.000000008,0,84,Variable,Unknown,22,20,88,1005,-999,7,20
2/8/2013 2:00,1.000000008,0,90,Variable,Unknown,22,20,88,1005,-999,6,20
2/8/2013 3:00,2.000000016,10,79,North,Mist,21,20,94,1004,-999,5,20
2/8/2013 4:00,1.000000008,0,69,Variable,Mist,22,20,88,1005,-999,5,20
2/8/2013 5:00,2.000000016,350,63,North,Unknown,21,19,88,1005,-999,6,19
2/8/2013 6:00,0,0,61,North,Mist,21,19,88,1005,-999,5,19
2/8/2013 7:00,4.000000032,320,55,NW,Mist,23,20,83,1006,-999,4.5,20
2/8/2013 8:00,3.000000024,350,65,North,Partly Cloudy,24,21,83,1006,-999,5,21
2/8/2013 9:00,2.000000016,360,68,North,Mostly Cloudy,26,21,74,1006,-999,5,21
2/8/2013 10:00,1.000000008,0,74,Variable,Mist,27,21,70,1006,-999,5,21
2/8/2013 11:00,1.000000008,0,72,Variable,Haze,29,20,58,1006,-999,5,20
2/8/2013 12:00,1.000000008,0,70,Variable,Haze,30,21,58,1006,-999,5,21
2/8/2013 13:00,1.000000008,0,81,Variable,Haze,30,21,58,1006,-999,5,21
2/8/2013 14:00,2.000000016,110,88,ESE,Haze,30,21,58,1006,-999,5,21
2/8/2013 15:00,2.000000016,150,89,SSE,Haze,31,20,52,1005,-999,5,20
2/8/2013 16:00,3.000000024,140,107,SE,Haze,30,22,62,1004,-999,4,22
2/8/2013 17:00,2.000000016,130,102,SE,Haze,29,22,66,1005,-999,4,22
2/8/2013 18:00,4.000000032,220,48,SW,Haze,30,20,55,1006,-999,4,20
2/8/2013 19:00,3.000000024,60,47,ENE,Partly Cloudy,27,19,61,1004,-999,10,19
2/8/2013 20:00,4.000000032,200,36,SSW,Clear,28,20,62,1004,-999,-9999,20
2/8/2013 21:00,4.000000032,300,38,WNW,Clear,26,16,54,1005,-999,-9999,16
2/8/2013 22:00,3.000000024,20,61,NNE,Clear,23,17,69,1004,-999,-9999,17
2/8/2013 23:00,3.000000024,300,32,WNW,Clear,26,17,57,1006,-999,-9999,17
3/8/2013 0:00,2.000000016,250,32,WSW,Clear,26,17,57,1006,-999,-9999,17
3/8/2013 1:00,3.000000024,260,26,West,Clear,26,15,51,1006,-999,-9999,15
3/8/2013 2:00,1.000000008,0,19,Variable,Clear,22,18,78,1005,-999,-9999,18
3/8/2013 3:00,4.000000032,290,25,WNW,Clear,25,15,54,1005,-999,-9999,15
3/8/2013 4:00,2.000000016,130,38,SE,Clear,22,17,73,1003,-999,-9999,17
3/8/2013 5:00,1.000000008,0,27,Variable,Clear,23,17,69,1003,-999,-9999,17
3/8/2013 6:00,5.00000004,350,18,North,Clear,23,16,65,1003,-999,-9999,16
3/8/2013 7:00,2.000000016,10,21,North,Clear,23,17,69,1004,-999,-9999,17
3/8/2013 8:00,2.000000016,20,26,NNE,Clear,26,18,61,1004,-999,-9999,18
3/8/2013 9:00,2.000000016,10,25,North,Clear,29,18,51,1004,-999,-9999,18
3/8/2013 10:00,2.000000016,130,25,SE,Clear,29,17,48,1004,-999,-9999,17
3/8/2013 11:00,2.000000016,0,28,Variable,Clear,30,17,45,1004,-999,-9999,17
3/8/2013 12:00,3.000000024,180,32,South,Clear,31,16,40,1004,-999,-9999,16
3/8/2013 13:00,2.000000016,170,28,South,Clear,32,16,38,1003,-999,-9999,16
3/8/2013 14:00,2.000000016,140,28,SE,Clear,32,17,40,1002,-999,-9999,17
3/8/2013 15:00,4.000000032,180,27,South,Clear,33,14,31,1002,-999,-9999,14
3/8/2013 16:00,5.00000004,190,30,South,Clear,32,16,38,1002,-999,-9999,16
3/8/2013 17:00,5.00000004,170,29,South,Clear,32,17,40,1001,-999,-9999,17
3/8/2013 18:00,5.00000004,180,37,South,Clear,31,18,46,1001,-999,-9999,18
3/8/2013 19:00,4.000000032,180,55,South,Clear,29,18,51,1001,-999,-9999,18
3/8/2013 20:00,3.000000024,170,62,South,Clear,27,19,61,1001,-999,-9999,19
3/8/2013 21:00,3.000000024,160,57,SSE,Clear,27,20,65,1003,-999,-9999,20
3/8/2013 22:00,1.000000008,150,63,SSE,Clear,26,20,69,1003,-999,-9999,20
3/8/2013 23:00,3.000000024,200,76,SSW,Clear,27,20,65,1003,-999,-9999,20
4/8/2013 0:00,3.000000024,160,75,SSE,Clear,26,21,74,1002,-999,-9999,21
4/8/2013 1:00,1.000000008,0,84,Variable,Clear,26,21,74,1002,-999,-9999,21
4/8/2013 2:00,2.000000016,80,90,East,Clear,25,21,78,1001,-999,-9999,21
4/8/2013 3:00,2.000000016,70,86,ENE,Unknown,24,21,83,1001,-999,6,21
4/8/2013 4:00,1.000000008,0,100,Variable,Mist,23,21,88,1001,-999,5,21
4/8/2013 5:00,1.000000008,0,103,Variable,Mist,23,20,83,1001,-999,3.5,20
4/8/2013 6:00,1.000000008,0,109,Variable,Mist,23,21,88,1001,-999,3.5,21
4/8/2013 7:00,1.000000008,360,110,North,Mist,25,22,83,1001,-999,4,22
4/8/2013 8:00,1.000000008,0,107,Variable,Unknown,26,22,78,1001,-999,6,22
4/8/2013 9:00,2.000000016,20,63,NNE,Haze,28,22,70,1002,-999,5,22
4/8/2013 10:00,3.000000024,150,66,SSE,Unknown,30,21,58,1001,-999,6,21
4/8/2013 11:00,2.000000016,180,58,South,Unknown,30,21,58,1000,-999,7,21
4/8/2013 12:00,2.000000016,180,76,South,Unknown,31,19,49,1000,-999,9,19
4/8/2013 13:00,2.000000016,140,80,SE,Clear,32,20,49,999,-999,-9999,20
4/8/2013 14:00,2.000000016,100,75,East,Clear,33,21,49,998,-999,-9999,21
4/8/2013 15:00,3.000000024,130,62,SE,Clear,33,21,49,997,-999,-9999,21
4/8/2013 16:00,3.000000024,140,96,SE,Unknown,33,22,52,997,-999,8,22
4/8/2013 17:00,4.000000032,160,122,SSE,Haze,32,23,59,996,-999,5,23
4/8/2013 18:00,4.000000032,180,169,South,Haze,31,23,62,996,-999,4,23
4/8/2013 19:00,4.000000032,200,144,SSW,Unknown,31,24,66,996,-999,3.5,24
4/8/2013 20:00,11.00000009,360,21,North,Thunderstorms and Rain,20,18,88,1000,-999,4,18
4/8/2013 21:00,5.00000004,360,21,North,Light Thunderstorms and Rain,21,19,88,1000,-999,10,19
4/8/2013 22:00,3.000000024,160,28,SSE,Thunderstorm,21,19,88,1000,-999,10,19
4/8/2013 23:00,3.000000024,210,31,SSW,Light Thunderstorms and Rain,22,19,83,1000,-999,10,19
5/8/2013 0:00,1.000000008,0,38,Variable,Light Rain Showers,22,19,83,999,-999,10,19
5/8/2013 1:00,2.000000016,60,42,ENE,Clear,21,19,88,999,-999,-9999,19
5/8/2013 2:00,2.000000016,140,48,SE,Unknown,21,19,88,999,-999,6,19
5/8/2013 3:00,2.000000016,40,54,NE,Mist,21,19,88,998,-999,5,19
5/8/2013 4:00,2.000000016,350,62,North,Mist,20,18,88,998,-999,4,18
5/8/2013 5:00,1.000000008,360,50,North,Mist,20,18,88,998,-999,4,18
5/8/2013 6:00,2.000000016,360,55,North,Mist,20,18,88,998,-999,3.5,18
5/8/2013 7:00,2.000000016,300,46,WNW,Mist,22,19,83,998,-999,5,19
5/8/2013 8:00,2.000000016,270,39,West,Unknown,23,19,78,999,-999,7,19
5/8/2013 9:00,2.000000016,350,35,North,Clear,26,19,65,999,-999,-9999,19
5/8/2013 10:00,2.000000016,0,35,Variable,Clear,27,19,61,998,-999,-9999,19
5/8/2013 11:00,2.000000016,0,35,Variable,Clear,28,18,54,999,-999,-9999,18
5/8/2013 12:00,2.000000016,120,41,ESE,Clear,30,19,51,998,-999,-9999,19
5/8/2013 13:00,1.000000008,0,41,Variable,Clear,31,19,49,998,-999,-9999,19
5/8/2013 14:00,1.000000008,0,46,Variable,Clear,32,18,43,997,-999,-9999,18
5/8/2013 15:00,2.000000016,140,54,SE,Clear,32,20,49,997,-999,-9999,20
5/8/2013 16:00,2.000000016,150,57,SSE,Clear,32,19,46,997,-999,-9999,19
5/8/2013 17:00,3.000000024,150,55,SSE,Unknown,32,20,49,996,-999,9,20
5/8/2013 18:00,3.000000024,150,43,SSE,Clear,31,21,55,996,-999,-9999,21
5/8/2013 19:00,3.000000024,160,34,SSE,Clear,29,20,58,997,-999,-9999,20
5/8/2013 20:00,2.000000016,170,40,South,Clear,27,20,65,997,-999,-9999,20
5/8/2013 21:00,2.000000016,170,39,South,Clear,26,21,74,998,-999,-9999,21
5/8/2013 22:00,1.000000008,170,46,South,Clear,26,21,74,998,-999,-9999,21
5/8/2013 23:00,1.000000008,60,55,ENE,Clear,25,22,83,998,-999,-9999,22
6/8/2013 0:00,2.000000016,70,69,ENE,Unknown,25,22,83,998,-999,7,22
6/8/2013 1:00,2.000000016,90,71,East,Mist,25,22,83,999,-999,5,22
6/8/2013 2:00,2.000000016,100,80,East,Mist,25,22,83,998,-999,5,22
6/8/2013 3:00,2.000000016,80,86,East,Mist,25,22,83,998,-999,4,22
6/8/2013 4:00,1.000000008,0,90,Variable,Mist,25,22,83,999,-999,4,22
6/8/2013 5:00,2.000000016,50,94,NE,Mist,25,22,83,998,-999,4,22
6/8/2013 6:00,2.000000016,70,116,ENE,Mist,25,22,83,999,-999,-9999,22
6/8/2013 7:00,1.000000008,0,124,Variable,Mist,26,22,78,999,-999,-9999,22
6/8/2013 8:00,1.000000008,0,130,Variable,Mostly Cloudy,26,22,78,1000,-999,-9999,22
6/8/2013 9:00,1.000000008,0,139,Variable,Overcast,27,23,79,1000,-999,3,23
6/8/2013 10:00,1.000000008,0,127,Variable,Overcast,27,23,79,1000,-999,2,23
6/8/2013 11:00,2.000000016,70,130,ENE,Mist,29,24,74,1000,-999,2,24
6/8/2013 12:00,2.000000016,130,143,SE,Mist,30,24,70,1000,-999,2,24
6/8/2013 13:00,1.000000008,0,138,Variable,Haze,32,25,66,999,-999,2,25
6/8/2013 14:00,2.000000016,100,130,East,Haze,32,25,66,998,-999,2.2,25
6/8/2013 15:00,3.000000024,140,128,SE,Haze,32,24,62,998,-999,2.3,24
6/8/2013 16:00,4.000000032,130,122,SE,Haze,32,25,66,998,-999,2.3,25
6/8/2013 17:00,3.000000024,140,128,SE,Haze,32,24,62,998,-999,2.5,24
6/8/2013 18:00,3.000000024,140,147,SE,Haze,31,25,70,998,-999,2.5,25
6/8/2013 19:00,3.000000024,140,154,SE,Haze,31,26,75,999,-999,2.1,26
6/8/2013 20:00,3.000000024,110,168,ESE,Mist,30,26,79,999,-999,2.8,26
6/8/2013 21:00,2.000000016,140,169,SE,Mist,29,26,84,1000,-999,2.5,26
6/8/2013 22:00,2.000000016,140,177,SE,Mist,29,26,84,1000,-999,2.3,26
6/8/2013 23:00,3.000000024,170,151,South,Mostly Cloudy,30,26,79,1000,-999,2.1,26
7/8/2013 0:00,6.000000048,30,36,NNE,Mostly Cloudy,27,23,79,1001,-999,10,23
7/8/2013 1:00,4.000000032,350,40,North,Mostly Cloudy,26,22,78,1001,-999,10,22
7/8/2013 2:00,6.000000048,320,33,NW,Light Thunderstorms and Rain,25,21,78,1003,-999,10,21
7/8/2013 3:00,3.000000024,210,37,SSW,Thunderstorm,25,21,78,1002,-999,10,21
7/8/2013 4:00,1.000000008,0,48,Variable,Clear,24,21,83,1002,-999,-9999,21
7/8/2013 5:00,3.000000024,10,43,North,Clear,24,21,83,1002,-999,-9999,21
7/8/2013 6:00,1.000000008,0,45,Variable,Unknown,24,21,83,1002,-999,8,21
7/8/2013 7:00,1.000000008,0,43,Variable,Light Rain Showers,24,21,83,1002,-999,6,21
7/8/2013 8:00,1.000000008,120,39,ESE,Unknown,25,22,83,1002,-999,8,22
7/8/2013 9:00,3.000000024,340,37,NNW,Clear,28,22,70,1003,-999,-9999,22
7/8/2013 10:00,3.000000024,10,43,North,Clear,29,22,66,1002,-999,-9999,22
7/8/2013 11:00,2.000000016,20,34,NNE,Clear,29,21,62,1003,-999,-9999,21
7/8/2013 12:00,4.000000032,340,24,NNW,Clear,30,20,55,1003,-999,-9999,20
7/8/2013 13:00,4.000000032,350,27,North,Clear,29,21,62,1003,-999,-9999,21
7/8/2013 14:00,3.000000024,10,26,North,Clear,29,22,66,1002,-999,-9999,22
7/8/2013 15:00,8.000000064,310,19,NW,Light Rain Showers,27,20,65,1003,-999,10,20
7/8/2013 16:00,7.000000056,330,18,NNW,Light Rain Showers,26,19,65,1002,-999,10,19
7/8/2013 17:00,4.000000032,360,23,North,Light Rain Showers,25,19,69,1002,-999,10,19
7/8/2013 18:00,5.00000004,260,23,West,Light Rain Showers,25,19,69,1002,-999,10,19
7/8/2013 19:00,4.000000032,340,32,NNW,Overcast,23,19,78,1001,-999,10,19
7/8/2013 20:00,3.000000024,360,23,North,Light Rain Showers,23,19,78,1000,-999,10,19
7/8/2013 21:00,3.000000024,330,23,NNW,Overcast,24,19,73,1002,-999,10,19
7/8/2013 22:00,3.000000024,330,16,NNW,Clear,24,18,69,1001,-999,-9999,18
7/8/2013 23:00,3.000000024,350,21,North,Clear,24,19,73,1001,-999,-9999,19
8/8/2013 0:00,2.000000016,360,18,North,Clear,23,19,78,1001,-999,-9999,19
8/8/2013 1:00,2.000000016,360,20,North,Clear,23,19,78,1000,-999,-9999,19
8/8/2013 2:00,2.000000016,20,20,NNE,Clear,23,19,78,1000,-999,-9999,19
8/8/2013 3:00,2.000000016,340,17,NNW,Clear,22,19,83,1000,-999,-9999,19
8/8/2013 4:00,1.000000008,330,19,NNW,Clear,23,19,78,1000,-999,-9999,19
8/8/2013 5:00,2.000000016,360,21,North,Clear,22,19,83,1000,-999,-9999,19
8/8/2013 6:00,1.000000008,0,22,Variable,Clear,23,19,78,1000,-999,-9999,19
8/8/2013 7:00,1.000000008,0,29,Variable,Clear,25,19,69,1000,-999,-9999,19
8/8/2013 8:00,2.000000016,10,41,North,Clear,25,20,74,1000,-999,-9999,20
8/8/2013 9:00,2.000000016,40,33,NE,Clear,26,19,65,1000,-999,-9999,19
8/8/2013 10:00,1.000000008,0,27,Variable,Clear,29,20,58,1001,-999,-9999,20
8/8/2013 11:00,2.000000016,0,35,Variable,Clear,31,19,49,1000,-999,-9999,19
8/8/2013 12:00,3.000000024,260,36,West,Clear,32,19,46,1000,-999,-9999,19
8/8/2013 13:00,4.000000032,260,37,West,Clear,34,17,36,999,-999,-9999,17
8/8/2013 14:00,3.000000024,240,31,WSW,Clear,34,15,32,999,-999,-9999,15
8/8/2013 15:00,2.000000016,200,34,SSW,Clear,35,17,34,998,-999,-9999,17
8/8/2013 16:00,4.000000032,180,30,South,Clear,34,20,44,998,-999,-9999,20
8/8/2013 17:00,5.00000004,180,31,South,Clear,34,19,41,998,-999,-9999,19
8/8/2013 18:00,5.00000004,180,50,South,Partly Cloudy,32,18,43,998,-999,10,18
8/8/2013 19:00,4.000000032,190,59,South,Clear,31,21,55,999,-999,-9999,21
8/8/2013 20:00,1.000000008,0,58,Variable,Clear,29,22,66,1000,-999,-9999,22
8/8/2013 21:00,5.00000004,330,27,NNW,Clear,31,22,58,1001,-999,-9999,22
8/8/2013 22:00,2.000000016,100,50,East,Clear,28,19,58,1000,-999,-9999,19
8/8/2013 23:00,5.00000004,360,30,North,Clear,25,18,65,1000,-999,-9999,18
9/8/2013 0:00,3.000000024,360,31,North,Clear,24,19,73,1000,-999,-9999,19
9/8/2013 1:00,4.000000032,350,26,North,Clear,22,18,78,1000,-999,-9999,18
9/8/2013 2:00,3.000000024,360,24,North,Clear,22,18,78,1000,-999,-9999,18
9/8/2013 3:00,2.000000016,10,31,North,Clear,21,18,83,1000,-999,-9999,18
9/8/2013 4:00,3.000000024,350,23,North,Clear,21,17,78,1000,-999,-9999,17
9/8/2013 5:00,4.000000032,360,29,North,Clear,20,17,83,1001,-999,-9999,17
9/8/2013 6:00,2.000000016,340,26,NNW,Clear,22,18,78,1001,-999,-9999,18
9/8/2013 7:00,3.000000024,360,28,North,Clear,24,18,69,1001,-999,-9999,18
9/8/2013 8:00,2.000000016,10,22,North,Clear,27,17,54,1002,-999,-9999,17
9/8/2013 9:00,3.000000024,10,29,North,Clear,29,16,45,1002,-999,-9999,16
9/8/2013 10:00,2.000000016,50,28,NE,Clear,30,16,43,1001,-999,-9999,16
9/8/2013 11:00,2.000000016,320,32,NW,Clear,33,17,38,1001,-999,-9999,17
9/8/2013 12:00,3.000000024,0,38,Variable,Clear,33,17,38,1001,-999,-9999,17
9/8/2013 13:00,2.000000016,250,42,WSW,Clear,35,16,32,1000,-999,-9999,16
9/8/2013 14:00,3.000000024,210,36,SSW,Clear,35,17,34,1000,-999,-9999,17
9/8/2013 15:00,2.000000016,0,40,Variable,Clear,37,16,29,1000,-999,-9999,16
9/8/2013 16:00,3.000000024,220,36,SW,Partly Cloudy,37,16,29,999,-999,10,16
9/8/2013 17:00,5.00000004,180,41,South,Clear,35,20,41,999,-999,-9999,20
9/8/2013 18:00,4.000000032,190,43,South,Clear,34,19,41,999,-999,-9999,19
9/8/2013 19:00,4.000000032,200,49,SSW,Clear,33,19,43,1000,-999,-9999,19
9/8/2013 20:00,2.000000016,130,60,SE,Clear,30,22,62,1001,-999,-9999,22
9/8/2013 21:00,1.000000008,120,65,ESE,Clear,27,23,79,1001,-999,-9999,23
9/8/2013 22:00,2.000000016,170,56,South,Clear,28,22,70,1002,-999,-9999,22
9/8/2013 23:00,2.000000016,80,61,East,Clear,27,23,79,1002,-999,-9999,23
10/8/2013 0:00,2.000000016,70,96,ENE,Clear,27,23,79,1002,-999,-9999,23
10/8/2013 1:00,1.000000008,40,101,NE,Clear,26,23,83,1002,-999,-9999,23
10/8/2013 2:00,1.000000008,360,101,North,Clear,25,22,83,1003,-999,-9999,22
10/8/2013 3:00,2.000000016,10,62,North,Clear,24,21,83,1002,-999,-9999,21
10/8/2013 4:00,2.000000016,10,54,North,Clear,24,20,78,1003,-999,-9999,20
10/8/2013 5:00,2.000000016,10,42,North,Clear,24,20,78,1003,-999,-9999,20
10/8/2013 6:00,1.000000008,0,45,Variable,Scattered Clouds,24,20,78,1004,-999,10,20
10/8/2013 7:00,1.000000008,0,39,Variable,Overcast,26,20,69,1005,-999,10,20
10/8/2013 8:00,4.000000032,360,46,North,Scattered Clouds,26,20,69,1005,-999,10,20
10/8/2013 9:00,1.000000008,0,62,Variable,Partly Cloudy,27,21,70,1006,-999,10,21
10/8/2013 10:00,1.000000008,0,104,Variable,Partly Cloudy,28,21,66,1006,-999,10,21
10/8/2013 11:00,1.000000008,0,115,Variable,Partly Cloudy,30,24,70,1005,-999,1.6,24
10/8/2013 12:00,2.000000016,140,117,SE,Mist,32,24,62,1005,-999,1.8,24
10/8/2013 13:00,2.000000016,140,113,SE,Haze,33,24,59,1004,-999,2,24
10/8/2013 14:00,2.000000016,0,128,Variable,Haze,34,24,56,1004,-999,2.5,24
10/8/2013 15:00,4.000000032,140,132,SE,Haze,35,23,49,1004,-999,3,23
10/8/2013 16:00,4.000000032,150,116,SSE,Haze,34,23,52,1004,-999,5,23
10/8/2013 17:00,4.000000032,150,93,SSE,Haze,34,23,52,1004,-999,5,23
10/8/2013 18:00,3.000000024,150,100,SSE,Unknown,33,23,55,1004,-999,6,23
10/8/2013 19:00,2.000000016,160,111,SSE,Unknown,31,23,62,1004,-999,6,23
10/8/2013 20:00,2.000000016,160,109,SSE,Unknown,30,22,62,1005,-999,6,22
10/8/2013 21:00,1.000000008,0,93,Variable,Unknown,28,23,74,1006,-999,6,23
10/8/2013 22:00,2.000000016,170,80,South,Mist,28,23,74,1006,-999,5,23
10/8/2013 23:00,2.000000016,150,74,SSE,Mist,27,24,84,1006,-999,5,24
11/8/2013 0:00,1.000000008,0,70,Variable,Mist,26,23,83,1006,-999,5,23
11/8/2013 1:00,2.000000016,130,80,SE,Mist,26,24,89,1006,-999,3.5,24
11/8/2013 2:00,2.000000016,130,106,SE,Scattered Clouds,27,24,84,1006,-999,3.5,24
11/8/2013 3:00,3.000000024,120,141,ESE,Mist,27,24,84,1007,-999,3,24
11/8/2013 4:00,2.000000016,110,172,ESE,Mist,27,24,84,1006,-999,2.2,24
11/8/2013 5:00,1.000000008,0,178,Variable,Mist,27,24,84,1006,-999,1.5,24
11/8/2013 6:00,2.000000016,110,203,ESE,Mist,27,24,84,1006,-999,1,24
11/8/2013 7:00,2.000000016,110,208,ESE,Mist,27,24,84,1007,-999,1,24
11/8/2013 8:00,2.000000016,190,175,South,Light Rain Showers,28,24,79,1007,-999,1,24
11/8/2013 9:00,4.000000032,260,180,West,Thunderstorms and Rain,27,24,84,1007,-999,0.7,24
11/8/2013 10:00,2.000000016,80,194,East,Fog,27,25,89,1007,-999,0.8,25
11/8/2013 11:00,3.000000024,130,161,SE,Mist,29,25,79,1007,-999,1.4,25
11/8/2013 12:00,3.000000024,140,176,SE,Mist,31,25,70,1006,-999,1.7,25
11/8/2013 13:00,3.000000024,130,167,SE,Mist,32,25,66,1005,-999,1.8,25
11/8/2013 14:00,4.000000032,130,143,SE,Haze,32,25,66,1004,-999,2,25
11/8/2013 15:00,4.000000032,110,127,ESE,Light Thunderstorms and Rain,31,25,70,1003,-999,1.7,25
11/8/2013 16:00,3.000000024,200,55,SSW,Light Thunderstorms and Rain,30,23,66,1004,-999,3.5,23
11/8/2013 17:00,1.000000008,0,47,Variable,Light Thunderstorms and Rain,27,24,84,1004,-999,1.5,24
11/8/2013 18:00,5.00000004,330,58,NNW,Light Thunderstorms and Rain,25,22,83,1004,-999,2.5,22
11/8/2013 19:00,4.000000032,290,62,WNW,Overcast,26,22,78,1005,-999,5,22
11/8/2013 20:00,3.000000024,200,57,SSW,Light Rain Showers,25,22,83,1006,-999,6,22
11/8/2013 21:00,3.000000024,260,58,West,Overcast,26,21,74,1006,-999,6,21
11/8/2013 22:00,2.000000016,120,60,ESE,Light Rain Showers,24,22,89,1005,-999,6,22
11/8/2013 23:00,2.000000016,100,57,East,Light Rain Showers,25,21,78,1004,-999,6,21
12/8/2013 0:00,4.000000032,130,61,SE,Partly Cloudy,25,23,89,1004,-999,2,23
12/8/2013 1:00,3.000000024,190,67,South,Partly Cloudy,24,22,89,1005,-999,2.8,22
12/8/2013 2:00,3.000000024,210,56,SSW,Light Rain Showers,25,22,83,1005,-999,2.8,22
12/8/2013 3:00,3.000000024,170,48,South,Light Rain Showers,24,22,89,1005,-999,2.8,22
12/8/2013 4:00,2.000000016,150,42,SSE,Partly Cloudy,24,21,83,1004,-999,4,21
12/8/2013 5:00,2.000000016,130,38,SE,Partly Cloudy,24,21,83,1004,-999,4,21
12/8/2013 6:00,2.000000016,140,42,SE,Partly Cloudy,24,21,83,1004,-999,3.5,21
12/8/2013 7:00,2.000000016,140,51,SE,Partly Cloudy,24,22,89,1004,-999,3.5,22
12/8/2013 8:00,2.000000016,150,50,SSE,Partly Cloudy,24,22,89,1005,-999,3.5,22
12/8/2013 9:00,3.000000024,170,48,South,Partly Cloudy,25,22,83,1006,-999,3.5,22
12/8/2013 10:00,3.000000024,140,56,SE,Partly Cloudy,26,22,78,1006,-999,3.5,22
12/8/2013 11:00,3.000000024,130,47,SE,Unknown,28,22,70,1005,-999,6,22
12/8/2013 12:00,3.000000024,140,50,SE,Unknown,29,22,66,1005,-999,6,22
12/8/2013 13:00,3.000000024,130,53,SE,Unknown,29,22,66,1005,-999,8,22
12/8/2013 14:00,4.000000032,160,47,SSE,Unknown,29,21,62,1005,-999,8,21
12/8/2013 15:00,4.000000032,180,51,South,Scattered Clouds,30,21,58,1004,-999,10,21
12/8/2013 16:00,3.000000024,160,49,SSE,Partly Cloudy,30,21,58,1004,-999,10,21
12/8/2013 17:00,3.000000024,150,53,SSE,Partly Cloudy,30,22,62,1003,-999,10,22
12/8/2013 18:00,4.000000032,180,50,South,Scattered Clouds,29,22,66,1004,-999,10,22
12/8/2013 19:00,3.000000024,160,57,SSE,Scattered Clouds,28,22,70,1004,-999,10,22
12/8/2013 20:00,3.000000024,150,63,SSE,Partly Cloudy,28,22,70,1004,-999,8,22
12/8/2013 21:00,1.000000008,0,64,Variable,Unknown,27,22,74,1005,-999,7,22
12/8/2013 22:00,2.000000016,130,77,SE,Unknown,27,22,74,1005,-999,7,22
12/8/2013 23:00,1.000000008,150,82,SSE,Unknown,26,22,78,1005,-999,6,22
13/8/2013 0:00,1.000000008,140,87,SE,Mist,26,23,83,1005,-999,5,23
13/8/2013 1:00,2.000000016,150,90,SSE,Mist,25,22,83,1005,-999,4,22
13/8/2013 2:00,2.000000016,160,82,SSE,Mist,25,22,83,1005,-999,4,22
13/8/2013 3:00,3.000000024,150,69,SSE,Mist,25,22,83,1006,-999,4,22
13/8/2013 4:00,2.000000016,160,63,SSE,Mist,25,22,83,1006,-999,4,22
13/8/2013 5:00,1.000000008,110,73,ESE,Mist,25,22,83,1006,-999,4.5,22
13/8/2013 6:00,2.000000016,110,77,ESE,Mist,25,22,83,1006,-999,3.5,22
13/8/2013 7:00,1.000000008,0,78,Variable,Mist,25,23,89,1006,-999,3,23
13/8/2013 8:00,1.000000008,0,76,Variable,Mist,27,23,79,1006,-999,3,23
13/8/2013 9:00,1.000000008,0,69,Variable,Mist,28,23,74,1005,-999,3,23
13/8/2013 10:00,1.000000008,0,64,Variable,Haze,30,23,66,1005,-999,4.5,23
13/8/2013 11:00,1.000000008,0,76,Variable,Haze,30,22,62,1005,-999,5,22
13/8/2013 12:00,1.000000008,0,77,Variable,Haze,30,22,62,1004,-999,5,22
13/8/2013 13:00,2.000000016,160,78,SSE,Haze,31,22,58,1004,-999,5,22
13/8/2013 14:00,2.000000016,140,78,SE,Haze,32,22,55,1003,-999,5,22
13/8/2013 15:00,3.000000024,150,88,SSE,Haze,32,22,55,1003,-999,5,22
13/8/2013 16:00,4.000000032,140,89,SE,Unknown,32,22,55,1002,-999,6,22
13/8/2013 17:00,4.000000032,140,96,SE,Haze,31,23,62,1003,-999,5,23
13/8/2013 18:00,3.000000024,150,95,SSE,Haze,30,23,66,1003,-999,4.5,23
13/8/2013 19:00,3.000000024,160,92,SSE,Haze,29,23,70,1003,-999,4,23
13/8/2013 20:00,1.000000008,130,95,SE,Mist,28,24,79,1004,-999,4.5,24
13/8/2013 21:00,2.000000016,70,96,ENE,Partly Cloudy,28,23,74,1005,-999,4,23
13/8/2013 22:00,3.000000024,120,36,ESE,Scattered Clouds,28,24,79,1005,-999,4,24
13/8/2013 23:00,8.000000064,140,49,SE,Light Thunderstorms and Rain,26,15,51,999,-999,10,15
14/8/2013 0:00,3.000000024,20,73,NNE,Unknown,24,19,73,1003,-999,8,19
14/8/2013 1:00,3.000000024,20,51,NNE,Scattered Clouds,24,20,78,1004,-999,10,20
14/8/2013 2:00,1.000000008,0,41,Variable,Clear,24,20,78,1004,-999,-9999,20
14/8/2013 3:00,1.000000008,0,45,Variable,Clear,24,20,78,1003,-999,-9999,20
14/8/2013 4:00,1.000000008,0,54,Variable,Clear,24,20,78,1003,-999,-9999,20
14/8/2013 5:00,2.000000016,280,65,West,Clear,25,21,78,1004,-999,-9999,21
14/8/2013 6:00,1.000000008,150,53,SSE,Mist,24,21,83,1005,-999,5,21
14/8/2013 7:00,1.000000008,40,29,NE,Mist,24,22,89,1005,-999,4,22
14/8/2013 8:00,2.000000016,150,42,SSE,Mist,27,21,70,1005,-999,4.5,21
14/8/2013 9:00,1.000000008,0,66,Variable,Haze,29,22,66,1005,-999,4,22
14/8/2013 10:00,2.000000016,80,65,East,Haze,30,22,62,1004,-999,4,22
14/8/2013 11:00,2.000000016,170,58,South,Haze,31,23,62,1004,-999,5,23
14/8/2013 12:00,2.000000016,150,58,SSE,Unknown,32,23,59,1004,-999,6,23
14/8/2013 13:00,2.000000016,120,49,ESE,Unknown,32,22,55,1003,-999,7,22
14/8/2013 14:00,4.000000032,150,59,SSE,Clear,33,23,55,1003,-999,-9999,23
14/8/2013 15:00,4.000000032,160,69,SSE,Clear,32,23,59,1003,-999,-9999,23
14/8/2013 16:00,5.00000004,160,80,SSE,Clear,32,24,62,1002,-999,-9999,24
14/8/2013 17:00,4.000000032,170,87,South,Clear,32,23,59,1003,-999,-9999,23
14/8/2013 18:00,3.000000024,150,80,SSE,Unknown,31,24,66,1002,-999,7,24
14/8/2013 19:00,3.000000024,160,84,SSE,Unknown,30,24,70,1003,-999,6,24
14/8/2013 20:00,3.000000024,150,88,SSE,Unknown,29,24,74,1004,-999,6,24
14/8/2013 21:00,3.000000024,170,77,South,Unknown,29,24,74,1004,-999,6,24
14/8/2013 22:00,3.000000024,160,69,SSE,Unknown,29,24,74,1004,-999,6,24
14/8/2013 23:00,2.000000016,180,57,South,Unknown,29,24,74,1004,-999,6,24
15/8/2013 0:00,2.000000016,160,61,SSE,Mist,28,24,79,1003,-999,5,24
15/8/2013 1:00,2.000000016,130,66,SE,Mist,27,24,84,1004,-999,5,24
15/8/2013 2:00,2.000000016,130,72,SE,Mist,27,23,79,1003,-999,5,23
15/8/2013 3:00,2.000000016,150,70,SSE,Unknown,27,23,79,1003,-999,6,23
15/8/2013 4:00,2.000000016,80,78,East,Mist,27,24,84,1003,-999,5,24
15/8/2013 5:00,2.000000016,100,79,East,Mist,26,24,89,1003,-999,4,24
15/8/2013 6:00,2.000000016,110,79,ESE,Mist,26,24,89,1003,-999,2.3,24
15/8/2013 7:00,1.000000008,0,77,Variable,Mist,27,24,84,1003,-999,2,24
15/8/2013 8:00,1.000000008,0,76,Variable,Mist,28,24,79,1004,-999,2.5,24
15/8/2013 9:00,1.000000008,0,86,Variable,Mist,29,24,74,1004,-999,3,24
15/8/2013 10:00,1.000000008,0,91,Variable,Haze,31,24,66,1004,-999,-9999,24
15/8/2013 11:00,2.000000016,120,90,ESE,Haze,31,24,66,1003,-999,3,24
15/8/2013 12:00,2.000000016,170,94,South,Haze,32,23,59,1003,-999,3.5,23
15/8/2013 13:00,2.000000016,140,101,SE,Haze,32,23,59,1002,-999,4.5,23
15/8/2013 14:00,3.000000024,160,105,SSE,Haze,32,23,59,1002,-999,4.5,23
15/8/2013 15:00,3.000000024,140,109,SE,Haze,32,24,62,1001,-999,4.5,24
15/8/2013 16:00,3.000000024,150,115,SSE,Haze,32,24,62,1001,-999,4.5,24
15/8/2013 17:00,3.000000024,150,139,SSE,Haze,32,24,62,1001,-999,4,24
15/8/2013 18:00,2.000000016,130,142,SE,Haze,31,25,70,1001,-999,3,25
15/8/2013 19:00,2.000000016,110,151,ESE,Mist,30,25,74,1001,-999,2.2,25
15/8/2013 20:00,2.000000016,120,164,ESE,Mist,30,26,79,1001,-999,2.5,26
15/8/2013 21:00,2.000000016,110,160,ESE,Mist,30,26,79,1001,-999,2.2,26
15/8/2013 22:00,2.000000016,120,160,ESE,Mist,29,26,84,1001,-999,2,26
15/8/2013 23:00,2.000000016,100,179,East,Partly Cloudy,29,26,84,1000,-999,2,26
16/8/2013 0:00,3.000000024,160,55,SSE,Light Rain Showers,29,26,84,1000,-999,2,26
16/8/2013 1:00,6.000000048,190,60,South,Partly Cloudy,27,23,79,999,-999,8,23
16/8/2013 2:00,3.000000024,160,65,SSE,Clear,27,22,74,998,-999,-9999,22
16/8/2013 3:00,2.000000016,80,61,East,Clear,26,23,83,999,-999,-9999,23
16/8/2013 4:00,1.000000008,0,60,Variable,Clear,26,23,83,998,-999,-9999,23
16/8/2013 5:00,2.000000016,110,57,ESE,Unknown,26,23,83,997,-999,7,23
16/8/2013 6:00,1.000000008,0,68,Variable,Mist,27,24,84,997,-999,3,24
16/8/2013 7:00,1.000000008,0,75,Variable,Light Rain Showers,27,24,84,997,-999,1.5,24
16/8/2013 8:00,2.000000016,100,83,East,Light Rain Showers,27,24,84,997,-999,1.6,24
16/8/2013 9:00,2.000000016,110,96,ESE,Mostly Cloudy,27,24,84,997,-999,2,24
16/8/2013 10:00,1.000000008,0,111,Variable,Mostly Cloudy,28,25,84,997,-999,1.8,25
16/8/2013 11:00,1.000000008,0,98,Variable,Mostly Cloudy,28,25,84,997,-999,1.5,25
16/8/2013 12:00,1.000000008,0,102,Variable,Scattered Clouds,30,25,74,997,-999,1.7,25
16/8/2013 13:00,2.000000016,70,117,ENE,Scattered Clouds,30,26,79,996,-999,1.8,26
16/8/2013 14:00,1.000000008,0,127,Variable,Partly Cloudy,30,26,79,996,-999,1.7,26
16/8/2013 15:00,3.000000024,50,136,NE,Mist,30,26,79,997,-999,1.7,26
16/8/2013 16:00,2.000000016,90,140,East,Mist,30,26,79,996,-999,1.7,26
16/8/2013 17:00,1.000000008,0,154,Variable,Mist,30,26,79,996,-999,1.7,26
16/8/2013 18:00,1.000000008,0,143,Variable,Mist,30,26,79,997,-999,1.6,26
16/8/2013 19:00,2.000000016,10,145,North,Mist,29,26,84,997,-999,1.6,26
16/8/2013 20:00,1.000000008,50,148,NE,Mist,29,26,84,997,-999,2.2,26
16/8/2013 21:00,1.000000008,0,154,Variable,Mist,28,25,84,998,-999,2,25
16/8/2013 22:00,1.000000008,0,150,Variable,Light Rain Showers,28,26,89,998,-999,2,26
16/8/2013 23:00,1.000000008,0,155,Variable,Mostly Cloudy,28,25,84,998,-999,2,25
17/8/2013 0:00,1.000000008,0,157,Variable,Mostly Cloudy,28,25,84,998,-999,2,25
17/8/2013 1:00,2.000000016,10,145,North,Mist,28,26,89,997,-999,2,26
17/8/2013 2:00,1.000000008,20,113,NNE,Mist,28,25,84,998,-999,1.8,25
17/8/2013 3:00,0,0,40,North,Mist,27,25,89,998,-999,1.8,25
17/8/2013 4:00,2.000000016,340,24,NNW,Mist,26,24,89,998,-999,2.8,24
17/8/2013 5:00,5.00000004,290,26,WNW,Clear,30,17,45,999,-999,-9999,17
17/8/2013 6:00,5.00000004,310,21,NW,Clear,29,15,42,999,-999,-9999,15
17/8/2013 7:00,2.000000016,0,24,Variable,Clear,28,16,48,1000,-999,-9999,16
17/8/2013 8:00,6.000000048,310,25,NW,Clear,32,12,29,1001,-999,-9999,12
17/8/2013 9:00,7.000000056,310,32,NW,Clear,33,13,29,1001,-999,-9999,13
17/8/2013 10:00,8.000000064,300,39,WNW,Clear,33,11,26,1001,-999,-9999,11
17/8/2013 11:00,8.000000064,300,42,WNW,Clear,34,12,26,1001,-999,-9999,12
17/8/2013 12:00,8.000000064,310,29,NW,Clear,34,10,23,1001,-999,-9999,10
17/8/2013 13:00,6.000000048,280,29,West,Clear,34,11,24,1001,-999,-9999,11
17/8/2013 14:00,8.000000064,280,27,West,Clear,35,11,23,1001,-999,-9999,11
17/8/2013 15:00,8.000000064,290,24,WNW,Clear,35,11,23,1001,-999,-9999,11
17/8/2013 16:00,9.000000072,280,20,West,Clear,35,11,23,1001,-999,-9999,11
17/8/2013 17:00,8.000000064,290,18,WNW,Clear,35,10,22,1001,-999,-9999,10
17/8/2013 18:00,7.000000056,290,18,WNW,Clear,34,10,23,1001,-999,-9999,10
17/8/2013 19:00,6.000000048,290,17,WNW,Clear,33,9,23,1002,-999,-9999,9
17/8/2013 20:00,5.00000004,300,13,WNW,Clear,32,10,26,1002,-999,-9999,10
17/8/2013 21:00,4.000000032,340,17,NNW,Clear,28,13,39,1003,-999,-9999,13
17/8/2013 22:00,2.000000016,20,17,NNE,Clear,25,16,57,1004,-999,-9999,16
17/8/2013 23:00,2.000000016,360,16,North,Clear,25,14,50,1004,-999,-9999,14
18/8/2013 0:00,1.000000008,0,9,Variable,Clear,23,14,57,1005,-999,-9999,14
18/8/2013 1:00,3.000000024,360,13,North,Clear,24,14,53,1005,-999,-9999,14
18/8/2013 2:00,2.000000016,20,9,NNE,Clear,24,14,53,1006,-999,-9999,14
18/8/2013 3:00,3.000000024,350,15,North,Clear,21,15,68,1006,-999,-9999,15
18/8/2013 4:00,2.000000016,20,18,NNE,Clear,21,16,73,1007,-999,-9999,16
18/8/2013 5:00,0,0,13,North,Clear,23,15,61,1008,-999,-9999,15
18/8/2013 6:00,2.000000016,360,11,North,Clear,22,16,69,1008,-999,-9999,16
18/8/2013 7:00,4.000000032,360,10,North,Clear,25,17,61,1009,-999,-9999,17
18/8/2013 8:00,3.000000024,30,16,NNE,Clear,26,14,47,1009,-999,-9999,14
18/8/2013 9:00,4.000000032,20,13,NNE,Clear,29,15,42,1009,-999,-9999,15
18/8/2013 10:00,3.000000024,350,11,North,Clear,31,14,35,1009,-999,-9999,14
18/8/2013 11:00,3.000000024,10,12,North,Clear,32,14,33,1009,-999,-9999,14
18/8/2013 12:00,2.000000016,20,12,NNE,Clear,33,12,28,1009,-999,-9999,12
18/8/2013 13:00,2.000000016,10,10,North,Clear,33,13,29,1008,-999,-9999,13
18/8/2013 14:00,3.000000024,40,16,NE,Clear,33,13,29,1008,-999,-9999,13
18/8/2013 15:00,2.000000016,0,15,Variable,Clear,34,13,28,1007,-999,-9999,13
18/8/2013 16:00,3.000000024,120,18,ESE,Clear,33,13,29,1007,-999,-9999,13
18/8/2013 17:00,2.000000016,80,22,East,Clear,32,13,31,1006,-999,-9999,13
18/8/2013 18:00,1.000000008,0,20,Variable,Clear,32,14,33,1006,-999,-9999,14
18/8/2013 19:00,4.000000032,190,27,South,Clear,30,14,37,1007,-999,-9999,14
18/8/2013 20:00,3.000000024,200,21,SSW,Clear,30,14,37,1008,-999,-9999,14
18/8/2013 21:00,3.000000024,0,26,Variable,Clear,30,14,37,1009,-999,-9999,14
18/8/2013 22:00,1.000000008,0,27,Variable,Clear,27,17,54,1009,-999,-9999,17
18/8/2013 23:00,2.000000016,10,,North,Clear,24,17,65,1009,-999,-9999,17
19/8/2013 0:00,3.000000024,350,44,North,Clear,23,18,73,1010,-999,-9999,18
19/8/2013 1:00,2.000000016,350,39,North,Clear,23,18,73,1010,-999,-9999,18
19/8/2013 2:00,3.000000024,340,36,NNW,Clear,21,17,78,1010,-999,-9999,17
19/8/2013 3:00,3.000000024,340,29,NNW,Clear,22,16,69,1010,-999,-9999,16
19/8/2013 4:00,4.000000032,350,22,North,Clear,21,16,73,1010,-999,-9999,16
19/8/2013 5:00,3.000000024,350,20,North,Clear,19,15,78,1010,-999,-9999,15
19/8/2013 6:00,1.000000008,0,18,Variable,Clear,20,16,78,1011,-999,-9999,16
19/8/2013 7:00,1.000000008,0,19,Variable,Clear,23,17,69,1011,-999,-9999,17
19/8/2013 8:00,2.000000016,350,17,North,Clear,27,16,51,1011,-999,-9999,16
19/8/2013 9:00,2.000000016,30,21,NNE,Clear,28,13,39,1012,-999,-9999,13
19/8/2013 10:00,3.000000024,360,17,North,Clear,30,13,35,1012,-999,-9999,13
19/8/2013 11:00,2.000000016,360,19,North,Clear,32,13,31,1011,-999,-9999,13
19/8/2013 12:00,1.000000008,0,14,Variable,Clear,32,11,27,1011,-999,-9999,11
19/8/2013 13:00,2.000000016,0,17,Variable,Clear,33,13,29,1010,-999,-9999,13
19/8/2013 14:00,1.000000008,0,8,Variable,Clear,34,11,24,1009,-999,-9999,11
19/8/2013 15:00,2.000000016,110,12,ESE,Clear,33,11,26,1009,-999,-9999,11
19/8/2013 16:00,1.000000008,0,17,Variable,Clear,34,7,19,1008,-999,-9999,7
19/8/2013 17:00,2.000000016,110,25,ESE,Clear,33,12,28,1008,-999,-9999,12
19/8/2013 18:00,2.000000016,110,36,ESE,Clear,31,12,31,1008,-999,-9999,12
19/8/2013 19:00,3.000000024,150,27,SSE,Clear,29,13,37,1008,-999,-9999,13
19/8/2013 20:00,1.000000008,0,33,Variable,Clear,28,18,54,1009,-999,-9999,18
19/8/2013 21:00,2.000000016,170,40,South,Clear,27,15,48,1009,-999,-9999,15
19/8/2013 22:00,2.000000016,140,48,SE,Clear,25,17,61,1009,-999,-9999,17
19/8/2013 23:00,1.000000008,140,41,SE,Clear,24,19,73,1010,-999,-9999,19
20/8/2013 0:00,2.000000016,160,57,SSE,Clear,25,17,61,1010,-999,-9999,17
20/8/2013 1:00,2.000000016,130,70,SE,Clear,23,19,78,1010,-999,-9999,19
20/8/2013 2:00,2.000000016,80,69,East,Clear,23,19,78,1009,-999,-9999,19
20/8/2013 3:00,0,0,76,North,Clear,24,19,73,1009,-999,-9999,19
20/8/2013 4:00,3.000000024,100,92,East,Clear,24,19,73,1009,-999,-9999,19
20/8/2013 5:00,2.000000016,90,116,East,Clear,24,19,73,1010,-999,-9999,19
20/8/2013 6:00,2.000000016,60,122,ENE,Clear,23,19,78,1010,-999,-9999,19
20/8/2013 7:00,1.000000008,0,120,Variable,Unknown,24,20,78,1010,-999,7,20
20/8/2013 8:00,2.000000016,100,118,East,Unknown,26,20,69,1011,-999,8,20
20/8/2013 9:00,2.000000016,160,108,SSE,Unknown,27,19,61,1011,-999,8,19
20/8/2013 10:00,3.000000024,100,98,East,Unknown,28,19,58,1010,-999,8,19
20/8/2013 11:00,2.000000016,130,91,SE,Unknown,29,20,58,1010,-999,8,20
20/8/2013 12:00,3.000000024,120,92,ESE,Unknown,29,20,58,1009,-999,8,20
20/8/2013 13:00,3.000000024,90,70,East,Scattered Clouds,29,20,58,1008,-999,8,20
20/8/2013 14:00,4.000000032,350,63,North,Scattered Clouds,28,21,66,1008,-999,8,21
20/8/2013 15:00,3.000000024,10,66,North,Light Rain Showers,27,22,74,1007,-999,7,22
20/8/2013 16:00,3.000000024,30,75,NNE,Light Rain Showers,27,21,70,1007,-999,7,21
20/8/2013 17:00,4.000000032,10,104,North,Scattered Clouds,26,22,78,1007,-999,7,22
20/8/2013 18:00,1.000000008,0,105,Variable,Light Rain Showers,26,22,78,1007,-999,5,22
20/8/2013 19:00,3.000000024,20,109,NNE,Light Rain Showers,24,22,89,1007,-999,4.5,22
20/8/2013 20:00,5.00000004,300,110,WNW,Light Rain Showers,25,22,83,1008,-999,4,22
20/8/2013 21:00,2.000000016,10,123,North,Overcast,25,21,78,1009,-999,4,21
20/8/2013 22:00,2.000000016,50,115,NE,Overcast,24,22,89,1008,-999,3.5,22
20/8/2013 23:00,1.000000008,0,,Variable,Mist,24,22,89,1008,-999,3.5,22
21/8/2013 0:00,2.000000016,20,118,NNE,Light Rain Showers,24,21,83,1008,-999,3.5,21
21/8/2013 1:00,1.000000008,0,117,Variable,Mist,24,21,83,1008,-999,-9999,21
21/8/2013 2:00,1.000000008,0,111,Variable,Mist,24,22,89,1008,-999,3,22
21/8/2013 3:00,2.000000016,40,113,NE,Mist,24,21,83,1008,-999,4,21
21/8/2013 4:00,1.000000008,0,120,Variable,Mist,24,22,89,1008,-999,4,22
21/8/2013 5:00,1.000000008,20,118,NNE,Mist,24,22,89,1008,-999,3,22
21/8/2013 6:00,2.000000016,10,140,North,Mist,23,21,88,1008,-999,2.3,21
21/8/2013 7:00,1.000000008,0,117,Variable,Mist,24,22,89,1008,-999,1.7,22
21/8/2013 8:00,1.000000008,0,118,Variable,Mist,24,22,89,1009,-999,2,22
21/8/2013 9:00,1.000000008,0,121,Variable,Partly Cloudy,26,22,78,1009,-999,2.5,22
21/8/2013 10:00,1.000000008,0,109,Variable,Mist,27,22,74,1009,-999,3,22
21/8/2013 11:00,2.000000016,150,112,SSE,Mist,27,22,74,1009,-999,3,22
21/8/2013 12:00,3.000000024,210,101,SSW,Unknown,28,20,62,1008,-999,6,20
21/8/2013 13:00,3.000000024,160,95,SSE,Haze,29,20,58,1008,-999,-9999,20
21/8/2013 14:00,3.000000024,180,85,South,Haze,31,19,49,1007,-999,3.5,19
21/8/2013 15:00,3.000000024,180,69,South,Haze,31,18,46,1007,-999,4,18
21/8/2013 16:00,4.000000032,170,61,South,Haze,31,18,46,1006,-999,5,18
21/8/2013 17:00,3.000000024,180,72,South,Clear,31,17,43,1006,-999,-9999,17
21/8/2013 18:00,5.00000004,180,74,South,Clear,29,17,48,1006,-999,-9999,17
21/8/2013 19:00,2.000000016,150,73,SSE,Clear,26,17,57,1006,-999,-9999,17
21/8/2013 20:00,2.000000016,160,90,SSE,Clear,25,17,61,1007,-999,-9999,17
21/8/2013 21:00,2.000000016,170,93,South,Clear,24,17,65,1007,-999,-9999,17
21/8/2013 22:00,2.000000016,150,90,SSE,Clear,23,18,73,1007,-999,-9999,18
21/8/2013 23:00,1.000000008,140,106,SE,Unknown,21,18,83,1007,-999,7,18
22/8/2013 0:00,1.000000008,90,97,East,Mist,21,18,83,1007,-999,5,18
22/8/2013 1:00,2.000000016,90,98,East,Mist,21,19,88,1007,-999,5,19
22/8/2013 2:00,1.000000008,50,116,NE,Mist,21,19,88,1008,-999,5,19
22/8/2013 3:00,1.000000008,10,144,North,Unknown,21,18,83,1008,-999,6,18
22/8/2013 4:00,1.000000008,60,,ENE,Unknown,21,19,88,1008,-999,7,19
22/8/2013 5:00,0,0,143,North,Unknown,21,19,88,1008,-999,7,19
22/8/2013 6:00,3.000000024,350,140,North,Mist,20,18,88,1009,-999,2.7,18
22/8/2013 7:00,1.000000008,0,117,Variable,Mist,22,20,88,1009,-999,-9999,20
22/8/2013 8:00,3.000000024,360,108,North,Mist,24,19,73,1009,-999,4,19
22/8/2013 9:00,3.000000024,360,119,North,Mist,24,19,73,1009,-999,4,19
22/8/2013 10:00,1.000000008,0,115,Variable,Mist,25,19,69,1010,-999,4,19
22/8/2013 11:00,2.000000016,10,115,North,Light Rain,25,20,74,1010,-999,-9999,20
22/8/2013 12:00,1.000000008,0,123,Variable,Light Rain,24,21,83,1009,-999,2.8,21
22/8/2013 13:00,3.000000024,360,,North,Light Rain,25,21,78,1009,-999,2.8,21
22/8/2013 14:00,1.000000008,0,,Variable,Light Rain,26,20,69,1008,-999,-9999,20
22/8/2013 15:00,1.000000008,0,127,Variable,Mist,26,20,69,1008,-999,-9999,20
22/8/2013 16:00,2.000000016,150,139,SSE,Mist,26,21,74,1008,-999,-9999,21
22/8/2013 17:00,3.000000024,200,128,SSW,Mist,26,21,74,1008,-999,2.5,21
22/8/2013 18:00,2.000000016,200,105,SSW,Mist,27,20,65,1008,-999,-9999,20
22/8/2013 19:00,1.000000008,0,117,Variable,Mist,25,21,78,1008,-999,-9999,21
22/8/2013 20:00,2.000000016,300,123,WNW,Mist,26,20,69,1009,-999,4,20
22/8/2013 21:00,1.000000008,0,141,Variable,Mist,24,21,83,1009,-999,3.5,21
22/8/2013 22:00,2.000000016,20,121,NNE,Mist,24,20,78,1009,-999,3.5,20
22/8/2013 23:00,0,0,110,North,Mist,23,21,88,1009,-999,3,21
23/8/2013 0:00,2.000000016,360,116,North,Mist,23,21,88,1009,-999,2.7,21
23/8/2013 1:00,1.000000008,340,148,NNW,Mist,23,21,88,1009,-999,2.5,21
23/8/2013 2:00,2.000000016,340,150,NNW,Mist,23,21,88,1009,-999,2.8,21
23/8/2013 3:00,3.000000024,330,114,NNW,Mist,23,20,83,1009,-999,4.5,20
23/8/2013 4:00,3.000000024,340,89,NNW,Mist,23,19,78,1009,-999,5,19
23/8/2013 5:00,4.000000032,360,72,North,Unknown,23,19,78,1009,-999,6,19
23/8/2013 6:00,4.000000032,360,97,North,Unknown,22,19,83,1010,-999,6,19
23/8/2013 7:00,4.000000032,340,77,NNW,Unknown,23,19,78,1010,-999,7,19
23/8/2013 8:00,4.000000032,360,77,North,Unknown,24,19,73,1010,-999,8,19
23/8/2013 9:00,2.000000016,360,68,North,Clear,26,18,61,1010,-999,-9999,18
23/8/2013 10:00,4.000000032,10,59,North,Clear,28,16,48,1010,-999,-9999,16
23/8/2013 11:00,3.000000024,340,35,NNW,Clear,32,14,33,1010,-999,-9999,14
23/8/2013 12:00,2.000000016,10,26,North,Clear,32,12,29,1009,-999,-9999,12
23/8/2013 13:00,3.000000024,50,5,NE,Clear,33,11,26,1009,-999,-9999,11
23/8/2013 14:00,2.000000016,30,12,NNE,Clear,34,11,24,1008,-999,-9999,11
23/8/2013 15:00,2.000000016,20,15,NNE,Clear,34,12,26,1007,-999,-9999,12
23/8/2013 16:00,2.000000016,50,18,NE,Clear,34,11,24,1007,-999,-9999,11
23/8/2013 17:00,2.000000016,100,18,East,Clear,33,13,29,1007,-999,-9999,13
23/8/2013 18:00,1.000000008,0,19,Variable,Clear,32,12,29,1007,-999,-9999,12
23/8/2013 19:00,1.000000008,0,23,Variable,Clear,27,17,54,1007,-999,-9999,17
23/8/2013 20:00,1.000000008,0,36,Variable,Clear,25,17,61,1008,-999,-9999,17
23/8/2013 21:00,1.000000008,0,43,Variable,Clear,25,16,57,1009,-999,-9999,16
23/8/2013 22:00,0,0,39,North,Clear,23,17,69,1009,-999,-9999,17
23/8/2013 23:00,1.000000008,90,44,East,Clear,22,18,78,1009,-999,-9999,18
24/8/2013 0:00,2.000000016,100,73,East,Clear,22,17,73,1010,-999,-9999,17
24/8/2013 1:00,2.000000016,60,85,ENE,Clear,22,17,73,1010,-999,-9999,17
24/8/2013 2:00,1.000000008,0,81,Variable,Clear,21,17,78,1010,-999,-9999,17
24/8/2013 3:00,2.000000016,10,64,North,Clear,20,17,83,1010,-999,-9999,17
24/8/2013 4:00,2.000000016,360,54,North,Clear,20,16,78,1009,-999,-9999,16
24/8/2013 5:00,2.000000016,360,38,North,Clear,19,16,83,1009,-999,-9999,16
24/8/2013 6:00,3.000000024,360,27,North,Clear,20,16,78,1010,-999,-9999,16
24/8/2013 7:00,3.000000024,360,31,North,Clear,21,16,73,1010,-999,-9999,16
24/8/2013 8:00,3.000000024,360,31,North,Clear,24,16,61,1010,-999,-9999,16
24/8/2013 9:00,3.000000024,360,22,North,Clear,27,15,48,1010,-999,-9999,15
24/8/2013 10:00,3.000000024,360,22,North,Clear,29,13,37,1010,-999,-9999,13
24/8/2013 11:00,3.000000024,360,20,North,Clear,31,12,31,1010,-999,-9999,12
24/8/2013 12:00,2.000000016,0,22,Variable,Clear,32,12,29,1009,-999,-9999,12
24/8/2013 13:00,3.000000024,320,11,NW,Clear,35,9,20,1009,-999,-9999,9
24/8/2013 14:00,3.000000024,60,11,ENE,Clear,34,12,26,1008,-999,-9999,12
24/8/2013 15:00,3.000000024,70,11,ENE,Clear,34,10,23,1008,-999,-9999,10
24/8/2013 16:00,3.000000024,130,18,SE,Clear,34,13,28,1007,-999,-9999,13
24/8/2013 17:00,2.000000016,170,17,South,Clear,34,11,24,1007,-999,-9999,11
24/8/2013 18:00,2.000000016,150,39,SSE,Clear,31,13,33,1007,-999,-9999,13
24/8/2013 19:00,2.000000016,170,50,South,Clear,28,15,45,1007,-999,-9999,15
24/8/2013 20:00,2.000000016,170,47,South,Clear,27,13,42,1008,-999,-9999,13
24/8/2013 21:00,2.000000016,160,49,SSE,Clear,26,16,54,1008,-999,-9999,16
24/8/2013 22:00,1.000000008,0,52,Variable,Clear,23,17,69,1008,-999,-9999,17
24/8/2013 23:00,1.000000008,0,70,Variable,Clear,23,18,73,1008,-999,-9999,18
25/8/2013 0:00,2.000000016,60,95,ENE,Clear,22,18,78,1008,-999,-9999,18
25/8/2013 1:00,2.000000016,70,101,ENE,Clear,22,18,78,1008,-999,-9999,18
25/8/2013 2:00,2.000000016,360,59,North,Clear,20,17,83,1008,-999,-9999,17
25/8/2013 3:00,2.000000016,350,54,North,Clear,20,17,83,1008,-999,-9999,17
25/8/2013 4:00,2.000000016,350,47,North,Clear,20,17,83,1008,-999,-9999,17
25/8/2013 5:00,2.000000016,360,28,North,Clear,19,16,83,1008,-999,-9999,16
25/8/2013 6:00,2.000000016,360,31,North,Clear,19,16,83,1008,-999,-9999,16
25/8/2013 7:00,2.000000016,360,26,North,Clear,23,17,69,1009,-999,-9999,17
25/8/2013 8:00,1.000000008,0,29,Variable,Clear,26,17,57,1009,-999,-9999,17
25/8/2013 9:00,2.000000016,350,27,North,Clear,28,16,48,1009,-999,-9999,16
25/8/2013 10:00,1.000000008,0,29,Variable,Clear,29,17,48,1008,-999,-9999,17
25/8/2013 11:00,1.000000008,0,27,Variable,Clear,31,16,40,1008,-999,-9999,16
25/8/2013 12:00,2.000000016,140,33,SE,Clear,33,15,34,1007,-999,-9999,15
25/8/2013 13:00,2.000000016,130,31,SE,Clear,33,14,31,1006,-999,-9999,14
25/8/2013 14:00,2.000000016,160,44,SSE,Clear,35,13,26,1005,-999,-9999,13
25/8/2013 15:00,4.000000032,150,38,SSE,Clear,34,11,24,1004,-999,-9999,11
25/8/2013 16:00,6.000000048,180,37,South,Clear,34,13,28,1004,-999,-9999,13
25/8/2013 17:00,6.000000048,180,42,South,Clear,34,13,28,1004,-999,-9999,13
25/8/2013 18:00,4.000000032,180,37,South,Clear,32,12,29,1003,-999,-9999,12
25/8/2013 19:00,4.000000032,160,45,SSE,Clear,30,12,33,1003,-999,-9999,12
25/8/2013 20:00,4.000000032,190,41,South,Clear,28,15,45,1004,-999,-9999,15
25/8/2013 21:00,3.000000024,150,50,SSE,Clear,27,16,51,1004,-999,-9999,16
25/8/2013 22:00,1.000000008,0,49,Variable,Clear,26,17,57,1004,-999,-9999,17
25/8/2013 23:00,1.000000008,0,51,Variable,Clear,25,17,61,1003,-999,-9999,17
26/8/2013 0:00,1.000000008,0,53,Variable,Clear,24,17,65,1004,-999,-9999,17
26/8/2013 1:00,2.000000016,70,62,ENE,Clear,23,18,73,1004,-999,-9999,18
26/8/2013 2:00,1.000000008,0,65,Variable,Unknown,22,18,78,1004,-999,8,18
26/8/2013 3:00,3.000000024,10,74,North,Unknown,21,18,83,1004,-999,8,18
26/8/2013 4:00,1.000000008,20,74,NNE,Unknown,21,18,83,1004,-999,8,18
26/8/2013 5:00,3.000000024,340,57,NNW,Clear,20,17,83,1005,-999,-9999,17
26/8/2013 6:00,4.000000032,360,50,North,Clear,20,17,83,1006,-999,-9999,17
26/8/2013 7:00,3.000000024,360,50,North,Clear,24,17,65,1006,-999,-9999,17
26/8/2013 8:00,4.000000032,20,37,NNE,Clear,27,16,51,1006,-999,-9999,16
26/8/2013 9:00,3.000000024,20,23,NNE,Clear,30,14,37,1007,-999,-9999,14
26/8/2013 10:00,4.000000032,30,16,NNE,Clear,31,12,31,1007,-999,-9999,12
26/8/2013 11:00,3.000000024,60,13,ENE,Clear,32,10,26,1007,-999,-9999,10
26/8/2013 12:00,3.000000024,90,16,East,Clear,33,12,28,1006,-999,-9999,12
26/8/2013 13:00,2.000000016,110,30,ESE,Clear,33,13,29,1005,-999,-9999,13
26/8/2013 14:00,4.000000032,120,30,ESE,Clear,33,11,26,1005,-999,-9999,11
26/8/2013 15:00,4.000000032,140,38,SE,Clear,33,12,28,1004,-999,-9999,12
26/8/2013 16:00,5.00000004,130,75,SE,Clear,32,16,38,1004,-999,-9999,16
26/8/2013 17:00,4.000000032,150,121,SSE,Clear,31,16,40,1004,-999,-9999,16
26/8/2013 18:00,5.00000004,150,98,SSE,Unknown,29,20,58,1004,-999,7,20
26/8/2013 19:00,5.00000004,140,84,SE,Unknown,28,19,58,1005,-999,8,19
26/8/2013 20:00,5.00000004,150,71,SSE,Unknown,27,20,65,1006,-999,8,20
26/8/2013 21:00,5.00000004,150,55,SSE,Unknown,26,20,69,1007,-999,8,20
26/8/2013 22:00,5.00000004,140,50,SE,Unknown,24,19,73,1007,-999,7,19
26/8/2013 23:00,3.000000024,140,59,SE,Unknown,24,19,73,1008,-999,7,19
27/8/2013 0:00,2.000000016,110,57,ESE,Partly Cloudy,24,19,73,1008,-999,8,19
27/8/2013 1:00,3.000000024,100,51,East,Scattered Clouds,23,18,73,1008,-999,10,18
27/8/2013 2:00,3.000000024,110,47,ESE,Scattered Clouds,22,18,78,1008,-999,10,18
27/8/2013 3:00,3.000000024,110,51,ESE,Scattered Clouds,23,18,73,1008,-999,10,18
27/8/2013 4:00,3.000000024,110,51,ESE,Mostly Cloudy,23,17,69,1008,-999,10,17
27/8/2013 5:00,3.000000024,110,51,ESE,Mostly Cloudy,23,17,69,1008,-999,10,17
27/8/2013 6:00,3.000000024,110,56,ESE,Mostly Cloudy,23,17,69,1008,-999,10,17
27/8/2013 7:00,2.000000016,120,57,ESE,Mostly Cloudy,23,17,69,1008,-999,10,17
27/8/2013 8:00,2.000000016,110,59,ESE,Mostly Cloudy,23,17,69,1009,-999,10,17
27/8/2013 9:00,3.000000024,110,60,ESE,Overcast,23,17,69,1009,-999,10,17
27/8/2013 10:00,3.000000024,120,62,ESE,Overcast,24,18,69,1009,-999,10,18
27/8/2013 11:00,3.000000024,120,65,ESE,Overcast,25,18,65,1009,-999,7,18
27/8/2013 12:00,3.000000024,110,60,ESE,Overcast,25,19,69,1008,-999,7,19
27/8/2013 13:00,2.000000016,70,65,ENE,Overcast,25,19,69,1007,-999,8,19
27/8/2013 14:00,2.000000016,60,67,ENE,Overcast,26,19,65,1007,-999,8,19
27/8/2013 15:00,2.000000016,80,61,East,Overcast,26,20,69,1006,-999,8,20
27/8/2013 16:00,4.000000032,110,54,ESE,Overcast,26,20,69,1006,-999,8,20
27/8/2013 17:00,4.000000032,110,50,ESE,Overcast,26,20,69,1006,-999,8,20
27/8/2013 18:00,3.000000024,110,48,ESE,Overcast,26,20,69,1006,-999,10,20
27/8/2013 19:00,3.000000024,100,46,East,Mostly Cloudy,25,20,74,1005,-999,8,20
27/8/2013 20:00,5.00000004,120,55,ESE,Overcast,25,19,69,1006,-999,9,19
27/8/2013 21:00,4.000000032,110,44,ESE,Light Rain,24,19,73,1005,-999,8,19
27/8/2013 22:00,4.000000032,110,38,ESE,Mostly Cloudy,24,19,73,1005,-999,8,19
27/8/2013 23:00,3.000000024,110,33,ESE,Light Rain,24,19,73,1005,-999,8,19
28/8/2013 0:00,4.000000032,120,37,ESE,Light Rain,23,18,73,1004,-999,10,18
28/8/2013 1:00,4.000000032,130,39,SE,Overcast,23,18,73,1003,-999,10,18
28/8/2013 2:00,5.00000004,130,40,SE,Overcast,23,18,73,1002,-999,8,18
28/8/2013 3:00,3.000000024,120,49,ESE,Overcast,23,18,73,1002,-999,8,18
28/8/2013 4:00,4.000000032,150,57,SSE,Light Rain,22,19,83,1001,-999,7,19
28/8/2013 5:00,2.000000016,180,54,South,Light Rain,22,19,83,1001,-999,4,19
28/8/2013 6:00,2.000000016,110,60,ESE,Light Rain,21,19,88,1000,-999,4,19
28/8/2013 7:00,2.000000016,0,68,Variable,Light Rain,21,19,88,1000,-999,2.5,19
28/8/2013 8:00,1.000000008,0,69,Variable,Light Rain,21,19,88,1001,-999,1.6,19
28/8/2013 9:00,1.000000008,70,75,ENE,Overcast,21,19,88,1001,-999,2,19
28/8/2013 10:00,1.000000008,0,84,Variable,Overcast,22,20,88,1000,-999,2.2,20
28/8/2013 11:00,2.000000016,100,103,East,Overcast,22,20,88,1000,-999,2.5,20
28/8/2013 12:00,1.000000008,0,94,Variable,Overcast,24,20,78,999,-999,-9999,20
28/8/2013 13:00,1.000000008,0,81,Variable,Overcast,26,21,74,999,-999,5,21
28/8/2013 14:00,1.000000008,0,75,Variable,Scattered Clouds,25,20,74,999,-999,6,20
28/8/2013 15:00,1.000000008,0,85,Variable,Scattered Clouds,25,20,74,998,-999,6,20
28/8/2013 16:00,1.000000008,0,74,Variable,Unknown,25,20,74,998,-999,6,20
28/8/2013 17:00,1.000000008,0,75,Variable,Unknown,25,20,74,998,-999,6,20
28/8/2013 18:00,2.000000016,150,72,SSE,Mist,25,21,78,998,-999,5,21
28/8/2013 19:00,1.000000008,0,85,Variable,Mist,24,21,83,998,-999,4.5,21
28/8/2013 20:00,2.000000016,160,101,SSE,Mist,23,21,88,998,-999,-9999,21
28/8/2013 21:00,1.000000008,0,112,Variable,Mist,23,21,88,998,-999,4,21
28/8/2013 22:00,1.000000008,0,116,Variable,Mist,23,20,83,998,-999,4,20
28/8/2013 23:00,1.000000008,0,124,Variable,Mist,22,20,88,998,-999,3.5,20
29/8/2013 0:00,1.000000008,20,124,NNE,Mist,22,20,88,998,-999,3,20
29/8/2013 1:00,1.000000008,0,113,Variable,Mist,22,20,88,998,-999,2.7,20
29/8/2013 2:00,1.000000008,0,118,Variable,Mist,22,20,88,999,-999,2.5,20
29/8/2013 3:00,2.000000016,350,106,North,Mist,21,20,94,998,-999,2.5,20
29/8/2013 4:00,1.000000008,0,73,Variable,Mist,20,19,94,999,-999,2,19
29/8/2013 5:00,3.000000024,300,16,WNW,Mist,21,18,83,999,-999,5,18
29/8/2013 6:00,5.00000004,310,20,NW,Clear,22,15,64,1000,-999,-9999,15
29/8/2013 7:00,9.000000072,300,14,WNW,Clear,25,9,36,1000,-999,-9999,9
29/8/2013 8:00,9.000000072,300,16,WNW,Clear,26,8,32,1000,-999,-9999,8
29/8/2013 9:00,10.00000008,300,12,WNW,Clear,27,8,30,1000,-999,-9999,8
29/8/2013 10:00,8.000000064,300,9,WNW,Clear,28,8,28,1001,-999,-9999,8
29/8/2013 11:00,10.00000008,340,11,NNW,Clear,29,8,27,1001,-999,-9999,8
29/8/2013 12:00,12.0000001,340,9,NNW,Clear,29,7,25,1002,-999,-9999,7
29/8/2013 13:00,12.0000001,330,10,NNW,Clear,29,5,22,1002,-999,-9999,5
29/8/2013 14:00,11.00000009,320,9,NW,Clear,29,5,22,1003,-999,-9999,5
29/8/2013 15:00,10.00000008,320,7,NW,Clear,29,6,23,1003,-999,-9999,6
29/8/2013 16:00,11.00000009,330,10,NNW,Clear,28,6,25,1004,-999,-9999,6
29/8/2013 17:00,10.00000008,310,8,NW,Clear,27,7,28,1004,-999,-9999,7
29/8/2013 18:00,8.000000064,310,12,NW,Clear,25,7,32,1005,-999,-9999,7
29/8/2013 19:00,8.000000064,300,15,WNW,Clear,24,7,34,1005,-999,-9999,7
29/8/2013 20:00,6.000000048,310,12,NW,Clear,24,8,36,1006,-999,-9999,8
29/8/2013 21:00,5.00000004,330,16,NNW,Clear,23,9,41,1007,-999,-9999,9
29/8/2013 22:00,3.000000024,10,14,North,Clear,20,12,60,1008,-999,-9999,12
29/8/2013 23:00,6.000000048,30,14,NNE,Clear,22,11,50,1008,-999,-9999,11
30/8/2013 0:00,6.000000048,30,8,NNE,Clear,21,10,49,1010,-999,-9999,10
30/8/2013 1:00,5.00000004,30,10,NNE,Clear,21,8,43,1010,-999,-9999,8
30/8/2013 2:00,5.00000004,20,10,NNE,Light Rain,20,10,52,1011,-999,10,10
30/8/2013 3:00,3.000000024,10,9,North,Clear,19,10,56,1011,-999,-9999,10
30/8/2013 4:00,2.000000016,10,6,North,Light Rain,18,12,68,1011,-999,10,12
30/8/2013 5:00,2.000000016,360,10,North,Clear,18,12,68,1012,-999,-9999,12
30/8/2013 6:00,3.000000024,290,13,WNW,Clear,19,11,60,1013,-999,-9999,11
30/8/2013 7:00,3.000000024,320,13,NW,Clear,19,11,60,1013,-999,-9999,11
30/8/2013 8:00,2.000000016,360,16,North,Clear,21,11,53,1014,-999,-9999,11
30/8/2013 9:00,4.000000032,10,13,North,Clear,23,8,38,1014,-999,-9999,8
30/8/2013 10:00,4.000000032,350,10,North,Clear,25,8,34,1014,-999,-9999,8
30/8/2013 11:00,5.00000004,10,9,North,Clear,26,6,28,1013,-999,-9999,6
30/8/2013 12:00,4.000000032,360,,North,Clear,26,5,26,1012,-999,-9999,5
30/8/2013 13:00,5.00000004,340,,NNW,Clear,27,5,24,1012,-999,-9999,5
30/8/2013 14:00,4.000000032,300,,WNW,Clear,28,6,25,1011,-999,-9999,6
30/8/2013 15:00,4.000000032,20,,NNE,Clear,28,6,25,1010,-999,-9999,6
30/8/2013 16:00,2.000000016,360,10,North,Clear,29,4,20,1010,-999,-9999,4
30/8/2013 17:00,1.000000008,0,13,Variable,Clear,28,5,23,1010,-999,-9999,5
30/8/2013 18:00,3.000000024,110,18,ESE,Clear,25,6,29,1010,-999,-9999,6
30/8/2013 19:00,2.000000016,100,34,East,Clear,23,9,41,1010,-999,-9999,9
30/8/2013 20:00,2.000000016,160,36,SSE,Clear,20,12,60,1011,-999,-9999,12
30/8/2013 21:00,2.000000016,160,33,SSE,Clear,21,9,46,1011,-999,-9999,9
30/8/2013 22:00,5.00000004,210,31,SSW,Clear,23,8,38,1011,-999,-9999,8
30/8/2013 23:00,1.000000008,0,34,Variable,Clear,20,11,56,1012,-999,-9999,11
31/8/2013 0:00,1.000000008,50,49,NE,Clear,17,12,72,1012,-999,-9999,12
31/8/2013 1:00,2.000000016,10,35,North,Clear,18,12,68,1011,-999,-9999,12
31/8/2013 2:00,1.000000008,350,43,North,Clear,16,11,72,1011,-999,-9999,11
31/8/2013 3:00,2.000000016,350,39,North,Clear,16,11,72,1012,-999,-9999,11
31/8/2013 4:00,2.000000016,350,30,North,Clear,15,11,77,1011,-999,-9999,11
31/8/2013 5:00,2.000000016,350,18,North,Clear,14,10,77,1012,-999,-9999,10
31/8/2013 6:00,2.000000016,340,21,NNW,Clear,15,10,72,1012,-999,-9999,10
31/8/2013 7:00,2.000000016,360,25,North,Clear,18,12,68,1013,-999,-9999,12
31/8/2013 8:00,4.000000032,360,27,North,Clear,22,10,46,1013,-999,-9999,10
31/8/2013 9:00,4.000000032,20,19,NNE,Clear,24,9,38,1013,-999,-9999,9
31/8/2013 10:00,3.000000024,330,13,NNW,Clear,27,7,28,1013,-999,-9999,7
31/8/2013 11:00,3.000000024,340,12,NNW,Clear,28,7,26,1013,-999,-9999,7
31/8/2013 12:00,3.000000024,340,10,NNW,Clear,29,6,23,1012,-999,-9999,6
31/8/2013 13:00,1.000000008,0,10,Variable,Clear,30,4,19,1012,-999,-9999,4
31/8/2013 14:00,2.000000016,280,14,West,Clear,30,3,18,1011,-999,-9999,3
31/8/2013 15:00,2.000000016,0,15,Variable,Clear,31,2,16,1010,-999,-9999,2
31/8/2013 16:00,3.000000024,280,18,West,Clear,31,2,16,1010,-999,-9999,2
31/8/2013 17:00,2.000000016,150,21,SSE,Clear,28,7,26,1010,-999,-9999,7
31/8/2013 18:00,2.000000016,160,16,SSE,Clear,27,9,32,1010,-999,-9999,9
31/8/2013 19:00,1.000000008,0,24,Variable,Clear,25,10,39,1010,-999,-9999,10
31/8/2013 20:00,2.000000016,90,17,East,Clear,21,12,56,1011,-999,-9999,12
31/8/2013 21:00,2.000000016,130,22,SE,Unknown,23,17,69,1012,-999,6,17
31/8/2013 22:00,3.000000024,80,38,East,Clear,20,14,68,1012,-999,-9999,14
31/8/2013 23:00,6.000000048,120,55,ESE,Clear,21,13,60,1012,-999,-9999,13
1/9/2013 0:00,4.000000032,110,76,ESE,Clear,20,13,64,1013,-999,-9999,13
1/9/2013 1:00,1.000000008,0,73,Variable,Clear,19,12,64,1013,-999,-9999,12
1/9/2013 2:00,1.000000008,0,55,Variable,Clear,17,13,77,1013,-999,-9999,13
1/9/2013 3:00,2.000000016,50,39,NE,Clear,16,12,77,1013,-999,-9999,12
1/9/2013 4:00,1.000000008,0,37,Variable,Clear,16,12,77,1013,-999,-9999,12
1/9/2013 5:00,3.000000024,350,40,North,Clear,15,12,82,1013,-999,-9999,12
1/9/2013 6:00,3.000000024,360,42,North,Clear,15,12,82,1014,-999,-9999,12
1/9/2013 7:00,2.000000016,360,39,North,Clear,18,14,77,1014,-999,-9999,14
1/9/2013 8:00,3.000000024,20,35,NNE,Clear,21,13,60,1014,-999,-9999,13
1/9/2013 9:00,3.000000024,20,33,NNE,Clear,23,12,50,1014,-999,-9999,12
1/9/2013 10:00,3.000000024,60,31,ENE,Clear,24,12,47,1014,-999,-9999,12
1/9/2013 11:00,2.000000016,50,35,NE,Clear,27,13,42,1014,-999,-9999,13
1/9/2013 12:00,2.000000016,0,33,Variable,Clear,28,11,35,1013,-999,-9999,11
1/9/2013 13:00,2.000000016,100,30,East,Clear,29,11,33,1013,-999,-9999,11
1/9/2013 14:00,2.000000016,0,42,Variable,Clear,30,10,29,1012,-999,-9999,10
1/9/2013 15:00,2.000000016,140,45,SE,Clear,30,9,27,1011,-999,-9999,9
1/9/2013 16:00,1.000000008,0,49,Variable,Clear,29,10,30,1012,-999,-9999,10
1/9/2013 17:00,3.000000024,80,55,East,Clear,28,11,35,1011,-999,-9999,11
1/9/2013 18:00,3.000000024,90,64,East,Clear,27,13,42,1012,-999,-9999,13
1/9/2013 19:00,2.000000016,100,66,East,Light Rain Showers,25,15,54,1012,-999,10,15
1/9/2013 20:00,3.000000024,70,69,ENE,Light Rain Showers,23,17,69,1013,-999,10,17
1/9/2013 21:00,1.000000008,10,65,North,Clear,23,16,65,1014,-999,-9999,16
1/9/2013 22:00,4.000000032,200,55,SSW,Thunderstorm,23,15,61,1015,-999,10,15
1/9/2013 23:00,2.000000016,50,71,NE,Clear,21,15,68,1015,-999,-9999,15
2/9/2013 0:00,1.000000008,0,84,Variable,Clear,19,15,78,1014,-999,-9999,15
2/9/2013 1:00,3.000000024,360,89,North,Clear,18,14,77,1014,-999,-9999,14
2/9/2013 2:00,1.000000008,0,29,Variable,Clear,19,13,68,1015,-999,-9999,13
2/9/2013 3:00,1.000000008,350,33,North,Clear,18,14,77,1015,-999,-9999,14
2/9/2013 4:00,0,0,33,North,Clear,17,14,82,1015,-999,-9999,14
2/9/2013 5:00,0,0,41,North,Clear,17,14,82,1016,-999,-9999,14
2/9/2013 6:00,2.000000016,10,47,North,Clear,16,12,77,1016,-999,-9999,12
2/9/2013 7:00,1.000000008,0,43,Variable,Scattered Clouds,18,13,73,1017,-999,10,13
2/9/2013 8:00,1.000000008,0,44,Variable,Clear,20,14,68,1017,-999,-9999,14
2/9/2013 9:00,1.000000008,0,45,Variable,Clear,23,13,53,1017,-999,-9999,13
2/9/2013 10:00,2.000000016,350,49,North,Clear,25,14,50,1017,-999,-9999,14
2/9/2013 11:00,2.000000016,0,43,Variable,Clear,25,11,41,1017,-999,-9999,11
2/9/2013 12:00,2.000000016,50,47,NE,Clear,26,12,42,1016,-999,-9999,12
2/9/2013 13:00,2.000000016,0,57,Variable,Clear,27,12,39,1016,-999,-9999,12
2/9/2013 14:00,2.000000016,90,55,East,Clear,28,12,37,1015,-999,-9999,12
2/9/2013 15:00,2.000000016,120,65,ESE,Clear,28,12,37,1014,-999,-9999,12
2/9/2013 16:00,2.000000016,140,74,SE,Clear,27,13,42,1014,-999,-9999,13
2/9/2013 17:00,3.000000024,150,74,SSE,Clear,27,13,42,1014,-999,-9999,13
2/9/2013 18:00,2.000000016,150,76,SSE,Clear,25,13,47,1014,-999,-9999,13
2/9/2013 19:00,2.000000016,140,82,SE,Clear,23,15,61,1014,-999,-9999,15
2/9/2013 20:00,1.000000008,150,89,SSE,Clear,21,17,78,1015,-999,-9999,17
2/9/2013 21:00,2.000000016,110,87,ESE,Clear,21,17,78,1016,-999,-9999,17
2/9/2013 22:00,2.000000016,140,80,SE,Clear,21,17,78,1016,-999,-9999,17
2/9/2013 23:00,1.000000008,160,82,SSE,Clear,21,17,78,1016,-999,-9999,17
3/9/2013 0:00,2.000000016,80,95,East,Clear,19,17,88,1016,-999,-9999,17
3/9/2013 1:00,1.000000008,0,102,Variable,Clear,19,16,83,1016,-999,-9999,16
3/9/2013 2:00,1.000000008,40,96,NE,Unknown,18,16,88,1016,-999,6,16
3/9/2013 3:00,0,0,122,North,Mist,18,16,88,1016,-999,4.5,16
3/9/2013 4:00,1.000000008,30,132,NNE,Mist,18,16,88,1016,-999,4,16
3/9/2013 5:00,1.000000008,0,112,Variable,Mist,18,16,88,1016,-999,5,16
3/9/2013 6:00,1.000000008,0,99,Variable,Partly Cloudy,19,16,83,1017,-999,5,16
3/9/2013 7:00,3.000000024,360,79,North,Unknown,19,16,83,1017,-999,6,16
3/9/2013 8:00,2.000000016,70,66,ENE,Unknown,21,15,68,1017,-999,8,15
3/9/2013 9:00,1.000000008,0,66,Variable,Clear,22,16,69,1017,-999,-9999,16
3/9/2013 10:00,1.000000008,0,76,Variable,Clear,24,16,61,1018,-999,-9999,16
3/9/2013 11:00,2.000000016,0,80,Variable,Clear,26,16,54,1017,-999,-9999,16
3/9/2013 12:00,1.000000008,0,89,Variable,Clear,26,15,51,1017,-999,-9999,15
3/9/2013 13:00,2.000000016,80,93,East,Clear,27,16,51,1016,-999,-9999,16
3/9/2013 14:00,2.000000016,0,98,Variable,Unknown,28,16,48,1015,-999,8,16
3/9/2013 15:00,2.000000016,0,109,Variable,Unknown,28,16,48,1014,-999,8,16
3/9/2013 16:00,3.000000024,110,109,ESE,Unknown,27,16,51,1014,-999,7,16
3/9/2013 17:00,3.000000024,140,115,SE,Unknown,27,15,48,1014,-999,7,15
3/9/2013 18:00,2.000000016,140,124,SE,Unknown,25,15,54,1014,-999,8,15
3/9/2013 19:00,2.000000016,130,119,SE,Unknown,23,17,69,1015,-999,8,17
3/9/2013 20:00,1.000000008,110,101,ESE,Unknown,22,17,73,1015,-999,7,17
3/9/2013 21:00,3.000000024,140,103,SE,Unknown,23,16,65,1016,-999,6,16
3/9/2013 22:00,3.000000024,110,123,ESE,Thunderstorm,23,16,65,1016,-999,6,16
3/9/2013 23:00,2.000000016,120,133,ESE,Partly Cloudy,22,17,73,1016,-999,4,17
4/9/2013 0:00,2.000000016,100,135,East,Mist,21,17,78,1016,-999,3.5,17
4/9/2013 1:00,2.000000016,110,144,ESE,Partly Cloudy,21,17,78,1016,-999,3.5,17
4/9/2013 2:00,2.000000016,100,160,East,Partly Cloudy,21,17,78,1016,-999,-9999,17
4/9/2013 3:00,1.000000008,130,149,SE,Mist,21,17,78,1016,-999,-9999,17
4/9/2013 4:00,6.000000048,280,38,West,Light Thunderstorms and Rain,20,17,83,1016,-999,3,17
4/9/2013 5:00,3.000000024,140,38,SE,Light Thunderstorms and Rain,18,16,88,1016,-999,8,16
4/9/2013 6:00,2.000000016,240,50,WSW,Light Rain Showers,19,16,83,1016,-999,6,16
4/9/2013 7:00,2.000000016,20,58,NNE,Mist,19,16,83,1017,-999,3.5,16
4/9/2013 8:00,1.000000008,0,62,Variable,Mist,19,16,83,1017,-999,5,16
4/9/2013 9:00,1.000000008,130,58,SE,Mist,20,17,83,1017,-999,5,17
4/9/2013 10:00,1.000000008,0,67,Variable,Unknown,22,17,73,1017,-999,6,17
4/9/2013 11:00,2.000000016,160,77,SSE,Unknown,22,17,73,1017,-999,6,17
4/9/2013 12:00,3.000000024,200,85,SSW,Light Rain,22,16,69,1016,-999,5,16
4/9/2013 13:00,2.000000016,0,74,Variable,Light Rain,21,17,78,1016,-999,3,17
4/9/2013 14:00,2.000000016,0,72,Variable,Light Rain,21,17,78,1015,-999,3.5,17
4/9/2013 15:00,2.000000016,170,68,South,Light Rain,22,17,73,1015,-999,4,17
4/9/2013 16:00,3.000000024,160,68,SSE,Light Rain,22,17,73,1015,-999,4,17
4/9/2013 17:00,2.000000016,190,70,South,Scattered Clouds,21,16,73,1015,-999,4,16
4/9/2013 18:00,1.000000008,110,65,ESE,Light Rain,21,17,78,1015,-999,5,17
4/9/2013 19:00,1.000000008,120,81,ESE,Mist,20,17,83,1015,-999,4.5,17
4/9/2013 20:00,0,0,90,North,Light Rain,20,17,83,1015,-999,4.5,17
4/9/2013 21:00,1.000000008,0,86,Variable,Light Rain,20,18,88,1015,-999,4,18
4/9/2013 22:00,1.000000008,0,67,Variable,Light Rain,20,17,83,1015,-999,3.5,17
4/9/2013 23:00,5.00000004,300,31,WNW,Light Rain,18,16,88,1015,-999,5,16
5/9/2013 0:00,3.000000024,330,19,NNW,Light Rain,18,16,88,1015,-999,5,16
5/9/2013 1:00,4.000000032,320,19,NW,Light Rain,18,16,88,1015,-999,5,16
5/9/2013 2:00,5.00000004,300,21,WNW,Light Rain,18,15,83,1015,-999,6,15
5/9/2013 3:00,3.000000024,330,17,NNW,Light Rain,18,15,83,1015,-999,7,15
5/9/2013 4:00,3.000000024,340,14,NNW,Light Rain,17,15,88,1014,-999,10,15
5/9/2013 5:00,4.000000032,340,12,NNW,Light Rain,17,15,88,1014,-999,10,15
5/9/2013 6:00,3.000000024,350,13,North,Clear,17,15,88,1014,-999,-9999,15
5/9/2013 7:00,4.000000032,360,16,North,Clear,17,15,88,1014,-999,-9999,15
5/9/2013 8:00,3.000000024,20,15,NNE,Clear,20,15,73,1014,-999,-9999,15
5/9/2013 9:00,3.000000024,10,14,North,Clear,22,14,60,1014,-999,-9999,14
5/9/2013 10:00,3.000000024,20,11,NNE,Clear,23,14,57,1015,-999,-9999,14
5/9/2013 11:00,4.000000032,20,14,NNE,Clear,24,13,50,1014,-999,-9999,13
5/9/2013 12:00,2.000000016,0,13,Variable,Clear,25,10,39,1014,-999,-9999,10
5/9/2013 13:00,2.000000016,0,13,Variable,Partly Cloudy,26,11,39,1013,-999,10,11
5/9/2013 14:00,2.000000016,0,14,Variable,Partly Cloudy,26,12,42,1013,-999,10,12
5/9/2013 15:00,3.000000024,120,16,ESE,Partly Cloudy,26,12,42,1012,-999,10,12
5/9/2013 16:00,3.000000024,120,20,ESE,Scattered Clouds,26,12,42,1012,-999,10,12
5/9/2013 17:00,5.00000004,150,34,SSE,Clear,24,15,57,1012,-999,-9999,15
5/9/2013 18:00,5.00000004,140,48,SE,Clear,22,15,64,1013,-999,-9999,15
5/9/2013 19:00,5.00000004,120,52,ESE,Clear,20,14,68,1014,-999,-9999,14
5/9/2013 20:00,4.000000032,110,57,ESE,Scattered Clouds,19,14,73,1015,-999,10,14
5/9/2013 21:00,3.000000024,150,48,SSE,Thunderstorm,19,14,73,1016,-999,10,14
5/9/2013 22:00,2.000000016,100,60,East,Mostly Cloudy,18,14,77,1016,-999,10,14
5/9/2013 23:00,1.000000008,0,62,Variable,Unknown,17,14,82,1016,-999,8,14
6/9/2013 0:00,2.000000016,170,61,South,Unknown,18,14,77,1016,-999,8,14
6/9/2013 1:00,1.000000008,0,68,Variable,Unknown,18,14,77,1016,-999,7,14
6/9/2013 2:00,1.000000008,0,67,Variable,Unknown,18,14,77,1016,-999,7,14
6/9/2013 3:00,1.000000008,0,72,Variable,Unknown,18,15,83,1016,-999,7,15
6/9/2013 4:00,1.000000008,110,65,ESE,Unknown,18,15,83,1016,-999,7,15
6/9/2013 5:00,0,0,64,North,Unknown,18,15,83,1016,-999,8,15
6/9/2013 6:00,3.000000024,170,55,South,Light Thunderstorms and Rain,18,14,77,1016,-999,8,14
6/9/2013 7:00,3.000000024,20,62,NNE,Light Thunderstorms and Rain,18,15,83,1017,-999,8,15
6/9/2013 8:00,2.000000016,80,66,East,Scattered Clouds,19,15,78,1017,-999,8,15
6/9/2013 9:00,2.000000016,110,65,ESE,Scattered Clouds,21,14,64,1017,-999,7,14
6/9/2013 10:00,2.000000016,0,70,Variable,Scattered Clouds,22,15,64,1017,-999,6,15
6/9/2013 11:00,1.000000008,0,69,Variable,Scattered Clouds,23,14,57,1017,-999,6,14
6/9/2013 12:00,2.000000016,0,68,Variable,Partly Cloudy,24,14,53,1016,-999,7,14
6/9/2013 13:00,2.000000016,0,74,Variable,Unknown,25,14,50,1016,-999,6,14
6/9/2013 14:00,3.000000024,150,64,SSE,Unknown,25,13,47,1015,-999,6,13
6/9/2013 15:00,4.000000032,170,67,South,Unknown,26,14,47,1014,-999,6,14
6/9/2013 16:00,4.000000032,170,73,South,Unknown,26,13,44,1014,-999,7,13
6/9/2013 17:00,4.000000032,160,88,SSE,Unknown,25,13,47,1014,-999,7,13
6/9/2013 18:00,3.000000024,140,103,SE,Unknown,23,15,61,1014,-999,7,15
6/9/2013 19:00,2.000000016,140,111,SE,Unknown,21,15,68,1015,-999,6,15
6/9/2013 20:00,2.000000016,140,117,SE,Unknown,21,15,68,1015,-999,6,15
6/9/2013 21:00,2.000000016,160,118,SSE,Unknown,21,15,68,1016,-999,6,15
6/9/2013 22:00,1.000000008,0,128,Variable,Mist,20,16,78,1016,-999,5,16
6/9/2013 23:00,1.000000008,0,132,Variable,Partly Cloudy,19,16,83,1017,-999,5,16
7/9/2013 0:00,2.000000016,100,140,East,Mist,19,16,83,1016,-999,5,16
7/9/2013 1:00,1.000000008,110,142,ESE,Mist,19,16,83,1016,-999,5,16
7/9/2013 2:00,1.000000008,0,142,Variable,Mist,18,15,83,1016,-999,5,15
7/9/2013 3:00,0,0,124,North,Mist,18,15,83,1016,-999,5,15
7/9/2013 4:00,0,0,131,North,Mist,17,15,88,1016,-999,5,15
7/9/2013 5:00,0,0,113,North,Mist,17,15,88,1016,-999,5,15
7/9/2013 6:00,1.000000008,10,118,North,Mist,18,16,88,1017,-999,-9999,16
7/9/2013 7:00,3.000000024,360,101,North,Mist,19,17,88,1017,-999,-9999,17
7/9/2013 8:00,3.000000024,10,101,North,Mist,21,17,78,1018,-999,5,17
7/9/2013 9:00,3.000000024,360,92,North,Unknown,23,15,61,1018,-999,6,15
7/9/2013 10:00,3.000000024,10,70,North,Unknown,25,15,54,1018,-999,7,15
7/9/2013 11:00,3.000000024,30,39,NNE,Clear,26,10,36,1018,-999,-9999,10
7/9/2013 12:00,3.000000024,40,27,NE,Clear,27,9,32,1017,-999,-9999,9
7/9/2013 13:00,4.000000032,50,25,NE,Clear,27,9,32,1016,-999,-9999,9
7/9/2013 14:00,2.000000016,0,20,Variable,Clear,28,8,28,1016,-999,-9999,8
7/9/2013 15:00,2.000000016,40,26,NE,Clear,29,8,27,1015,-999,-9999,8
7/9/2013 16:00,2.000000016,90,24,East,Clear,28,6,25,1015,-999,-9999,6
7/9/2013 17:00,2.000000016,120,29,ESE,Clear,28,7,26,1015,-999,-9999,7
7/9/2013 18:00,2.000000016,150,31,SSE,Clear,25,10,39,1015,-999,-9999,10
7/9/2013 19:00,1.000000008,0,51,Variable,Clear,20,13,64,1015,-999,-9999,13
7/9/2013 20:00,2.000000016,170,79,South,Clear,21,13,60,1016,-999,-9999,13
7/9/2013 21:00,1.000000008,140,90,SE,Clear,19,15,78,1017,-999,-9999,15
7/9/2013 22:00,1.000000008,0,123,Variable,Clear,19,15,78,1017,-999,-9999,15
7/9/2013 23:00,1.000000008,80,123,East,Clear,18,15,83,1017,-999,-9999,15
8/9/2013 0:00,1.000000008,0,126,Variable,Clear,18,14,77,1017,-999,-9999,14
8/9/2013 1:00,1.000000008,0,128,Variable,Unknown,19,15,78,1017,-999,7,15
8/9/2013 2:00,1.000000008,0,95,Variable,Unknown,18,15,83,1017,-999,8,15
8/9/2013 3:00,1.000000008,0,94,Variable,Clear,17,15,88,1017,-999,-9999,15
8/9/2013 4:00,0,0,47,North,Clear,17,14,82,1017,-999,-9999,14
8/9/2013 5:00,2.000000016,360,36,North,Clear,17,14,82,1017,-999,-9999,14
8/9/2013 6:00,1.000000008,0,33,Variable,Clear,18,14,77,1017,-999,-9999,14
8/9/2013 7:00,1.000000008,10,42,North,Clear,18,15,83,1017,-999,-9999,15
8/9/2013 8:00,2.000000016,20,50,NNE,Clear,19,15,78,1018,-999,-9999,15
8/9/2013 9:00,1.000000008,0,72,Variable,Clear,21,15,68,1018,-999,-9999,15
8/9/2013 10:00,1.000000008,0,225,Variable,Clear,23,16,65,1018,-999,-9999,16
8/9/2013 11:00,1.000000008,0,93,Variable,Unknown,24,15,57,1018,-999,7,15
8/9/2013 12:00,2.000000016,70,103,ENE,Unknown,24,16,61,1017,-999,7,16
8/9/2013 13:00,2.000000016,60,126,ENE,Unknown,25,16,57,1016,-999,6,16
8/9/2013 14:00,2.000000016,70,125,ENE,Unknown,25,16,57,1015,-999,6,16
8/9/2013 15:00,1.000000008,0,119,Variable,Unknown,26,16,54,1015,-999,6,16
8/9/2013 16:00,1.000000008,0,138,Variable,Haze,25,17,61,1014,-999,5,17
8/9/2013 17:00,2.000000016,0,161,Variable,Haze,25,18,65,1014,-999,3.5,18
8/9/2013 18:00,1.000000008,160,190,SSE,Haze,24,18,69,1014,-999,3,18
8/9/2013 19:00,2.000000016,150,212,SSE,Light Rain Showers,23,19,78,1014,-999,3,19
8/9/2013 20:00,1.000000008,0,159,Variable,Thunderstorm,23,15,61,1015,-999,6,15
8/9/2013 21:00,1.000000008,50,137,NE,Partly Cloudy,21,16,73,1015,-999,6,16
8/9/2013 22:00,5.00000004,320,46,NW,Light Thunderstorms and Rain,22,16,69,1015,-999,5,16
8/9/2013 23:00,1.000000008,0,45,Variable,Partly Cloudy,20,15,73,1015,-999,10,15
9/9/2013 0:00,1.000000008,0,53,Variable,Light Rain Showers,20,15,73,1014,-999,10,15
9/9/2013 1:00,2.000000016,170,57,South,Unknown,19,16,83,1015,-999,7,16
9/9/2013 2:00,1.000000008,0,59,Variable,Light Rain,19,16,83,1014,-999,6,16
9/9/2013 3:00,2.000000016,210,60,SSW,Unknown,20,17,83,1014,-999,6,17
9/9/2013 4:00,1.000000008,0,66,Variable,Mist,19,17,88,1013,-999,5,17
9/9/2013 5:00,2.000000016,150,70,SSE,Partly Cloudy,19,17,88,1014,-999,3.5,17
9/9/2013 6:00,3.000000024,190,98,South,Light Rain Showers,19,16,83,1014,-999,4,16
9/9/2013 7:00,1.000000008,0,112,Variable,Light Rain Showers,19,16,83,1014,-999,3,16
9/9/2013 8:00,2.000000016,110,114,ESE,Mist,19,17,88,1014,-999,2.7,17
9/9/2013 9:00,2.000000016,100,138,East,Mist,20,17,83,1014,-999,2,17
9/9/2013 10:00,1.000000008,0,113,Variable,Mist,20,17,83,1014,-999,1.7,17
9/9/2013 11:00,2.000000016,150,92,SSE,Mist,22,17,73,1014,-999,2.5,17
9/9/2013 12:00,2.000000016,180,75,South,Haze,24,16,61,1013,-999,3.5,16
9/9/2013 13:00,5.00000004,190,70,South,Unknown,25,14,50,1012,-999,8,14
9/9/2013 14:00,3.000000024,150,69,SSE,Clear,26,13,44,1011,-999,-9999,13
9/9/2013 15:00,3.000000024,140,78,SE,Clear,25,14,50,1011,-999,-9999,14
9/9/2013 16:00,4.000000032,170,80,South,Clear,25,14,50,1010,-999,-9999,14
9/9/2013 17:00,3.000000024,130,84,SE,Unknown,24,15,57,1010,-999,8,15
9/9/2013 18:00,3.000000024,150,89,SSE,Unknown,23,16,65,1010,-999,6,16
9/9/2013 19:00,2.000000016,140,99,SE,Unknown,21,16,73,1011,-999,6,16
9/9/2013 20:00,2.000000016,150,103,SSE,Unknown,21,16,73,1012,-999,7,16
9/9/2013 21:00,2.000000016,170,119,South,Unknown,21,16,73,1012,-999,6,16
9/9/2013 22:00,3.000000024,140,106,SE,Unknown,20,16,78,1012,-999,7,16
9/9/2013 23:00,2.000000016,180,98,South,Unknown,21,16,73,1012,-999,6,16
10/9/2013 0:00,2.000000016,140,104,SE,Unknown,20,16,78,1012,-999,6,16
10/9/2013 1:00,1.000000008,100,106,East,Unknown,20,16,78,1011,-999,6,16
10/9/2013 2:00,1.000000008,0,107,Variable,Unknown,19,16,83,1011,-999,6,16
10/9/2013 3:00,2.000000016,80,106,East,Mist,19,16,83,1011,-999,5,16
10/9/2013 4:00,1.000000008,80,114,East,Mist,18,16,88,1011,-999,3.5,16
10/9/2013 5:00,0,0,116,North,Mist,18,16,88,1011,-999,3,16
10/9/2013 6:00,1.000000008,0,124,Variable,Mist,18,16,88,1011,-999,1.8,16
10/9/2013 7:00,1.000000008,0,142,Variable,Mist,19,17,88,1012,-999,2,17
10/9/2013 8:00,2.000000016,360,102,North,Mist,21,18,83,1013,-999,2.7,18
10/9/2013 9:00,3.000000024,350,35,North,Haze,24,16,61,1013,-999,4,16
10/9/2013 10:00,3.000000024,330,9,NNW,Clear,26,13,44,1013,-999,-9999,13
10/9/2013 11:00,3.000000024,350,9,North,Clear,28,9,30,1013,-999,-9999,9
10/9/2013 12:00,3.000000024,330,15,NNW,Clear,29,4,20,1013,-999,-9999,4
10/9/2013 13:00,5.00000004,280,9,West,Clear,29,1,16,1012,-999,-9999,1
10/9/2013 14:00,5.00000004,290,11,WNW,Clear,29,1,16,1011,-999,-9999,1
10/9/2013 15:00,5.00000004,320,10,NW,Clear,30,3,18,1011,-999,-9999,3
10/9/2013 16:00,5.00000004,290,12,WNW,Clear,29,1,16,1011,-999,-9999,1
10/9/2013 17:00,4.000000032,280,13,West,Clear,29,1,16,1011,-999,-9999,1
10/9/2013 18:00,4.000000032,290,17,WNW,Clear,28,1,17,1011,-999,-9999,1
10/9/2013 19:00,0,0,61,North,Clear,22,11,50,1011,-999,-9999,11
10/9/2013 20:00,2.000000016,170,68,South,Clear,20,12,60,1012,-999,-9999,12
10/9/2013 21:00,2.000000016,170,97,South,Clear,18,14,77,1013,-999,-9999,14
10/9/2013 22:00,1.000000008,0,110,Variable,Clear,18,12,68,1013,-999,-9999,12
10/9/2013 23:00,2.000000016,70,115,ENE,Clear,18,13,73,1014,-999,-9999,13
11/9/2013 0:00,1.000000008,0,98,Variable,Clear,18,12,68,1014,-999,-9999,12
11/9/2013 1:00,1.000000008,0,86,Variable,Clear,16,12,77,1014,-999,-9999,12
11/9/2013 2:00,1.000000008,0,50,Variable,Clear,16,12,77,1014,-999,-9999,12
11/9/2013 3:00,2.000000016,10,39,North,Clear,15,11,77,1014,-999,-9999,11
11/9/2013 4:00,1.000000008,20,24,NNE,Clear,15,11,77,1014,-999,-9999,11
11/9/2013 5:00,2.000000016,20,26,NNE,Clear,14,10,77,1015,-999,-9999,10
11/9/2013 6:00,3.000000024,360,35,North,Clear,13,10,82,1015,-999,-9999,10
11/9/2013 7:00,3.000000024,360,33,North,Clear,15,12,82,1015,-999,-9999,12
11/9/2013 8:00,2.000000016,350,36,North,Clear,19,13,68,1016,-999,-9999,13
11/9/2013 9:00,2.000000016,360,92,North,Clear,21,12,56,1016,-999,-9999,12
11/9/2013 10:00,1.000000008,0,92,Variable,Unknown,23,14,57,1016,-999,7,14
11/9/2013 11:00,1.000000008,0,91,Variable,Unknown,24,15,57,1016,-999,6,15
11/9/2013 12:00,3.000000024,130,90,SE,Unknown,25,14,50,1015,-999,6,14
11/9/2013 13:00,2.000000016,180,67,South,Haze,27,14,45,1014,-999,5,14
11/9/2013 14:00,5.00000004,190,70,South,Unknown,29,12,35,1013,-999,6,12
11/9/2013 15:00,5.00000004,180,73,South,Unknown,29,12,35,1013,-999,8,12
11/9/2013 16:00,6.000000048,190,72,South,Unknown,29,11,33,1012,-999,8,11
11/9/2013 17:00,5.00000004,180,87,South,Clear,28,12,37,1012,-999,-9999,12
11/9/2013 18:00,3.000000024,170,113,South,Clear,26,13,44,1012,-999,-9999,13
11/9/2013 19:00,3.000000024,160,90,SSE,Unknown,25,15,54,1013,-999,8,15
11/9/2013 20:00,2.000000016,160,80,SSE,Unknown,24,15,57,1013,-999,7,15
11/9/2013 21:00,2.000000016,160,85,SSE,Unknown,23,15,61,1014,-999,7,15
11/9/2013 22:00,2.000000016,160,98,SSE,Unknown,22,15,64,1014,-999,7,15
11/9/2013 23:00,1.000000008,120,106,ESE,Unknown,19,15,78,1014,-999,7,15
12/9/2013 0:00,1.000000008,130,109,SE,Unknown,19,15,78,1014,-999,7,15
12/9/2013 1:00,2.000000016,130,119,SE,Unknown,19,15,78,1014,-999,6,15
12/9/2013 2:00,2.000000016,120,127,ESE,Unknown,19,15,78,1013,-999,6,15
12/9/2013 3:00,2.000000016,80,132,East,Mist,18,14,77,1013,-999,5,14
12/9/2013 4:00,2.000000016,80,132,East,Mist,17,14,82,1013,-999,5,14
12/9/2013 5:00,2.000000016,70,151,ENE,Mist,17,14,82,1013,-999,5,14
12/9/2013 6:00,2.000000016,100,164,East,Mist,17,14,82,1014,-999,4,14
12/9/2013 7:00,1.000000008,0,166,Variable,Mist,18,15,83,1014,-999,-9999,15
12/9/2013 8:00,2.000000016,150,159,SSE,Mist,20,16,78,1014,-999,2.7,16
12/9/2013 9:00,2.000000016,160,163,SSE,Mist,22,16,69,1014,-999,2.8,16
12/9/2013 10:00,2.000000016,0,153,Variable,Haze,24,16,61,1014,-999,3,16
12/9/2013 11:00,2.000000016,0,140,Variable,Haze,25,15,54,1013,-999,-9999,15
12/9/2013 12:00,2.000000016,130,126,SE,Haze,27,15,48,1012,-999,3.5,15
12/9/2013 13:00,5.00000004,160,124,SSE,Haze,28,14,42,1011,-999,5,14
12/9/2013 14:00,5.00000004,170,149,South,Unknown,27,14,45,1010,-999,7,14
12/9/2013 15:00,3.000000024,160,160,SSE,Haze,27,15,48,1010,-999,5,15
12/9/2013 16:00,2.000000016,310,191,NW,Haze,27,16,51,1009,-999,3.5,16
12/9/2013 17:00,4.000000032,10,178,North,Haze,24,17,65,1009,-999,3,17
12/9/2013 18:00,1.000000008,0,183,Variable,Haze,24,18,69,1008,-999,3,18
12/9/2013 19:00,2.000000016,120,198,ESE,Partly Cloudy,23,18,73,1008,-999,-9999,18
12/9/2013 20:00,3.000000024,120,204,ESE,Light Thunderstorms and Rain,23,18,73,1009,-999,3.5,18
12/9/2013 21:00,2.000000016,100,213,East,Partly Cloudy,22,18,78,1009,-999,3.5,18
12/9/2013 22:00,2.000000016,130,132,SE,Partly Cloudy,22,19,83,1009,-999,2.5,19
12/9/2013 23:00,8.000000064,230,46,SW,Light Thunderstorms and Rain,21,15,68,1008,-999,6,15
13/9/2013 0:00,5.00000004,230,86,SW,Light Thunderstorms and Rain,19,15,78,1008,-999,10,15
13/9/2013 1:00,1.000000008,70,69,ENE,Light Rain Showers,19,16,83,1009,-999,5,16
13/9/2013 2:00,2.000000016,90,60,East,Mist,19,16,83,1008,-999,5,16
13/9/2013 3:00,2.000000016,80,59,East,Partly Cloudy,18,16,88,1008,-999,6,16
13/9/2013 4:00,3.000000024,110,54,ESE,Unknown,19,16,83,1007,-999,6,16
13/9/2013 5:00,2.000000016,100,53,East,Unknown,18,16,88,1007,-999,6,16
13/9/2013 6:00,2.000000016,120,50,ESE,Mist,19,16,83,1007,-999,5,16
13/9/2013 7:00,3.000000024,140,50,SE,Mist,19,16,83,1007,-999,3.5,16
13/9/2013 8:00,2.000000016,130,,SE,Mist,19,16,83,1007,-999,4,16
13/9/2013 9:00,3.000000024,130,,SE,Mist,19,16,83,1007,-999,4,16
13/9/2013 10:00,2.000000016,150,80,SSE,Partly Cloudy,20,16,78,1007,-999,3.5,16
13/9/2013 11:00,2.000000016,130,88,SE,Scattered Clouds,20,17,83,1006,-999,3,17
13/9/2013 12:00,2.000000016,130,104,SE,Scattered Clouds,20,17,83,1006,-999,2.5,17
13/9/2013 13:00,2.000000016,140,122,SE,Scattered Clouds,20,17,83,1005,-999,2.5,17
13/9/2013 14:00,2.000000016,140,134,SE,Partly Cloudy,21,18,83,1004,-999,2,18
13/9/2013 15:00,2.000000016,150,135,SSE,Scattered Clouds,21,18,83,1004,-999,2,18
13/9/2013 16:00,1.000000008,0,166,Variable,Scattered Clouds,21,18,83,1004,-999,1.6,18
13/9/2013 17:00,2.000000016,80,170,East,Overcast,21,18,83,1004,-999,1.6,18
13/9/2013 18:00,2.000000016,70,186,ENE,Overcast,21,18,83,1004,-999,1.5,18
13/9/2013 19:00,1.000000008,0,198,Variable,Overcast,21,18,83,1004,-999,2,18
13/9/2013 20:00,7.000000056,10,126,North,Mostly Cloudy,21,18,83,1007,-999,2,18
13/9/2013 21:00,4.000000032,140,113,SE,Light Thunderstorms and Rain,20,18,88,1005,-999,2.3,18
13/9/2013 22:00,2.000000016,330,134,NNW,Mostly Cloudy,20,18,88,1006,-999,2,18
13/9/2013 23:00,3.000000024,190,144,South,Light Thunderstorms and Rain,20,18,88,1006,-999,1.7,18
14/9/2013 0:00,4.000000032,10,151,North,Mostly Cloudy,20,18,88,1006,-999,1.7,18
14/9/2013 1:00,0,0,146,North,Overcast,20,18,88,1006,-999,2.3,18
14/9/2013 2:00,2.000000016,30,116,NNE,Overcast,20,18,88,1006,-999,2,18
14/9/2013 3:00,2.000000016,60,127,ENE,Overcast,20,18,88,1006,-999,2,18
14/9/2013 4:00,1.000000008,0,121,Variable,Overcast,20,18,88,1006,-999,2.5,18
14/9/2013 5:00,2.000000016,10,111,North,Overcast,20,18,88,1006,-999,2,18
14/9/2013 6:00,1.000000008,30,107,NNE,Overcast,20,18,88,1007,-999,2,18
14/9/2013 7:00,2.000000016,330,104,NNW,Mist,20,18,88,1008,-999,2.5,18
14/9/2013 8:00,3.000000024,340,92,NNW,Mist,22,19,83,1008,-999,2.5,19
14/9/2013 9:00,2.000000016,350,91,North,Mist,23,19,78,1009,-999,2.5,19
14/9/2013 10:00,2.000000016,210,83,SSW,Mist,25,19,69,1009,-999,4,19
14/9/2013 11:00,2.000000016,300,58,WNW,Unknown,27,17,54,1008,-999,6,17
14/9/2013 12:00,2.000000016,0,39,Variable,Unknown,28,16,48,1008,-999,7,16
14/9/2013 13:00,6.000000048,320,12,NW,Clear,31,7,22,1008,-999,-9999,7
14/9/2013 14:00,5.00000004,340,12,NNW,Clear,30,3,18,1008,-999,-9999,3
14/9/2013 15:00,6.000000048,320,12,NW,Clear,31,1,15,1007,-999,-9999,1
14/9/2013 16:00,5.00000004,340,12,NNW,Clear,31,-1,13,1007,-999,-9999,-1
14/9/2013 17:00,3.000000024,350,17,North,Clear,30,-2,12,1008,-999,-9999,-2
14/9/2013 18:00,2.000000016,20,32,NNE,Clear,27,4,23,1008,-999,-9999,4
14/9/2013 19:00,2.000000016,30,27,NNE,Clear,22,6,35,1009,-999,-9999,6
14/9/2013 20:00,2.000000016,30,37,NNE,Clear,20,9,49,1010,-999,-9999,9
14/9/2013 21:00,1.000000008,50,31,NE,Clear,17,11,68,1011,-999,-9999,11
14/9/2013 22:00,3.000000024,360,66,North,Clear,16,9,63,1012,-999,-9999,9
14/9/2013 23:00,2.000000016,360,52,North,Clear,15,10,72,1012,-999,-9999,10
15/9/2013 0:00,3.000000024,350,17,North,Clear,17,8,55,1012,-999,-9999,8
15/9/2013 1:00,3.000000024,350,20,North,Clear,15,9,67,1012,-999,-9999,9
15/9/2013 2:00,4.000000032,10,19,North,Clear,15,7,59,1012,-999,-9999,7
15/9/2013 3:00,3.000000024,30,13,NNE,Clear,18,2,34,1012,-999,-9999,2
15/9/2013 4:00,4.000000032,10,16,North,Clear,18,2,34,1013,-999,-9999,2
15/9/2013 5:00,4.000000032,340,8,NNW,Clear,16,5,48,1014,-999,-9999,5
15/9/2013 6:00,3.000000024,10,10,North,Clear,13,6,63,1014,-999,-9999,6
15/9/2013 7:00,4.000000032,30,15,NNE,Clear,17,2,37,1015,-999,-9999,2
15/9/2013 8:00,3.000000024,60,10,ENE,Clear,18,2,34,1016,-999,-9999,2
15/9/2013 9:00,4.000000032,50,12,NE,Clear,21,0,25,1016,-999,-9999,0
15/9/2013 10:00,2.000000016,0,16,Variable,Clear,23,0,22,1016,-999,-9999,0
15/9/2013 11:00,1.000000008,0,22,Variable,Clear,24,1,22,1016,-999,-9999,1
15/9/2013 12:00,2.000000016,80,29,East,Clear,25,1,21,1015,-999,-9999,1
15/9/2013 13:00,1.000000008,0,28,Variable,Clear,26,2,21,1014,-999,-9999,2
15/9/2013 14:00,3.000000024,190,26,South,Clear,26,4,24,1013,-999,-9999,4
15/9/2013 15:00,2.000000016,140,28,SE,Clear,26,5,26,1012,-999,-9999,5
15/9/2013 16:00,3.000000024,170,29,South,Clear,25,8,34,1012,-999,-9999,8
15/9/2013 17:00,3.000000024,150,28,SSE,Clear,24,7,34,1012,-999,-9999,7
15/9/2013 18:00,2.000000016,150,32,SSE,Clear,23,7,36,1012,-999,-9999,7
15/9/2013 19:00,2.000000016,160,42,SSE,Clear,21,9,46,1012,-999,-9999,9
15/9/2013 20:00,1.000000008,0,45,Variable,Clear,18,12,68,1013,-999,-9999,12
15/9/2013 21:00,2.000000016,140,39,SE,Clear,21,10,49,1013,-999,-9999,10
15/9/2013 22:00,2.000000016,160,40,SSE,Clear,20,11,56,1013,-999,-9999,11
15/9/2013 23:00,2.000000016,170,32,South,Clear,19,12,64,1013,-999,-9999,12
16/9/2013 0:00,2.000000016,70,26,ENE,Clear,18,13,73,1013,-999,-9999,13
16/9/2013 1:00,1.000000008,0,29,Variable,Clear,17,13,77,1013,-999,-9999,13
16/9/2013 2:00,1.000000008,0,35,Variable,Clear,17,13,77,1013,-999,-9999,13
16/9/2013 3:00,1.000000008,0,64,Variable,Clear,16,13,82,1013,-999,-9999,13
16/9/2013 4:00,1.000000008,0,60,Variable,Clear,15,12,82,1013,-999,-9999,12
16/9/2013 5:00,1.000000008,40,75,NE,Clear,15,12,82,1013,-999,-9999,12
16/9/2013 6:00,1.000000008,60,88,ENE,Clear,15,12,82,1013,-999,-9999,12
16/9/2013 7:00,1.000000008,0,60,Variable,Clear,16,14,88,1013,-999,-9999,14
16/9/2013 8:00,1.000000008,0,62,Variable,Clear,19,12,64,1013,-999,-9999,12
16/9/2013 9:00,1.000000008,0,66,Variable,Clear,21,12,56,1013,-999,-9999,12
16/9/2013 10:00,2.000000016,110,62,ESE,Clear,21,13,60,1013,-999,-9999,13
16/9/2013 11:00,1.000000008,0,54,Variable,Clear,23,13,53,1012,-999,-9999,13
16/9/2013 12:00,2.000000016,0,58,Variable,Clear,25,12,44,1011,-999,-9999,12
16/9/2013 13:00,4.000000032,180,56,South,Clear,26,10,36,1011,-999,-9999,10
16/9/2013 14:00,3.000000024,130,37,SE,Clear,26,12,42,1010,-999,-9999,12
16/9/2013 15:00,3.000000024,150,37,SSE,Clear,26,11,39,1009,-999,-9999,11
16/9/2013 16:00,3.000000024,150,46,SSE,Clear,25,9,36,1009,-999,-9999,9
16/9/2013 17:00,2.000000016,150,50,SSE,Clear,24,11,44,1009,-999,-9999,11
16/9/2013 18:00,2.000000016,160,57,SSE,Clear,23,13,53,1009,-999,-9999,13
16/9/2013 19:00,2.000000016,160,64,SSE,Clear,22,14,60,1009,-999,-9999,14
16/9/2013 20:00,2.000000016,160,70,SSE,Clear,21,15,68,1010,-999,-9999,15
16/9/2013 21:00,1.000000008,0,70,Variable,Clear,20,16,78,1011,-999,-9999,16
16/9/2013 22:00,2.000000016,100,113,East,Clear,20,16,78,1011,-999,-9999,16
16/9/2013 23:00,1.000000008,0,113,Variable,Unknown,19,16,83,1011,-999,7,16
17/9/2013 0:00,1.000000008,80,130,East,Unknown,20,15,73,1012,-999,7,15
17/9/2013 1:00,0,0,117,North,Unknown,20,15,73,1012,-999,7,15
17/9/2013 2:00,1.000000008,0,117,Variable,Unknown,20,16,78,1012,-999,7,16
17/9/2013 3:00,1.000000008,50,98,NE,Unknown,20,15,73,1012,-999,7,15
17/9/2013 4:00,2.000000016,360,90,North,Unknown,20,16,78,1012,-999,6,16
17/9/2013 5:00,2.000000016,10,87,North,Unknown,20,16,78,1013,-999,6,16
17/9/2013 6:00,0,0,85,North,Scattered Clouds,20,15,73,1013,-999,6,15
17/9/2013 7:00,2.000000016,360,84,North,Light Rain Showers,20,16,78,1014,-999,6,16
17/9/2013 8:00,2.000000016,360,84,North,Scattered Clouds,20,16,78,1014,-999,7,16
17/9/2013 9:00,3.000000024,360,85,North,Overcast,21,15,68,1014,-999,7,15
17/9/2013 10:00,1.000000008,0,94,Variable,Light Rain Showers,21,15,68,1015,-999,7,15
17/9/2013 11:00,1.000000008,0,91,Variable,Light Rain Showers,21,17,78,1015,-999,6,17
17/9/2013 12:00,2.000000016,10,97,North,Light Rain Showers,20,17,83,1015,-999,5,17
17/9/2013 13:00,3.000000024,40,94,NE,Light Rain,20,17,83,1014,-999,4,17
17/9/2013 14:00,1.000000008,0,93,Variable,Light Rain,20,18,88,1014,-999,4.5,18
17/9/2013 15:00,1.000000008,0,95,Variable,Light Rain,20,18,88,1015,-999,4,18
17/9/2013 16:00,1.000000008,0,93,Variable,Light Rain,20,18,88,1015,-999,3.5,18
17/9/2013 17:00,2.000000016,140,102,SE,Overcast,20,18,88,1015,-999,3.5,18
17/9/2013 18:00,1.000000008,0,108,Variable,Mist,20,18,88,1016,-999,3.5,18
17/9/2013 19:00,2.000000016,130,114,SE,Mist,19,17,88,1016,-999,3.5,17
17/9/2013 20:00,1.000000008,0,179,Variable,Mist,19,17,88,1017,-999,3.5,17
17/9/2013 21:00,1.000000008,0,117,Variable,Mist,19,17,88,1018,-999,3.5,17
17/9/2013 22:00,1.000000008,0,116,Variable,Mist,20,18,88,1018,-999,3.5,18
17/9/2013 23:00,1.000000008,0,118,Variable,Mist,20,18,88,1018,-999,3.5,18
18/9/2013 0:00,2.000000016,360,121,North,Mist,20,18,88,1018,-999,3.5,18
18/9/2013 1:00,2.000000016,10,132,North,Mist,20,18,88,1018,-999,3.5,18
18/9/2013 2:00,2.000000016,340,128,NNW,Mist,20,18,88,1018,-999,3.5,18
18/9/2013 3:00,1.000000008,310,126,NW,Mist,20,18,88,1019,-999,3.5,18
18/9/2013 4:00,1.000000008,0,113,Variable,Overcast,20,18,88,1019,-999,-9999,18
18/9/2013 5:00,2.000000016,360,106,North,Light Rain,20,18,88,1019,-999,2.5,18
18/9/2013 6:00,1.000000008,0,98,Variable,Light Rain,20,18,88,1020,-999,2,18
18/9/2013 7:00,1.000000008,0,104,Variable,Overcast,20,18,88,1020,-999,1.7,18
18/9/2013 8:00,1.000000008,0,110,Variable,Light Rain,20,18,88,1020,-999,1.8,18
18/9/2013 9:00,2.000000016,330,126,NNW,Overcast,21,19,88,1021,-999,2.5,19
18/9/2013 10:00,2.000000016,110,151,ESE,Mist,22,19,83,1021,-999,2.7,19
18/9/2013 11:00,3.000000024,110,148,ESE,Mist,22,18,78,1020,-999,-9999,18
18/9/2013 12:00,3.000000024,110,139,ESE,Mist,22,18,78,1020,-999,-9999,18
18/9/2013 13:00,2.000000016,170,105,South,Mist,23,18,73,1019,-999,3,18
18/9/2013 14:00,1.000000008,0,106,Variable,Mist,24,18,69,1019,-999,3.5,18
18/9/2013 15:00,3.000000024,140,95,SE,Haze,25,17,61,1018,-999,5,17
18/9/2013 16:00,2.000000016,120,90,ESE,Unknown,25,17,61,1017,-999,6,17
18/9/2013 17:00,2.000000016,70,90,ENE,Unknown,24,18,69,1017,-999,6,18
18/9/2013 18:00,1.000000008,80,110,East,Haze,23,18,73,1017,-999,4.5,18
18/9/2013 19:00,1.000000008,50,119,NE,Unknown,21,18,83,1017,-999,6,18
18/9/2013 20:00,2.000000016,110,121,ESE,Unknown,21,17,78,1017,-999,8,17
18/9/2013 21:00,3.000000024,130,116,SE,Unknown,21,17,78,1017,-999,8,17
18/9/2013 22:00,1.000000008,110,106,ESE,Unknown,20,16,78,1017,-999,8,16
18/9/2013 23:00,2.000000016,130,113,SE,Unknown,20,17,83,1017,-999,8,17
19/9/2013 0:00,2.000000016,120,113,ESE,Unknown,20,17,83,1016,-999,6,17
19/9/2013 1:00,1.000000008,180,123,South,Mist,20,17,83,1016,-999,5,17
19/9/2013 2:00,1.000000008,0,118,Variable,Mist,20,17,83,1015,-999,4,17
19/9/2013 3:00,2.000000016,100,114,East,Mist,20,17,83,1014,-999,3.5,17
19/9/2013 4:00,2.000000016,110,131,ESE,Mist,20,17,83,1014,-999,3.5,17
19/9/2013 5:00,0,0,128,North,Mist,20,17,83,1014,-999,3,17
19/9/2013 6:00,2.000000016,360,128,North,Overcast,20,17,83,1014,-999,3,17
19/9/2013 7:00,2.000000016,10,120,North,Overcast,20,17,83,1014,-999,2,17
19/9/2013 8:00,1.000000008,20,125,NNE,Mist,21,17,78,1013,-999,2.2,17
19/9/2013 9:00,2.000000016,340,126,NNW,Mist,22,17,73,1014,-999,2.2,17
19/9/2013 10:00,2.000000016,320,124,NW,Light Rain,21,18,83,1014,-999,2,18
19/9/2013 11:00,1.000000008,0,129,Variable,Light Rain,22,18,78,1014,-999,1.8,18
19/9/2013 12:00,1.000000008,0,108,Variable,Mist,23,18,73,1013,-999,2.2,18
19/9/2013 13:00,2.000000016,210,109,SSW,Mist,24,17,65,1012,-999,-9999,17
19/9/2013 14:00,2.000000016,0,103,Variable,Haze,26,18,61,1011,-999,-9999,18
19/9/2013 15:00,3.000000024,180,112,South,Haze,26,18,61,1011,-999,-9999,18
19/9/2013 16:00,4.000000032,180,124,South,Haze,26,18,61,1010,-999,-9999,18
19/9/2013 17:00,4.000000032,190,126,South,Haze,25,18,65,1011,-999,-9999,18
19/9/2013 18:00,3.000000024,170,121,South,Haze,24,19,73,1011,-999,3,19
19/9/2013 19:00,3.000000024,190,128,South,Mist,23,18,73,1012,-999,3.5,18
19/9/2013 20:00,1.000000008,0,129,Variable,Mist,21,18,83,1012,-999,3.5,18
19/9/2013 21:00,1.000000008,0,140,Variable,Mist,20,17,83,1013,-999,3.5,17
19/9/2013 22:00,1.000000008,0,138,Variable,Mist,20,18,88,1013,-999,-9999,18
19/9/2013 23:00,1.000000008,80,153,East,Mist,19,17,88,1014,-999,3,17
20/9/2013 0:00,1.000000008,70,156,ENE,Mist,19,17,88,1014,-999,1.8,17
20/9/2013 1:00,3.000000024,360,153,North,Mist,19,17,88,1014,-999,1.7,17
20/9/2013 2:00,1.000000008,340,147,NNW,Mist,19,17,88,1015,-999,1.7,17
20/9/2013 3:00,3.000000024,340,131,NNW,Mist,19,17,88,1014,-999,1.5,17
20/9/2013 4:00,3.000000024,350,114,North,Mist,18,17,94,1014,-999,1.4,17
20/9/2013 5:00,4.000000032,350,98,North,Mist,18,16,88,1015,-999,2.6,16
20/9/2013 6:00,4.000000032,340,87,NNW,Mist,18,16,88,1016,-999,4,16
20/9/2013 7:00,3.000000024,350,59,North,Clear,18,16,88,1017,-999,-9999,16
20/9/2013 8:00,3.000000024,10,38,North,Clear,21,16,73,1017,-999,-9999,16
20/9/2013 9:00,5.00000004,20,29,NNE,Clear,23,11,47,1017,-999,-9999,11
20/9/2013 10:00,3.000000024,40,15,NE,Clear,25,10,39,1017,-999,-9999,10
20/9/2013 11:00,6.000000048,10,7,North,Clear,28,7,26,1016,-999,-9999,7
20/9/2013 12:00,4.000000032,20,12,NNE,Clear,28,8,28,1016,-999,-9999,8
20/9/2013 13:00,3.000000024,60,12,ENE,Clear,27,5,24,1015,-999,-9999,5
20/9/2013 14:00,2.000000016,90,12,East,Clear,27,7,28,1014,-999,-9999,7
20/9/2013 15:00,2.000000016,130,16,SE,Clear,27,8,30,1014,-999,-9999,8
20/9/2013 16:00,2.000000016,110,16,ESE,Clear,27,7,28,1013,-999,-9999,7
20/9/2013 17:00,1.000000008,130,29,SE,Clear,25,14,50,1013,-999,-9999,14
20/9/2013 18:00,0,0,49,North,Clear,22,14,60,1014,-999,-9999,14
20/9/2013 19:00,1.000000008,140,54,SE,Clear,21,15,68,1014,-999,-9999,15
20/9/2013 20:00,1.000000008,170,75,South,Clear,21,16,73,1015,-999,-9999,16
20/9/2013 21:00,2.000000016,160,71,SSE,Clear,20,16,78,1015,-999,-9999,16
20/9/2013 22:00,2.000000016,50,94,NE,Clear,20,16,78,1015,-999,-9999,16
20/9/2013 23:00,1.000000008,80,89,East,Clear,20,16,78,1015,-999,-9999,16
21/9/2013 0:00,1.000000008,20,77,NNE,Clear,20,16,78,1015,-999,-9999,16
21/9/2013 1:00,1.000000008,0,74,Variable,Clear,19,15,78,1015,-999,-9999,15
21/9/2013 2:00,1.000000008,0,75,Variable,Clear,19,15,78,1015,-999,-9999,15
21/9/2013 3:00,1.000000008,10,63,North,Clear,19,15,78,1015,-999,-9999,15
21/9/2013 4:00,1.000000008,0,53,Variable,Clear,18,15,83,1015,-999,-9999,15
21/9/2013 5:00,2.000000016,360,34,North,Clear,18,15,83,1015,-999,-9999,15
21/9/2013 6:00,0,0,42,North,Clear,18,15,83,1016,-999,-9999,15
21/9/2013 7:00,2.000000016,10,41,North,Clear,18,16,88,1016,-999,-9999,16
21/9/2013 8:00,2.000000016,360,39,North,Clear,21,15,68,1016,-999,-9999,15
21/9/2013 9:00,1.000000008,0,46,Variable,Clear,23,14,57,1016,-999,-9999,14
21/9/2013 10:00,2.000000016,120,51,ESE,Clear,25,15,54,1017,-999,-9999,15
21/9/2013 11:00,1.000000008,0,54,Variable,Clear,26,15,51,1016,-999,-9999,15
21/9/2013 12:00,3.000000024,140,56,SE,Clear,27,12,39,1016,-999,-9999,12
21/9/2013 13:00,3.000000024,140,59,SE,Clear,28,12,37,1015,-999,-9999,12
21/9/2013 14:00,2.000000016,120,63,ESE,Clear,28,12,37,1014,-999,-9999,12
21/9/2013 15:00,4.000000032,150,38,SSE,Clear,28,10,32,1014,-999,-9999,10
21/9/2013 16:00,4.000000032,170,37,South,Clear,28,10,32,1014,-999,-9999,10
21/9/2013 17:00,2.000000016,150,61,SSE,Clear,27,11,37,1014,-999,-9999,11
21/9/2013 18:00,3.000000024,150,83,SSE,Clear,25,14,50,1014,-999,-9999,14
21/9/2013 19:00,5.00000004,180,48,South,Unknown,24,13,50,1014,-999,8,13
21/9/2013 20:00,5.00000004,220,36,SW,Clear,24,11,44,1015,-999,-9999,11
21/9/2013 21:00,4.000000032,210,32,SSW,Clear,23,11,47,1016,-999,-9999,11
21/9/2013 22:00,3.000000024,200,35,SSW,Clear,22,10,46,1015,-999,-9999,10
21/9/2013 23:00,1.000000008,0,37,Variable,Clear,19,13,68,1015,-999,-9999,13
22/9/2013 0:00,3.000000024,90,43,East,Clear,19,13,68,1015,-999,-9999,13
22/9/2013 1:00,2.000000016,100,38,East,Clear,19,13,68,1015,-999,-9999,13
22/9/2013 2:00,1.000000008,0,42,Variable,Light Rain Showers,19,14,73,1016,-999,10,14
22/9/2013 3:00,1.000000008,0,43,Variable,Clear,18,15,83,1015,-999,-9999,15
22/9/2013 4:00,1.000000008,70,62,ENE,Clear,18,15,83,1015,-999,-9999,15
22/9/2013 5:00,1.000000008,0,69,Variable,Unknown,18,15,83,1015,-999,8,15
22/9/2013 6:00,1.000000008,10,67,North,Unknown,19,15,78,1016,-999,8,15
22/9/2013 7:00,2.000000016,110,72,ESE,Unknown,18,16,88,1016,-999,6,16
22/9/2013 8:00,1.000000008,0,93,Variable,Unknown,19,16,83,1016,-999,6,16
22/9/2013 9:00,1.000000008,0,91,Variable,Mist,19,16,83,1016,-999,4.5,16
22/9/2013 10:00,1.000000008,0,85,Variable,Mist,20,16,78,1016,-999,4.5,16
22/9/2013 11:00,2.000000016,70,77,ENE,Haze,22,15,64,1016,-999,4.5,15
22/9/2013 12:00,1.000000008,0,96,Variable,Haze,22,15,64,1015,-999,4.5,15
22/9/2013 13:00,1.000000008,0,107,Variable,Haze,22,16,69,1015,-999,4.5,16
22/9/2013 14:00,1.000000008,0,101,Variable,Haze,22,15,64,1014,-999,4,15
22/9/2013 15:00,2.000000016,130,111,SE,Haze,23,15,61,1014,-999,-9999,15
22/9/2013 16:00,1.000000008,0,111,Variable,Haze,22,16,69,1014,-999,-9999,16
22/9/2013 17:00,1.000000008,90,120,East,Haze,22,16,69,1014,-999,4,16
22/9/2013 18:00,1.000000008,0,137,Variable,Mist,22,17,73,1014,-999,3.5,17
22/9/2013 19:00,1.000000008,120,135,ESE,Mist,21,17,78,1014,-999,3.5,17
22/9/2013 20:00,1.000000008,0,134,Variable,Mist,21,17,78,1014,-999,-9999,17
22/9/2013 21:00,1.000000008,30,149,NNE,Mist,20,17,83,1014,-999,3,17
22/9/2013 22:00,1.000000008,0,152,Variable,Mist,20,17,83,1014,-999,2.8,17
22/9/2013 23:00,1.000000008,50,161,NE,Mist,20,17,83,1014,-999,2.8,17
23/9/2013 0:00,1.000000008,0,162,Variable,Light Rain Showers,20,16,78,1014,-999,3,16
23/9/2013 1:00,1.000000008,0,158,Variable,Light Rain Showers,20,17,83,1013,-999,3,17
23/9/2013 2:00,1.000000008,360,137,North,Light Rain Showers,20,18,88,1013,-999,3.5,18
23/9/2013 3:00,2.000000016,360,110,North,Light Rain Showers,19,17,88,1013,-999,3,17
23/9/2013 4:00,4.000000032,290,69,WNW,Light Rain Showers,19,17,88,1014,-999,2.5,17
23/9/2013 5:00,8.000000064,320,18,NW,Light Rain Showers,17,13,77,1014,-999,10,13
23/9/2013 6:00,7.000000056,310,14,NW,Light Rain Showers,16,10,68,1015,-999,10,10
23/9/2013 7:00,6.000000048,320,10,NW,Light Rain,16,10,68,1017,-999,10,10
23/9/2013 8:00,4.000000032,340,6,NNW,Light Rain,15,9,67,1017,-999,10,9
23/9/2013 9:00,5.00000004,330,8,NNW,Light Rain,16,7,55,1018,-999,10,7
23/9/2013 10:00,6.000000048,330,9,NNW,Light Rain,16,7,55,1019,-999,10,7
23/9/2013 11:00,6.000000048,330,10,NNW,Light Rain,17,6,48,1019,-999,10,6
23/9/2013 12:00,8.000000064,330,13,NNW,Light Rain,16,7,55,1019,-999,10,7
23/9/2013 13:00,6.000000048,330,10,NNW,Light Rain,17,7,52,1019,-999,10,7
23/9/2013 14:00,7.000000056,330,13,NNW,Partly Cloudy,18,4,40,1019,-999,10,4
23/9/2013 15:00,6.000000048,330,11,NNW,Clear,18,3,37,1019,-999,-9999,3
23/9/2013 16:00,5.00000004,340,10,NNW,Clear,18,3,37,1019,-999,-9999,3
23/9/2013 17:00,2.000000016,360,12,North,Clear,17,6,48,1020,-999,-9999,6
23/9/2013 18:00,3.000000024,360,17,North,Clear,16,5,48,1020,-999,-9999,5
23/9/2013 19:00,1.000000008,0,22,Variable,Clear,14,7,63,1021,-999,-9999,7
23/9/2013 20:00,1.000000008,80,23,East,Clear,12,9,82,1021,-999,-9999,9
23/9/2013 21:00,2.000000016,10,16,North,Clear,11,8,82,1022,-999,-9999,8
23/9/2013 22:00,3.000000024,10,44,North,Clear,11,7,76,1022,-999,-9999,7
23/9/2013 23:00,4.000000032,350,30,North,Clear,10,7,82,1022,-999,-9999,7
24/9/2013 0:00,3.000000024,350,23,North,Clear,10,7,82,1022,-999,-9999,7
24/9/2013 1:00,2.000000016,350,17,North,Clear,10,6,76,1022,-999,-9999,6
24/9/2013 2:00,2.000000016,360,10,North,Clear,9,6,82,1022,-999,-9999,6
24/9/2013 3:00,1.000000008,20,9,NNE,Clear,10,6,76,1022,-999,-9999,6
24/9/2013 4:00,2.000000016,320,11,NW,Clear,8,5,81,1023,6.9,-9999,5
24/9/2013 5:00,3.000000024,360,10,North,Clear,7,4,81,1023,4.9,-9999,4
24/9/2013 6:00,1.000000008,0,11,Variable,Clear,8,5,81,1023,-999,-9999,5
24/9/2013 7:00,4.000000032,320,9,NW,Clear,13,2,47,1024,-999,-9999,2
24/9/2013 8:00,3.000000024,340,11,NNW,Clear,14,3,48,1024,-999,-9999,3
24/9/2013 9:00,4.000000032,330,11,NNW,Clear,16,1,36,1025,-999,-9999,1
24/9/2013 10:00,4.000000032,350,11,North,Clear,17,2,37,1024,-999,-9999,2
24/9/2013 11:00,3.000000024,350,11,North,Clear,19,0,28,1023,-999,-9999,0
24/9/2013 12:00,3.000000024,350,10,North,Clear,20,-2,23,1022,-999,-9999,-2
24/9/2013 13:00,3.000000024,320,7,NW,Clear,21,-2,21,1021,-999,-9999,-2
24/9/2013 14:00,4.000000032,320,7,NW,Clear,21,-2,21,1020,-999,-9999,-2
24/9/2013 15:00,3.000000024,340,9,NNW,Clear,23,-3,18,1019,-999,-9999,-3
24/9/2013 16:00,4.000000032,310,11,NW,Clear,22,-3,19,1019,-999,-9999,-3
24/9/2013 17:00,3.000000024,320,13,NW,Clear,22,-4,17,1019,-999,-9999,-4
24/9/2013 18:00,3.000000024,110,17,ESE,Clear,17,3,39,1019,-999,-9999,3
24/9/2013 19:00,2.000000016,160,31,SSE,Clear,15,5,51,1019,-999,-9999,5
24/9/2013 20:00,1.000000008,0,36,Variable,Clear,13,6,63,1020,-999,-9999,6
24/9/2013 21:00,2.000000016,360,29,North,Clear,10,6,76,1021,-999,-9999,6
24/9/2013 22:00,2.000000016,10,25,North,Clear,11,5,67,1021,-999,-9999,5
24/9/2013 23:00,2.000000016,10,13,North,Clear,11,4,62,1022,-999,-9999,4
25/9/2013 0:00,3.000000024,20,10,NNE,Clear,12,2,51,1022,-999,-9999,2
25/9/2013 1:00,2.000000016,350,7,North,Clear,10,1,54,1022,-999,-9999,1
25/9/2013 2:00,2.000000016,20,8,NNE,Clear,11,2,54,1022,-999,-9999,2
25/9/2013 3:00,1.000000008,0,14,Variable,Clear,7,2,71,1022,-999,-9999,2
25/9/2013 4:00,5.00000004,310,19,NW,Clear,15,-7,22,1022,-999,-9999,-7
25/9/2013 5:00,3.000000024,330,30,NNW,Clear,10,-3,40,1022,-999,-9999,-3
25/9/2013 6:00,2.000000016,20,27,NNE,Clear,10,-1,47,1023,-999,-9999,-1
25/9/2013 7:00,1.000000008,160,23,SSE,Clear,10,3,62,1023,-999,-9999,3
25/9/2013 8:00,2.000000016,30,20,NNE,Clear,14,-1,36,1023,-999,-9999,-1
25/9/2013 9:00,1.000000008,0,16,Variable,Clear,17,-1,30,1024,-999,-9999,-1
25/9/2013 10:00,4.000000032,300,11,WNW,Clear,19,-5,19,1023,-999,-9999,-5
25/9/2013 11:00,3.000000024,270,11,West,Clear,21,-5,17,1022,-999,-9999,-5
25/9/2013 12:00,5.00000004,270,10,West,Clear,22,-7,14,1021,-999,-9999,-7
25/9/2013 13:00,5.00000004,270,23,West,Clear,23,-8,12,1020,-999,-9999,-8
25/9/2013 14:00,4.000000032,260,9,West,Clear,25,-7,12,1019,-999,-9999,-7
25/9/2013 15:00,5.00000004,210,8,SSW,Clear,24,-4,15,1018,-999,-9999,-4
25/9/2013 16:00,7.000000056,210,11,SSW,Clear,24,-5,14,1017,-999,-9999,-5
25/9/2013 17:00,6.000000048,210,14,SSW,Clear,23,-4,16,1016,-999,-9999,-4
25/9/2013 18:00,6.000000048,210,19,SSW,Clear,21,-4,18,1016,-999,-9999,-4
25/9/2013 19:00,5.00000004,200,22,SSW,Clear,20,-2,23,1017,-999,-9999,-2
25/9/2013 20:00,6.000000048,210,22,SSW,Clear,20,-2,23,1017,-999,-9999,-2
25/9/2013 21:00,1.000000008,0,26,Variable,Clear,15,3,45,1018,-999,-9999,3
25/9/2013 22:00,2.000000016,70,28,ENE,Clear,13,5,58,1018,-999,-9999,5
25/9/2013 23:00,2.000000016,20,47,NNE,Clear,10,5,71,1018,-999,-9999,5
26/9/2013 0:00,1.000000008,0,62,Variable,Clear,10,6,76,1018,-999,-9999,6
26/9/2013 1:00,2.000000016,20,37,NNE,Clear,9,6,82,1018,-999,-9999,6
26/9/2013 2:00,2.000000016,350,36,North,Clear,9,6,82,1018,-999,-9999,6
26/9/2013 3:00,2.000000016,340,33,NNW,Clear,9,6,82,1018,-999,-9999,6
26/9/2013 4:00,3.000000024,350,28,North,Clear,8,4,76,1018,6.1,-9999,4
26/9/2013 5:00,3.000000024,350,30,North,Clear,7,4,81,1018,4.9,-9999,4
26/9/2013 6:00,1.000000008,0,27,Variable,Clear,8,4,76,1018,-999,-9999,4
26/9/2013 7:00,1.000000008,0,22,Variable,Clear,10,6,76,1019,-999,-9999,6
26/9/2013 8:00,2.000000016,360,20,North,Clear,15,6,55,1019,-999,-9999,6
26/9/2013 9:00,2.000000016,80,30,East,Clear,17,4,42,1020,-999,-9999,4
26/9/2013 10:00,2.000000016,110,55,ESE,Clear,19,4,37,1020,-999,-9999,4
26/9/2013 11:00,2.000000016,180,48,South,Clear,21,4,33,1019,-999,-9999,4
26/9/2013 12:00,2.000000016,130,55,SE,Clear,22,2,27,1018,-999,-9999,2
26/9/2013 13:00,2.000000016,0,,Variable,Clear,23,2,25,1017,-999,-9999,2
26/9/2013 14:00,3.000000024,160,66,SSE,Clear,24,2,24,1016,-999,-9999,2
26/9/2013 15:00,3.000000024,150,64,SSE,Unknown,24,3,25,1015,-999,8,3
26/9/2013 16:00,3.000000024,150,53,SSE,Unknown,24,3,25,1014,-999,8,3
26/9/2013 17:00,2.000000016,150,47,SSE,Clear,23,4,29,1014,-999,-9999,4
26/9/2013 18:00,2.000000016,140,51,SE,Clear,19,7,46,1014,-999,-9999,7
26/9/2013 19:00,1.000000008,90,69,East,Clear,16,11,72,1014,-999,-9999,11
26/9/2013 20:00,1.000000008,0,107,Variable,Clear,15,10,72,1014,-999,-9999,10
26/9/2013 21:00,2.000000016,90,114,East,Clear,14,10,77,1014,-999,-9999,10
26/9/2013 22:00,2.000000016,100,138,East,Unknown,15,9,67,1014,-999,8,9
26/9/2013 23:00,1.000000008,0,187,Variable,Unknown,13,8,72,1014,-999,8,8
27/9/2013 0:00,1.000000008,0,184,Variable,Unknown,12,9,82,1013,-999,8,9
27/9/2013 1:00,0,0,146,North,Clear,12,8,77,1013,-999,-9999,8
27/9/2013 2:00,1.000000008,20,139,NNE,Clear,11,8,82,1013,-999,-9999,8
27/9/2013 3:00,0,0,143,North,Unknown,10,8,87,1013,-999,7,8
27/9/2013 4:00,1.000000008,0,129,Variable,Unknown,10,8,87,1012,-999,6,8
27/9/2013 5:00,0,0,126,North,Unknown,10,8,87,1013,-999,6,8
27/9/2013 6:00,1.000000008,10,137,North,Mist,10,8,87,1013,-999,5,8
27/9/2013 7:00,1.000000008,60,113,ENE,Mist,10,8,87,1013,-999,4.5,8
27/9/2013 8:00,2.000000016,80,127,East,Mist,13,10,82,1013,-999,3.5,10
27/9/2013 9:00,1.000000008,0,148,Variable,Mist,15,9,67,1013,-999,3.5,9
27/9/2013 10:00,2.000000016,50,159,NE,Haze,17,10,63,1013,-999,3.5,10
27/9/2013 11:00,2.000000016,140,161,SE,Haze,20,9,49,1012,-999,3.5,9
27/9/2013 12:00,2.000000016,130,166,SE,Haze,21,8,43,1011,-999,3.5,8
27/9/2013 13:00,3.000000024,150,202,SSE,Haze,22,7,38,1010,-999,-9999,7
27/9/2013 14:00,3.000000024,140,229,SE,Haze,23,7,36,1010,-999,2.8,7
27/9/2013 15:00,3.000000024,140,229,SE,Haze,23,9,41,1009,-999,2.5,9
27/9/2013 16:00,2.000000016,150,254,SSE,Haze,23,9,41,1009,-999,2.2,9
27/9/2013 17:00,2.000000016,140,259,SE,Haze,22,10,46,1009,-999,2.2,10
27/9/2013 18:00,1.000000008,100,281,East,Haze,19,12,64,1009,-999,2.5,12
27/9/2013 19:00,2.000000016,100,292,East,Mist,17,12,72,1010,-999,2.6,12
27/9/2013 20:00,2.000000016,100,298,East,Mist,18,11,64,1010,-999,2.5,11
27/9/2013 21:00,1.000000008,0,266,Variable,Mist,17,11,68,1010,-999,2.4,11
27/9/2013 22:00,1.000000008,0,250,Variable,Mist,15,11,77,1011,-999,2.3,11
27/9/2013 23:00,3.000000024,140,211,SE,Mist,16,11,72,1011,-999,2.4,11
28/9/2013 0:00,2.000000016,150,207,SSE,Mist,16,9,63,1011,-999,-9999,9
28/9/2013 1:00,3.000000024,140,209,SE,Haze,16,8,59,1010,-999,3.5,8
28/9/2013 2:00,1.000000008,0,210,Variable,Mist,13,9,77,1010,-999,3.5,9
28/9/2013 3:00,2.000000016,90,217,East,Mist,13,9,77,1010,-999,3,9
28/9/2013 4:00,2.000000016,90,226,East,Mist,13,9,77,1010,-999,2.5,9
28/9/2013 5:00,1.000000008,80,232,East,Mist,12,9,82,1010,-999,2.5,9
28/9/2013 6:00,1.000000008,0,238,Variable,Mist,11,8,82,1011,-999,1.8,8
28/9/2013 7:00,1.000000008,100,253,East,Mist,12,9,82,1011,-999,1.5,9
28/9/2013 8:00,1.000000008,0,269,Variable,Mist,14,10,77,1011,-999,1.5,10
28/9/2013 9:00,2.000000016,120,272,ESE,Mist,15,10,72,1012,-999,1.8,10
28/9/2013 10:00,2.000000016,130,273,SE,Haze,17,9,59,1012,-999,2,9
28/9/2013 11:00,2.000000016,80,265,East,Haze,18,9,56,1011,-999,2,9
28/9/2013 12:00,3.000000024,130,236,SE,Haze,19,9,52,1011,-999,2.2,9
28/9/2013 13:00,3.000000024,150,213,SSE,Haze,20,10,52,1010,-999,2.2,10
28/9/2013 14:00,2.000000016,0,221,Variable,Haze,20,10,52,1010,-999,2,10
28/9/2013 15:00,3.000000024,180,234,South,Haze,20,11,56,1010,-999,2,11
28/9/2013 16:00,2.000000016,130,237,SE,Haze,20,10,52,1010,-999,2,10
28/9/2013 17:00,1.000000008,0,246,Variable,Haze,20,11,56,1010,-999,2,11
28/9/2013 18:00,1.000000008,0,262,Variable,Haze,17,12,72,1011,-999,2.5,12
28/9/2013 19:00,1.000000008,0,274,Variable,Mist,16,12,77,1011,-999,2.8,12
28/9/2013 20:00,1.000000008,0,283,Variable,Mist,15,12,82,1012,-999,2.5,12
28/9/2013 21:00,2.000000016,30,272,NNE,Mist,15,12,82,1013,-999,2.5,12
28/9/2013 22:00,1.000000008,0,286,Variable,Mist,14,11,82,1013,-999,2.3,11
28/9/2013 23:00,2.000000016,50,289,NE,Mist,15,12,82,1014,-999,2.2,12
29/9/2013 0:00,1.000000008,10,280,North,Mist,14,11,82,1013,-999,2,11
29/9/2013 1:00,3.000000024,350,286,North,Mist,14,11,82,1014,-999,2,11
29/9/2013 2:00,2.000000016,360,284,North,Mist,14,11,82,1014,-999,2,11
29/9/2013 3:00,2.000000016,350,259,North,Mist,15,12,82,1014,-999,2,12
29/9/2013 4:00,2.000000016,360,233,North,Mist,15,12,82,1014,-999,2,12
29/9/2013 5:00,2.000000016,360,226,North,Mist,16,13,82,1015,-999,2,13
29/9/2013 6:00,1.000000008,10,232,North,Mist,16,13,82,1015,-999,2,13
29/9/2013 7:00,1.000000008,360,228,North,Mist,16,13,82,1016,-999,1.8,13
29/9/2013 8:00,2.000000016,360,221,North,Mist,17,13,77,1017,-999,1.8,13
29/9/2013 9:00,2.000000016,10,211,North,Overcast,17,13,77,1018,-999,1.8,13
29/9/2013 10:00,3.000000024,340,204,NNW,Overcast,18,13,73,1019,-999,1.8,13
29/9/2013 11:00,2.000000016,10,207,North,Overcast,18,13,73,1019,-999,1.8,13
29/9/2013 12:00,3.000000024,10,228,North,Overcast,18,13,73,1018,-999,1.8,13
29/9/2013 13:00,2.000000016,360,222,North,Overcast,19,13,68,1018,-999,2,13
29/9/2013 14:00,3.000000024,360,210,North,Haze,20,13,64,1018,-999,2,13
29/9/2013 15:00,3.000000024,360,212,North,Haze,20,13,64,1018,-999,2.5,13
29/9/2013 16:00,3.000000024,360,219,North,Haze,20,13,64,1018,-999,2.5,13
29/9/2013 17:00,3.000000024,340,213,NNW,Haze,19,13,68,1018,-999,2.5,13
29/9/2013 18:00,1.000000008,0,221,Variable,Haze,18,13,73,1018,-999,2.3,13
29/9/2013 19:00,3.000000024,330,208,NNW,Overcast,19,13,68,1018,-999,2.3,13
29/9/2013 20:00,2.000000016,10,207,North,Overcast,18,14,77,1019,-999,2.3,14
29/9/2013 21:00,1.000000008,0,208,Variable,Overcast,18,14,77,1019,-999,2.3,14
29/9/2013 22:00,1.000000008,0,210,Variable,Overcast,18,14,77,1020,-999,2.3,14
29/9/2013 23:00,0,0,210,North,Overcast,17,14,82,1020,-999,2.3,14
30/9/2013 0:00,1.000000008,0,214,Variable,Overcast,17,14,82,1019,-999,2.3,14
30/9/2013 1:00,0,0,221,North,Overcast,17,14,82,1019,-999,2.3,14
30/9/2013 2:00,1.000000008,0,226,Variable,Overcast,17,14,82,1019,-999,2.3,14
30/9/2013 3:00,1.000000008,0,228,Variable,Overcast,17,14,82,1019,-999,2.5,14
30/9/2013 4:00,2.000000016,110,202,ESE,Overcast,17,15,88,1019,-999,2.5,15
30/9/2013 5:00,1.000000008,0,122,Variable,Overcast,18,15,83,1019,-999,3,15
30/9/2013 6:00,1.000000008,120,100,ESE,Overcast,17,15,88,1019,-999,3,15
30/9/2013 7:00,2.000000016,130,98,SE,Overcast,18,15,83,1020,-999,2.5,15
30/9/2013 8:00,1.000000008,80,120,East,Overcast,18,15,83,1020,-999,2.5,15
30/9/2013 9:00,2.000000016,150,127,SSE,Overcast,19,15,78,1020,-999,2.7,15
30/9/2013 10:00,3.000000024,140,128,SE,Mist,20,15,73,1020,-999,-9999,15
30/9/2013 11:00,3.000000024,170,125,South,Haze,21,14,64,1020,-999,3.5,14
30/9/2013 12:00,3.000000024,150,114,SSE,Haze,22,15,64,1019,-999,4,15
30/9/2013 13:00,4.000000032,150,102,SSE,Haze,22,14,60,1018,-999,4.5,14
30/9/2013 14:00,3.000000024,150,103,SSE,Unknown,23,13,53,1018,-999,6,13
30/9/2013 15:00,3.000000024,140,84,SE,Unknown,22,13,57,1017,-999,6,13
30/9/2013 16:00,2.000000016,160,92,SSE,Unknown,22,13,57,1017,-999,6,13
30/9/2013 17:00,1.000000008,0,93,Variable,Unknown,21,14,64,1017,-999,6,14
30/9/2013 18:00,1.000000008,0,114,Variable,Unknown,19,15,78,1017,-999,6,15
30/9/2013 19:00,0,0,164,North,Mist,18,15,83,1017,-999,5,15
30/9/2013 20:00,2.000000016,20,200,NNE,Mist,18,15,83,1017,-999,4.5,15
30/9/2013 21:00,1.000000008,20,208,NNE,Mist,17,14,82,1017,-999,4,14
30/9/2013 22:00,1.000000008,0,188,Variable,Mist,17,14,82,1017,-999,3.5,14
30/9/2013 23:00,1.000000008,0,173,Variable,Mist,18,15,83,1017,-999,2.8,15
1/10/2013 0:00,1.000000008,80,170,East,Mist,18,15,83,1017,-999,2.8,15
1/10/2013 1:00,2.000000016,100,169,East,Mist,18,15,83,1016,-999,2.8,15
1/10/2013 2:00,1.000000008,0,152,Variable,Overcast,18,15,83,1016,-999,2.8,15
1/10/2013 3:00,1.000000008,0,147,Variable,Overcast,18,15,83,1016,-999,2.8,15
1/10/2013 4:00,1.000000008,50,136,NE,Overcast,18,15,83,1015,-999,2.6,15
1/10/2013 5:00,1.000000008,10,145,North,Overcast,18,15,83,1015,-999,2.6,15
1/10/2013 6:00,1.000000008,0,134,Variable,Light Thunderstorms and Rain,18,15,83,1015,-999,2,15
1/10/2013 7:00,2.000000016,360,131,North,Light Thunderstorms and Rain,18,15,83,1015,-999,1.6,15
1/10/2013 8:00,2.000000016,300,115,WNW,Light Rain Showers,18,16,88,1016,-999,1.5,16
1/10/2013 9:00,4.000000032,340,36,NNW,Light Rain Showers,18,15,83,1016,-999,2.8,15
1/10/2013 10:00,3.000000024,20,23,NNE,Light Rain Showers,17,14,82,1017,-999,5,14
1/10/2013 11:00,3.000000024,350,27,North,Light Rain Showers,16,14,88,1017,-999,10,14
1/10/2013 12:00,3.000000024,30,23,NNE,Light Rain Showers,17,14,82,1017,-999,10,14
1/10/2013 13:00,6.000000048,10,16,North,Clear,21,14,64,1016,-999,-9999,14
1/10/2013 14:00,5.00000004,40,10,NE,Clear,21,11,53,1015,-999,-9999,11
1/10/2013 15:00,4.000000032,50,12,NE,Clear,22,10,46,1015,-999,-9999,10
1/10/2013 16:00,3.000000024,70,12,ENE,Clear,22,10,46,1016,-999,-9999,10
1/10/2013 17:00,2.000000016,40,13,NE,Clear,22,10,46,1016,-999,-9999,10
1/10/2013 18:00,1.000000008,0,26,Variable,Clear,19,11,60,1017,-999,-9999,11
1/10/2013 19:00,1.000000008,0,64,Variable,Clear,16,12,77,1018,-999,-9999,12
1/10/2013 20:00,3.000000024,150,50,SSE,Clear,17,13,77,1019,-999,-9999,13
1/10/2013 21:00,2.000000016,160,34,SSE,Clear,15,13,88,1020,-999,-9999,13
1/10/2013 22:00,3.000000024,160,36,SSE,Clear,15,12,82,1021,-999,-9999,12
1/10/2013 23:00,1.000000008,0,34,Variable,Clear,14,12,88,1021,-999,-9999,12
2/10/2013 0:00,2.000000016,190,36,South,Clear,14,11,82,1021,-999,-9999,11
2/10/2013 1:00,3.000000024,210,37,SSW,Clear,15,12,82,1021,-999,-9999,12
2/10/2013 2:00,2.000000016,0,37,Variable,Clear,13,10,82,1022,-999,-9999,10
2/10/2013 3:00,1.000000008,0,24,Variable,Clear,13,9,77,1022,-999,-9999,9
2/10/2013 4:00,2.000000016,320,11,NW,Clear,10,7,82,1022,-999,-9999,7
2/10/2013 5:00,1.000000008,0,9,Variable,Clear,11,6,71,1023,-999,-9999,6
2/10/2013 6:00,1.000000008,350,11,North,Unknown,10,8,87,1023,-999,8,8
2/10/2013 7:00,4.000000032,360,13,North,Clear,11,9,88,1023,-999,-9999,9
2/10/2013 8:00,2.000000016,360,8,North,Clear,15,10,72,1024,-999,-9999,10
2/10/2013 9:00,5.00000004,350,7,North,Clear,18,4,40,1024,-999,-9999,4
2/10/2013 10:00,6.000000048,320,5,NW,Clear,20,-1,24,1024,-999,-9999,-1
2/10/2013 11:00,5.00000004,310,6,NW,Clear,20,-2,23,1023,-999,-9999,-2
2/10/2013 12:00,3.000000024,350,10,North,Clear,22,-3,19,1022,-999,-9999,-3
2/10/2013 13:00,3.000000024,290,9,WNW,Clear,22,-2,20,1021,-999,-9999,-2
2/10/2013 14:00,2.000000016,0,5,Variable,Clear,23,-4,16,1020,-999,-9999,-4
2/10/2013 15:00,2.000000016,0,8,Variable,Clear,23,-6,14,1019,-999,-9999,-6
2/10/2013 16:00,3.000000024,180,13,South,Clear,23,-4,16,1018,-999,-9999,-4
2/10/2013 17:00,4.000000032,180,16,South,Clear,21,-2,21,1018,-999,-9999,-2
2/10/2013 18:00,4.000000032,190,21,South,Clear,19,0,28,1017,-999,-9999,0
2/10/2013 19:00,4.000000032,180,27,South,Clear,19,0,28,1017,-999,-9999,0
2/10/2013 20:00,1.000000008,0,26,Variable,Clear,15,4,48,1018,-999,-9999,4
2/10/2013 21:00,1.000000008,0,46,Variable,Clear,13,6,63,1018,-999,-9999,6
2/10/2013 22:00,1.000000008,0,41,Variable,Clear,12,7,72,1018,-999,-9999,7
2/10/2013 23:00,1.000000008,0,43,Variable,Clear,12,7,72,1018,-999,-9999,7
3/10/2013 0:00,2.000000016,40,42,NE,Clear,10,6,76,1018,-999,-9999,6
3/10/2013 1:00,2.000000016,50,60,NE,Clear,10,6,76,1018,-999,-9999,6
3/10/2013 2:00,2.000000016,70,53,ENE,Clear,10,7,82,1018,-999,-9999,7
3/10/2013 3:00,1.000000008,360,51,North,Clear,9,5,76,1018,-999,-9999,5
3/10/2013 4:00,3.000000024,20,43,NNE,Clear,9,6,82,1018,-999,-9999,6
3/10/2013 5:00,1.000000008,0,36,Variable,Clear,8,5,81,1018,-999,-9999,5
3/10/2013 6:00,0,0,36,North,Clear,8,6,87,1019,-999,-9999,6
3/10/2013 7:00,1.000000008,0,45,Variable,Clear,9,7,87,1019,-999,-9999,7
3/10/2013 8:00,2.000000016,20,48,NNE,Clear,13,7,67,1020,-999,-9999,7
3/10/2013 9:00,2.000000016,0,95,Variable,Clear,16,6,52,1021,-999,-9999,6
3/10/2013 10:00,3.000000024,90,94,East,Clear,17,7,52,1021,-999,-9999,7
3/10/2013 11:00,4.000000032,140,96,SE,Clear,19,6,43,1020,-999,-9999,6
3/10/2013 12:00,4.000000032,130,95,SE,Clear,19,6,43,1019,-999,-9999,6
3/10/2013 13:00,4.000000032,120,85,ESE,Unknown,20,7,43,1018,-999,8,7
3/10/2013 14:00,4.000000032,130,81,SE,Unknown,21,7,40,1017,-999,8,7
3/10/2013 15:00,3.000000024,100,71,East,Clear,21,9,46,1017,-999,-9999,9
3/10/2013 16:00,2.000000016,80,65,East,Clear,21,10,49,1016,-999,-9999,10
3/10/2013 17:00,1.000000008,0,59,Variable,Mostly Cloudy,20,10,52,1016,-999,10,10
3/10/2013 18:00,4.000000032,120,58,ESE,Scattered Clouds,19,11,60,1016,-999,10,11
3/10/2013 19:00,3.000000024,120,58,ESE,Mostly Cloudy,17,11,68,1016,-999,10,11
3/10/2013 20:00,2.000000016,120,57,ESE,Mostly Cloudy,17,11,68,1017,-999,10,11
3/10/2013 21:00,3.000000024,120,55,ESE,Clear,16,10,68,1017,-999,-9999,10
3/10/2013 22:00,1.000000008,0,42,Variable,Clear,15,10,72,1017,-999,-9999,10
3/10/2013 23:00,2.000000016,140,40,SE,Clear,14,10,77,1016,-999,-9999,10
4/10/2013 0:00,1.000000008,0,47,Variable,Scattered Clouds,13,9,77,1016,-999,10,9
4/10/2013 1:00,1.000000008,20,58,NNE,Scattered Clouds,14,11,82,1016,-999,10,11
4/10/2013 2:00,0,0,55,North,Scattered Clouds,14,11,82,1015,-999,10,11
4/10/2013 3:00,1.000000008,0,58,Variable,Scattered Clouds,14,11,82,1015,-999,10,11
4/10/2013 4:00,1.000000008,0,67,Variable,Unknown,13,10,82,1014,-999,8,10
4/10/2013 5:00,1.000000008,20,63,NNE,Unknown,12,10,88,1014,-999,7,10
4/10/2013 6:00,1.000000008,150,75,SSE,Unknown,12,10,88,1014,-999,6,10
4/10/2013 7:00,1.000000008,0,83,Variable,Unknown,12,10,88,1014,-999,7,10
4/10/2013 8:00,2.000000016,170,95,South,Unknown,14,12,88,1015,-999,7,12
4/10/2013 9:00,3.000000024,140,119,SE,Unknown,16,10,68,1015,-999,6,10
4/10/2013 10:00,2.000000016,110,127,ESE,Haze,17,10,63,1015,-999,5,10
4/10/2013 11:00,1.000000008,0,139,Variable,Haze,19,10,56,1014,-999,4,10
4/10/2013 12:00,,,159,,,,,,,,,
4/10/2013 13:00,2.000000016,140,170,SE,Haze,21,11,53,1013,-999,3.5,11
4/10/2013 14:00,3.000000024,180,172,South,Haze,21,11,53,1012,-999,2.8,11
4/10/2013 15:00,3.000000024,140,168,SE,Haze,21,11,53,1012,-999,2.7,11
4/10/2013 16:00,2.000000016,140,170,SE,Haze,21,12,56,1012,-999,2.7,12
4/10/2013 17:00,2.000000016,90,180,East,Haze,20,13,64,1012,-999,2.4,13
4/10/2013 18:00,1.000000008,90,214,East,Haze,19,13,68,1012,-999,2.4,13
4/10/2013 19:00,1.000000008,0,276,Variable,Mist,17,13,77,1013,-999,2,13
4/10/2013 20:00,1.000000008,30,357,NNE,Mist,15,12,82,1014,-999,2,12
4/10/2013 21:00,1.000000008,20,388,NNE,Mist,15,13,88,1014,-999,1.8,13
4/10/2013 22:00,1.000000008,0,403,Variable,Mist,15,12,82,1015,-999,1.8,12
4/10/2013 23:00,1.000000008,0,393,Variable,Mist,14,12,88,1015,-999,1.8,12
5/10/2013 0:00,2.000000016,20,395,NNE,Mist,14,12,88,1015,-999,1.7,12
5/10/2013 1:00,1.000000008,20,379,NNE,Mist,14,12,88,1016,-999,1.7,12
5/10/2013 2:00,1.000000008,70,346,ENE,Mist,13,12,94,1016,-999,1.7,12
5/10/2013 3:00,1.000000008,0,319,Variable,Mist,13,11,88,1016,-999,1.6,11
5/10/2013 4:00,0,0,282,North,Mist,13,11,88,1016,-999,1.5,11
5/10/2013 5:00,0,0,290,North,Mist,13,11,88,1017,-999,1.3,11
5/10/2013 6:00,2.000000016,360,294,North,Mist,11,10,94,1018,-999,1.3,10
5/10/2013 7:00,1.000000008,0,310,Variable,Fog,12,10,88,1018,-999,0.9,10
5/10/2013 8:00,1.000000008,10,322,North,Fog,14,13,94,1019,-999,0.9,13
5/10/2013 9:00,1.000000008,0,308,Variable,Mist,16,13,82,1020,-999,1.3,13
5/10/2013 10:00,1.000000008,0,301,Variable,Haze,19,12,64,1020,-999,1.5,12
5/10/2013 11:00,2.000000016,80,296,East,Haze,20,11,56,1020,-999,1.7,11
5/10/2013 12:00,2.000000016,120,277,ESE,Haze,21,11,53,1020,-999,1.8,11
5/10/2013 13:00,2.000000016,110,269,ESE,Haze,22,11,50,1019,-999,1.8,11
5/10/2013 14:00,4.000000032,150,250,SSE,Haze,23,12,50,1019,-999,1.8,12
5/10/2013 15:00,3.000000024,140,229,SE,Haze,24,12,47,1019,-999,2,12
5/10/2013 16:00,2.000000016,150,242,SSE,Haze,24,12,47,1020,-999,2,12
5/10/2013 17:00,2.000000016,140,255,SE,Haze,22,12,53,1020,-999,1.8,12
5/10/2013 18:00,1.000000008,0,316,Variable,Haze,19,13,68,1020,-999,1.8,13
5/10/2013 19:00,1.000000008,90,342,East,Haze,18,14,77,1021,-999,1.8,14
5/10/2013 20:00,1.000000008,70,337,ENE,Mist,16,13,82,1022,-999,1.8,13
5/10/2013 21:00,0,0,308,North,Mist,16,13,82,1022,-999,1.8,13
5/10/2013 22:00,1.000000008,40,324,NE,Mist,15,13,88,1023,-999,1.7,13
5/10/2013 23:00,1.000000008,60,353,ENE,Mist,14,12,88,1023,-999,1.7,12
6/10/2013 0:00,1.000000008,80,365,East,Mist,15,12,82,1023,-999,1.7,12
6/10/2013 1:00,1.000000008,0,320,Variable,Mist,14,12,88,1023,-999,1.7,12
6/10/2013 2:00,0,0,278,North,Mist,14,12,88,1023,-999,1.7,12
6/10/2013 3:00,0,0,244,North,Mist,13,12,94,1023,-999,1.5,12
6/10/2013 4:00,1.000000008,0,251,Variable,Mist,13,11,88,1023,-999,1.3,11
6/10/2013 5:00,1.000000008,80,252,East,Mist,12,11,94,1023,-999,1.2,11
6/10/2013 6:00,1.000000008,0,197,Variable,Mist,12,10,88,1023,-999,1.1,10
6/10/2013 7:00,1.000000008,90,260,East,Mist,14,12,88,1024,-999,1.1,12
6/10/2013 8:00,1.000000008,0,229,Variable,Fog,14,12,88,1024,-999,0.2,12
6/10/2013 9:00,1.000000008,0,143,Variable,Light Drizzle,15,13,88,1024,-999,0.2,13
6/10/2013 10:00,1.000000008,0,147,Variable,Fog,15,14,94,1024,-999,0.4,14
6/10/2013 11:00,1.000000008,0,152,Variable,Fog,16,14,88,1024,-999,0.7,14
6/10/2013 12:00,2.000000016,300,171,WNW,Mist,17,14,82,1024,-999,1.1,14
6/10/2013 13:00,2.000000016,0,168,Variable,Haze,20,14,68,1022,-999,1.7,14
6/10/2013 14:00,1.000000008,0,183,Variable,Haze,20,14,68,1022,-999,2,14
6/10/2013 15:00,1.000000008,0,179,Variable,Haze,21,14,64,1021,-999,2.5,14
6/10/2013 16:00,1.000000008,0,185,Variable,Haze,21,14,64,1020,-999,2.5,14
6/10/2013 17:00,0,0,177,North,Haze,21,14,64,1020,-999,2.5,14
6/10/2013 18:00,4.000000032,350,188,North,Mist,19,14,73,1020,-999,2.7,14
6/10/2013 19:00,1.000000008,0,206,Variable,Mist,17,13,77,1020,-999,3,13
6/10/2013 20:00,0,0,211,North,Mist,16,14,88,1021,-999,3,14
6/10/2013 21:00,1.000000008,20,205,NNE,Mist,16,13,82,1021,-999,2.8,13
6/10/2013 22:00,1.000000008,0,210,Variable,Mist,15,13,88,1021,-999,2.5,13
6/10/2013 23:00,1.000000008,10,201,North,Mist,15,13,88,1021,-999,2.2,13
7/10/2013 0:00,2.000000016,360,196,North,Mist,14,12,88,1021,-999,2,12
7/10/2013 1:00,1.000000008,60,192,ENE,Mist,14,12,88,1021,-999,1.8,12
7/10/2013 2:00,1.000000008,0,187,Variable,Mist,14,12,88,1021,-999,1.8,12
7/10/2013 3:00,1.000000008,20,185,NNE,Mist,13,11,88,1020,-999,1.8,11
7/10/2013 4:00,2.000000016,10,173,North,Mist,13,11,88,1021,-999,1.8,11
7/10/2013 5:00,3.000000024,350,166,North,Mist,13,12,94,1021,-999,2,12
7/10/2013 6:00,3.000000024,350,161,North,Mist,13,12,94,1022,-999,2,12
7/10/2013 7:00,3.000000024,10,160,North,Mist,14,12,88,1022,-999,2,12
7/10/2013 8:00,5.00000004,340,113,NNW,Mist,16,14,88,1023,-999,2.5,14
7/10/2013 9:00,3.000000024,360,66,North,Mist,19,13,68,1023,-999,3.5,13
7/10/2013 10:00,5.00000004,360,38,North,Unknown,22,9,43,1024,-999,8,9
7/10/2013 11:00,5.00000004,40,41,NE,Clear,23,3,27,1024,-999,-9999,3
7/10/2013 12:00,4.000000032,30,33,NNE,Clear,25,1,21,1023,-999,-9999,1
7/10/2013 13:00,4.000000032,30,23,NNE,Clear,25,-1,18,1022,-999,-9999,-1
7/10/2013 14:00,4.000000032,40,15,NE,Clear,25,-1,18,1022,-999,-9999,-1
7/10/2013 15:00,4.000000032,50,15,NE,Clear,25,-1,18,1022,-999,-9999,-1
7/10/2013 16:00,3.000000024,40,17,NE,Clear,24,-1,19,1022,-999,-9999,-1
7/10/2013 17:00,1.000000008,0,24,Variable,Clear,23,2,25,1022,-999,-9999,2
7/10/2013 18:00,0,0,42,North,Clear,19,5,40,1022,-999,-9999,5
7/10/2013 19:00,2.000000016,360,50,North,Clear,17,9,59,1022,-999,-9999,9
7/10/2013 20:00,2.000000016,10,55,North,Clear,17,7,52,1022,-999,-9999,7
7/10/2013 21:00,3.000000024,150,86,SSE,Clear,18,10,59,1023,-999,-9999,10
7/10/2013 22:00,1.000000008,0,77,Variable,Unknown,16,11,72,1024,-999,8,11
7/10/2013 23:00,1.000000008,0,76,Variable,Unknown,16,12,77,1025,-999,8,12
8/10/2013 0:00,1.000000008,0,81,Variable,Unknown,16,12,77,1024,-999,7,12
8/10/2013 1:00,1.000000008,40,66,NE,Unknown,16,12,77,1024,-999,7,12
8/10/2013 2:00,1.000000008,0,32,Variable,Unknown,16,12,77,1024,-999,7,12
8/10/2013 3:00,1.000000008,0,38,Variable,Unknown,15,12,82,1023,-999,7,12
8/10/2013 4:00,2.000000016,20,38,NNE,Clear,14,8,67,1023,-999,-9999,8
8/10/2013 5:00,1.000000008,0,55,Variable,Clear,14,7,63,1023,-999,-9999,7
8/10/2013 6:00,1.000000008,20,49,NNE,Clear,13,7,67,1023,-999,-9999,7
8/10/2013 7:00,0,0,43,North,Clear,13,8,72,1023,-999,-9999,8
8/10/2013 8:00,1.000000008,0,42,Variable,Clear,15,8,63,1023,-999,-9999,8
8/10/2013 9:00,1.000000008,0,56,Variable,Clear,17,8,55,1023,-999,-9999,8
8/10/2013 10:00,2.000000016,280,67,West,Clear,18,7,49,1023,-999,-9999,7
8/10/2013 11:00,3.000000024,200,65,SSW,Clear,20,8,46,1022,-999,-9999,8
8/10/2013 12:00,3.000000024,190,60,South,Clear,20,7,43,1020,-999,-9999,7
8/10/2013 13:00,4.000000032,190,,South,Clear,21,6,38,1019,-999,-9999,6
8/10/2013 14:00,3.000000024,200,,SSW,Clear,22,6,35,1017,-999,-9999,6
8/10/2013 15:00,4.000000032,180,,South,Clear,22,6,35,1017,-999,-9999,6
8/10/2013 16:00,3.000000024,190,,South,Clear,21,6,38,1016,-999,-9999,6
8/10/2013 17:00,2.000000016,190,69,South,Clear,20,7,43,1015,-999,-9999,7
8/10/2013 18:00,1.000000008,140,73,SE,Clear,18,8,52,1015,-999,-9999,8
8/10/2013 19:00,1.000000008,170,95,South,Clear,16,9,63,1015,-999,-9999,9
8/10/2013 20:00,1.000000008,0,86,Variable,Clear,15,9,67,1015,-999,-9999,9
8/10/2013 21:00,1.000000008,110,74,ESE,Clear,14,9,72,1015,-999,-9999,9
8/10/2013 22:00,2.000000016,130,84,SE,Clear,14,9,72,1015,-999,-9999,9
8/10/2013 23:00,3.000000024,170,97,South,Clear,14,9,72,1014,-999,-9999,9
9/10/2013 0:00,3.000000024,160,98,SSE,Clear,15,9,67,1014,-999,-9999,9
9/10/2013 1:00,1.000000008,0,96,Variable,Clear,13,9,77,1013,-999,-9999,9
9/10/2013 2:00,2.000000016,110,92,ESE,Clear,13,9,77,1013,-999,-9999,9
9/10/2013 3:00,2.000000016,90,92,East,Unknown,13,9,77,1012,-999,8,9
9/10/2013 4:00,2.000000016,40,92,NE,Unknown,11,8,82,1012,-999,6,8
9/10/2013 5:00,1.000000008,0,99,Variable,Mist,11,8,82,1012,-999,5,8
9/10/2013 6:00,1.000000008,10,102,North,Mist,10,8,87,1012,-999,5,8
9/10/2013 7:00,1.000000008,20,113,NNE,Mist,12,10,88,1013,-999,-9999,10
9/10/2013 8:00,1.000000008,0,110,Variable,Mist,13,10,82,1013,-999,-9999,10
9/10/2013 9:00,1.000000008,60,114,ENE,Mist,14,10,77,1013,-999,3.5,10
9/10/2013 10:00,2.000000016,70,112,ENE,Mist,14,10,77,1013,-999,3.5,10
9/10/2013 11:00,1.000000008,0,108,Variable,Mist,15,10,72,1012,-999,4,10
9/10/2013 12:00,2.000000016,70,125,ENE,Haze,16,11,72,1011,-999,4,11
9/10/2013 13:00,2.000000016,50,148,NE,Haze,18,11,64,1010,-999,4,11
9/10/2013 14:00,1.000000008,0,176,Variable,Haze,19,11,60,1009,-999,3.5,11
9/10/2013 15:00,1.000000008,0,177,Variable,Haze,20,11,56,1009,-999,3.5,11
9/10/2013 16:00,3.000000024,20,182,NNE,Haze,20,11,56,1009,-999,3.5,11
9/10/2013 17:00,3.000000024,360,181,North,Haze,18,11,64,1009,-999,-9999,11
9/10/2013 18:00,3.000000024,360,197,North,Haze,15,11,77,1009,-999,3,11
9/10/2013 19:00,2.000000016,20,197,NNE,Haze,15,11,77,1009,-999,2.8,11
9/10/2013 20:00,2.000000016,10,226,North,Mist,15,11,77,1009,-999,2.6,11
9/10/2013 21:00,1.000000008,0,224,Variable,Mist,15,11,77,1009,-999,2.5,11
9/10/2013 22:00,1.000000008,0,247,Variable,Mist,14,11,82,1008,-999,2.5,11
9/10/2013 23:00,1.000000008,0,208,Variable,Mist,14,11,82,1008,-999,2.5,11
10/10/2013 0:00,1.000000008,0,194,Variable,Mist,15,11,77,1009,-999,2.5,11
10/10/2013 1:00,3.000000024,100,203,East,Mist,15,12,82,1007,-999,2.5,12
10/10/2013 2:00,1.000000008,0,203,Variable,Mist,14,11,82,1006,-999,2.5,11
10/10/2013 3:00,3.000000024,290,203,WNW,Mist,15,12,82,1007,-999,2.5,12
10/10/2013 4:00,1.000000008,0,200,Variable,Mist,14,11,82,1006,-999,2.3,11
10/10/2013 5:00,1.000000008,350,193,North,Mist,13,11,88,1007,-999,2.2,11
10/10/2013 6:00,2.000000016,320,205,NW,Mist,14,11,82,1007,-999,2,11
10/10/2013 7:00,1.000000008,0,207,Variable,Mist,14,11,82,1007,-999,1.5,11
10/10/2013 8:00,3.000000024,340,146,NNW,Mist,16,13,82,1008,-999,1.7,13
10/10/2013 9:00,2.000000016,60,21,ENE,Haze,18,13,73,1009,-999,2.5,13
10/10/2013 10:00,11.00000009,300,14,WNW,Clear,20,1,28,1010,-999,-9999,1
10/10/2013 11:00,9.000000072,330,16,NNW,Clear,21,0,25,1010,-999,-9999,0
10/10/2013 12:00,12.0000001,330,19,NNW,Clear,23,-1,20,1011,-999,-9999,-1
10/10/2013 13:00,11.00000009,300,16,WNW,Clear,21,0,25,1011,-999,-9999,0
10/10/2013 14:00,13.0000001,290,11,WNW,Clear,20,0,26,1012,-999,-9999,0
10/10/2013 15:00,10.00000008,310,12,NW,Clear,21,0,25,1012,-999,-9999,0
10/10/2013 16:00,11.00000009,330,9,NNW,Clear,21,-2,21,1013,-999,-9999,-2
10/10/2013 17:00,7.000000056,320,11,NW,Clear,20,-1,24,1013,-999,-9999,-1
10/10/2013 18:00,7.000000056,340,9,NNW,Clear,18,-2,26,1014,-999,-9999,-2
10/10/2013 19:00,6.000000048,340,10,NNW,Clear,17,-3,26,1015,-999,-9999,-3
10/10/2013 20:00,4.000000032,360,10,North,Clear,14,-2,33,1015,-999,-9999,-2
10/10/2013 21:00,6.000000048,340,8,NNW,Clear,16,-4,25,1015,-999,-9999,-4
10/10/2013 22:00,4.000000032,350,16,North,Clear,13,-3,33,1015,-999,-9999,-3
10/10/2013 23:00,3.000000024,350,22,North,Clear,13,-3,33,1015,-999,-9999,-3
11/10/2013 0:00,2.000000016,0,23,Variable,Clear,12,-1,41,1015,-999,-9999,-1
11/10/2013 1:00,1.000000008,0,27,Variable,Clear,10,2,58,1015,-999,-9999,2
11/10/2013 2:00,1.000000008,160,19,SSE,Clear,9,2,62,1015,-999,-9999,2
11/10/2013 3:00,1.000000008,0,19,Variable,Clear,9,3,66,1015,-999,-9999,3
11/10/2013 4:00,2.000000016,30,21,NNE,Clear,7,2,71,1015,5.7,-9999,2
11/10/2013 5:00,2.000000016,360,25,North,Clear,8,2,66,1015,6.9,-9999,2
11/10/2013 6:00,1.000000008,0,30,Variable,Clear,8,3,71,1016,-999,-9999,3
11/10/2013 7:00,1.000000008,80,46,East,Clear,7,4,81,1016,-999,-9999,4
11/10/2013 8:00,1.000000008,0,51,Variable,Clear,13,4,54,1017,-999,-9999,4
11/10/2013 9:00,2.000000016,90,45,East,Clear,16,3,42,1017,-999,-9999,3
11/10/2013 10:00,1.000000008,0,39,Variable,Clear,18,3,37,1017,-999,-9999,3
11/10/2013 11:00,5.00000004,220,28,SW,Clear,20,-2,23,1016,-999,-9999,-2
11/10/2013 12:00,5.00000004,200,38,SSW,Clear,22,-1,22,1015,-999,-9999,-1
11/10/2013 13:00,3.000000024,0,47,Variable,Clear,22,-1,22,1014,-999,-9999,-1
11/10/2013 14:00,2.000000016,210,46,SSW,Clear,22,0,23,1013,-999,-9999,0
11/10/2013 15:00,3.000000024,180,50,South,Clear,23,0,22,1013,-999,-9999,0
11/10/2013 16:00,3.000000024,170,64,South,Clear,22,0,23,1013,-999,-9999,0
11/10/2013 17:00,1.000000008,0,78,Variable,Clear,20,3,33,1013,-999,-9999,3
11/10/2013 18:00,2.000000016,90,111,East,Clear,18,7,49,1014,-999,-9999,7
11/10/2013 19:00,2.000000016,80,102,East,Clear,16,7,55,1014,-999,-9999,7
11/10/2013 20:00,2.000000016,80,149,East,Clear,15,7,59,1015,-999,-9999,7
11/10/2013 21:00,1.000000008,0,158,Variable,Clear,14,6,59,1016,-999,-9999,6
11/10/2013 22:00,1.000000008,0,107,Variable,Clear,12,7,72,1016,-999,-9999,7
11/10/2013 23:00,1.000000008,20,100,NNE,Clear,11,7,76,1017,-999,-9999,7
12/10/2013 0:00,1.000000008,20,92,NNE,Clear,11,7,76,1017,-999,-9999,7
12/10/2013 1:00,1.000000008,360,72,North,Clear,10,7,82,1017,-999,-9999,7
12/10/2013 2:00,2.000000016,10,66,North,Clear,10,6,76,1017,-999,-9999,6
12/10/2013 3:00,3.000000024,350,57,North,Unknown,8,5,81,1017,6.1,8,5
12/10/2013 4:00,2.000000016,360,63,North,Unknown,9,5,76,1018,-999,8,5
12/10/2013 5:00,2.000000016,360,75,North,Unknown,8,4,76,1018,6.9,8,4
12/10/2013 6:00,3.000000024,360,70,North,Clear,8,5,81,1019,6.1,-9999,5
12/10/2013 7:00,3.000000024,360,63,North,Clear,9,5,76,1019,-999,-9999,5
12/10/2013 8:00,2.000000016,360,57,North,Clear,14,7,63,1020,-999,-9999,7
12/10/2013 9:00,4.000000032,340,49,NNW,Clear,15,6,55,1020,-999,-9999,6
12/10/2013 10:00,3.000000024,340,51,NNW,Clear,18,5,42,1020,-999,-9999,5
12/10/2013 11:00,3.000000024,360,52,North,Clear,21,3,31,1020,-999,-9999,3
12/10/2013 12:00,3.000000024,40,47,NE,Clear,21,3,31,1019,-999,-9999,3
12/10/2013 13:00,2.000000016,40,50,NE,Clear,22,3,29,1018,-999,-9999,3
12/10/2013 14:00,2.000000016,90,64,East,Clear,22,4,31,1017,-999,-9999,4
12/10/2013 15:00,2.000000016,80,82,East,Clear,22,4,31,1016,-999,-9999,4
12/10/2013 16:00,1.000000008,0,84,Variable,Clear,21,3,31,1016,-999,-9999,3
12/10/2013 17:00,1.000000008,0,59,Variable,Clear,20,5,37,1016,-999,-9999,5
12/10/2013 18:00,1.000000008,0,65,Variable,Clear,18,8,52,1016,-999,-9999,8
12/10/2013 19:00,1.000000008,0,81,Variable,Clear,18,9,56,1017,-999,-9999,9
12/10/2013 20:00,1.000000008,0,106,Variable,Clear,17,10,63,1017,-999,-9999,10
12/10/2013 21:00,1.000000008,0,98,Variable,Clear,17,9,59,1018,-999,-9999,9
12/10/2013 22:00,1.000000008,70,92,ENE,Clear,17,10,63,1018,-999,-9999,10
12/10/2013 23:00,2.000000016,360,96,North,Light Rain,16,10,68,1018,-999,10,10
13/10/2013 0:00,2.000000016,350,91,North,Light Rain,16,10,68,1018,-999,10,10
13/10/2013 1:00,3.000000024,30,48,NNE,Clear,18,3,37,1018,-999,-9999,3
13/10/2013 2:00,1.000000008,0,51,Variable,Clear,17,5,45,1018,-999,-9999,5
13/10/2013 3:00,4.000000032,120,38,ESE,Clear,16,6,52,1018,-999,-9999,6
13/10/2013 4:00,2.000000016,30,33,NNE,Clear,16,6,52,1018,-999,-9999,6
13/10/2013 5:00,2.000000016,20,34,NNE,Clear,15,7,59,1018,-999,-9999,7
13/10/2013 6:00,2.000000016,20,39,NNE,Overcast,15,7,59,1018,-999,10,7
13/10/2013 7:00,2.000000016,50,45,NE,Overcast,15,7,59,1019,-999,10,7
13/10/2013 8:00,1.000000008,60,46,ENE,Overcast,15,8,63,1019,-999,10,8
13/10/2013 9:00,2.000000016,40,44,NE,Overcast,15,8,63,1020,-999,10,8
13/10/2013 10:00,1.000000008,70,46,ENE,Overcast,15,8,63,1020,-999,10,8
13/10/2013 11:00,1.000000008,0,57,Variable,Overcast,15,8,63,1020,-999,10,8
13/10/2013 12:00,1.000000008,0,57,Variable,Overcast,15,9,67,1019,-999,10,9
13/10/2013 13:00,1.000000008,100,61,East,Overcast,15,9,67,1018,-999,10,9
13/10/2013 14:00,1.000000008,0,63,Variable,Overcast,15,9,67,1018,-999,10,9
13/10/2013 15:00,2.000000016,170,76,South,Overcast,15,9,67,1018,-999,8,9
13/10/2013 16:00,2.000000016,150,73,SSE,Overcast,15,10,72,1018,-999,8,10
13/10/2013 17:00,1.000000008,140,70,SE,Overcast,15,10,72,1017,-999,8,10
13/10/2013 18:00,1.000000008,0,55,Variable,Overcast,15,10,72,1018,-999,6,10
13/10/2013 19:00,2.000000016,150,59,SSE,Overcast,14,10,77,1018,-999,6,10
13/10/2013 20:00,1.000000008,0,59,Variable,Overcast,14,10,77,1019,-999,6,10
13/10/2013 21:00,1.000000008,0,72,Variable,Overcast,14,10,77,1019,-999,6,10
13/10/2013 22:00,1.000000008,150,73,SSE,Unknown,14,10,77,1019,-999,6,10
13/10/2013 23:00,1.000000008,0,86,Variable,Light Rain,14,10,77,1020,-999,5,10
14/10/2013 0:00,1.000000008,0,77,Variable,Mist,14,11,82,1019,-999,5,11
14/10/2013 1:00,2.000000016,360,86,North,Light Rain,13,10,82,1019,-999,6,10
14/10/2013 2:00,2.000000016,20,100,NNE,Light Rain,14,10,77,1020,-999,6,10
14/10/2013 3:00,2.000000016,350,103,North,Unknown,13,10,82,1020,-999,8,10
14/10/2013 4:00,1.000000008,350,88,North,Clear,13,10,82,1020,-999,-9999,10
14/10/2013 5:00,1.000000008,290,80,WNW,Clear,14,10,77,1021,-999,-9999,10
14/10/2013 6:00,2.000000016,350,48,North,Clear,13,10,82,1022,-999,-9999,10
14/10/2013 7:00,4.000000032,20,39,NNE,Clear,15,6,55,1023,-999,-9999,6
14/10/2013 8:00,7.000000056,20,20,NNE,Clear,15,1,39,1024,-999,-9999,1
14/10/2013 9:00,6.000000048,30,17,NNE,Clear,15,-2,31,1026,-999,-9999,-2
14/10/2013 10:00,7.000000056,40,14,NE,Clear,15,-5,25,1026,-999,-9999,-5
14/10/2013 11:00,8.000000064,20,13,NNE,Clear,14,-6,25,1027,-999,-9999,-6
14/10/2013 12:00,7.000000056,30,12,NNE,Clear,14,-5,27,1028,-999,-9999,-5
14/10/2013 13:00,5.00000004,30,16,NNE,Clear,14,-5,27,1027,-999,-9999,-5
14/10/2013 14:00,7.000000056,40,11,NE,Clear,14,-6,25,1028,-999,-9999,-6
14/10/2013 15:00,6.000000048,40,8,NE,Clear,14,-7,23,1028,-999,-9999,-7
14/10/2013 16:00,4.000000032,50,8,NE,Clear,14,-7,23,1028,-999,-9999,-7
14/10/2013 17:00,2.000000016,50,16,NE,Clear,13,-7,25,1029,-999,-9999,-7
14/10/2013 18:00,1.000000008,0,28,Variable,Clear,11,-7,28,1029,-999,-9999,-7
14/10/2013 19:00,1.000000008,0,22,Variable,Clear,8,-3,46,1030,-999,-9999,-3
14/10/2013 20:00,1.000000008,0,27,Variable,Clear,6,-1,61,1031,-999,-9999,-1
14/10/2013 21:00,1.000000008,0,28,Variable,Clear,5,-1,65,1032,-999,-9999,-1
14/10/2013 22:00,2.000000016,360,21,North,Clear,6,-5,46,1033,4.5,-9999,-5
14/10/2013 23:00,2.000000016,360,26,North,Clear,5,-3,57,1033,3.4,-9999,-3
15/10/2013 0:00,3.000000024,360,25,North,Clear,5,-5,49,1033,2.5,-9999,-5
15/10/2013 1:00,3.000000024,340,5,NNW,Clear,4,-6,49,1033,1.3,-9999,-6
15/10/2013 2:00,1.000000008,0,7,Variable,Clear,3,-3,65,1033,-999,-9999,-3
15/10/2013 3:00,2.000000016,10,10,North,Clear,3,-2,70,1033,1,-9999,-2
15/10/2013 4:00,2.000000016,10,9,North,Clear,1,-4,70,1033,-1.3,-9999,-4
15/10/2013 5:00,2.000000016,320,8,NW,Clear,5,-7,42,1033,3.4,-9999,-7
15/10/2013 6:00,1.000000008,0,13,Variable,Clear,2,-5,60,1033,-999,-9999,-5
15/10/2013 7:00,2.000000016,10,18,North,Clear,2,-3,70,1033,-0.1,-9999,-3
15/10/2013 8:00,2.000000016,360,13,North,Clear,9,-3,43,1034,-999,-9999,-3
15/10/2013 9:00,2.000000016,30,17,NNE,Clear,11,-9,24,1034,-999,-9999,-9
15/10/2013 10:00,2.000000016,60,9,ENE,Clear,12,-10,21,1033,-999,-9999,-10
15/10/2013 11:00,2.000000016,10,9,North,Clear,14,-12,16,1032,-999,-9999,-12
15/10/2013 12:00,2.000000016,260,12,West,Clear,14,-12,16,1031,-999,-9999,-12
15/10/2013 13:00,1.000000008,0,8,Variable,Clear,16,-12,14,1029,-999,-9999,-12
15/10/2013 14:00,2.000000016,0,15,Variable,Clear,17,-12,13,1028,-999,-9999,-12
15/10/2013 15:00,2.000000016,100,17,East,Clear,17,-12,13,1027,-999,-9999,-12
15/10/2013 16:00,2.000000016,0,18,Variable,Clear,17,-14,11,1027,-999,-9999,-14
15/10/2013 17:00,4.000000032,190,28,South,Clear,15,-11,16,1027,-999,-9999,-11
15/10/2013 18:00,3.000000024,200,29,SSW,Clear,14,-8,21,1027,-999,-9999,-8
15/10/2013 19:00,3.000000024,180,49,South,Clear,12,-6,28,1027,-999,-9999,-6
15/10/2013 20:00,2.000000016,180,54,South,Clear,11,-5,33,1027,-999,-9999,-5
15/10/2013 21:00,2.000000016,190,59,South,Clear,9,-3,43,1027,-999,-9999,-3
15/10/2013 22:00,1.000000008,0,60,Variable,Clear,6,-1,61,1027,-999,-9999,-1
15/10/2013 23:00,1.000000008,0,67,Variable,Clear,5,0,70,1027,-999,-9999,0
16/10/2013 0:00,1.000000008,0,59,Variable,Clear,4,-1,70,1027,-999,-9999,-1
16/10/2013 1:00,2.000000016,10,71,North,Unknown,3,0,81,1027,1,8,0
16/10/2013 2:00,1.000000008,20,69,NNE,Unknown,4,0,75,1027,-999,8,0
16/10/2013 3:00,1.000000008,330,64,NNW,Clear,3,0,81,1027,-999,-9999,0
16/10/2013 4:00,3.000000024,340,38,NNW,Clear,2,-2,75,1027,-1.1,-9999,-2
16/10/2013 5:00,3.000000024,340,41,NNW,Clear,3,-3,65,1027,0.1,-9999,-3
16/10/2013 6:00,4.000000032,340,51,NNW,Clear,3,-3,65,1027,-0.6,-9999,-3
16/10/2013 7:00,3.000000024,360,72,North,Clear,3,-2,70,1027,0.1,-9999,-2
16/10/2013 8:00,3.000000024,360,50,North,Clear,8,0,57,1027,6.1,-9999,0
16/10/2013 9:00,3.000000024,330,42,NNW,Clear,12,-3,35,1027,-999,-9999,-3
16/10/2013 10:00,3.000000024,310,46,NW,Clear,14,-5,27,1027,-999,-9999,-5
16/10/2013 11:00,2.000000016,300,43,WNW,Clear,16,-7,20,1026,-999,-9999,-7
16/10/2013 12:00,1.000000008,0,40,Variable,Clear,19,-6,18,1025,-999,-9999,-6
16/10/2013 13:00,3.000000024,0,29,Variable,Clear,20,-9,13,1024,-999,-9999,-9
16/10/2013 14:00,1.000000008,0,34,Variable,Clear,21,-10,12,1023,-999,-9999,-10
16/10/2013 15:00,2.000000016,190,30,South,Clear,21,-9,13,1023,-999,-9999,-9
16/10/2013 16:00,2.000000016,210,26,SSW,Clear,20,-9,13,1022,-999,-9999,-9
16/10/2013 17:00,3.000000024,190,38,South,Clear,19,-8,15,1023,-999,-9999,-8
16/10/2013 18:00,2.000000016,150,70,SSE,Clear,15,-4,27,1023,-999,-9999,-4
16/10/2013 19:00,1.000000008,160,97,SSE,Clear,11,0,47,1024,-999,-9999,0
16/10/2013 20:00,2.000000016,160,107,SSE,Clear,10,2,58,1024,-999,-9999,2
16/10/2013 21:00,2.000000016,160,107,SSE,Clear,9,3,66,1024,-999,-9999,3
16/10/2013 22:00,2.000000016,160,139,SSE,Clear,11,2,54,1025,-999,-9999,2
16/10/2013 23:00,1.000000008,70,174,ENE,Unknown,8,2,66,1025,-999,8,2
17/10/2013 0:00,1.000000008,0,181,Variable,Unknown,8,3,71,1025,-999,6,3
17/10/2013 1:00,1.000000008,60,179,ENE,Unknown,7,2,71,1025,-999,6,2
17/10/2013 2:00,1.000000008,0,169,Variable,Unknown,6,2,76,1026,-999,6,2
17/10/2013 3:00,1.000000008,0,172,Variable,Unknown,6,2,76,1026,-999,6,2
17/10/2013 4:00,1.000000008,10,163,North,Unknown,5,1,76,1026,-999,7,1
17/10/2013 5:00,1.000000008,0,161,Variable,Unknown,5,2,81,1026,-999,7,2
17/10/2013 6:00,1.000000008,80,142,East,Unknown,4,2,87,1027,-999,7,2
17/10/2013 7:00,1.000000008,90,98,East,Unknown,4,2,87,1027,-999,6,2
17/10/2013 8:00,1.000000008,0,113,Variable,Mist,7,4,81,1028,-999,4,4
17/10/2013 9:00,1.000000008,0,129,Variable,Haze,10,4,66,1028,-999,5,4
17/10/2013 10:00,2.000000016,110,159,ESE,Haze,12,3,54,1028,-999,3,3
17/10/2013 11:00,2.000000016,140,207,SE,Haze,14,3,48,1028,-999,3,3
17/10/2013 12:00,3.000000024,140,178,SE,Haze,16,3,42,1027,-999,3,3
17/10/2013 13:00,4.000000032,150,148,SSE,Haze,17,1,34,1026,-999,-9999,1
17/10/2013 14:00,4.000000032,150,131,SSE,Haze,18,0,30,1025,-999,4,0
17/10/2013 15:00,5.00000004,170,95,South,Haze,18,-2,26,1025,-999,5,-2
17/10/2013 16:00,4.000000032,160,144,SSE,Haze,18,-1,28,1024,-999,4.5,-1
17/10/2013 17:00,2.000000016,160,159,SSE,Haze,16,0,34,1024,-999,4,0
17/10/2013 18:00,2.000000016,150,170,SSE,Haze,15,2,42,1025,-999,5,2
17/10/2013 19:00,2.000000016,170,175,South,Haze,11,4,62,1025,-999,5,4
17/10/2013 20:00,1.000000008,90,189,East,Haze,10,5,71,1025,-999,4,5
17/10/2013 21:00,1.000000008,0,206,Variable,Haze,9,4,71,1025,-999,4,4
17/10/2013 22:00,1.000000008,60,216,ENE,Haze,8,4,76,1026,-999,4,4
17/10/2013 23:00,1.000000008,90,224,East,Mist,8,4,76,1026,-999,4,4
18/10/2013 0:00,1.000000008,80,231,East,Mist,7,3,76,1026,-999,3.5,3
18/10/2013 1:00,1.000000008,70,233,ENE,Mist,7,3,76,1026,-999,3.5,3
18/10/2013 2:00,2.000000016,80,262,East,Mist,7,3,76,1026,5.7,3,3
18/10/2013 3:00,1.000000008,50,282,NE,Mist,7,3,76,1025,-999,3,3
18/10/2013 4:00,0,0,259,North,Mist,6,3,81,1025,-999,3,3
18/10/2013 5:00,1.000000008,0,244,Variable,Mist,6,3,81,1025,-999,3,3
18/10/2013 6:00,0,0,227,North,Mist,5,2,81,1026,-999,2.8,2
18/10/2013 7:00,0,0,235,North,Mist,5,3,87,1026,-999,2.2,3
18/10/2013 8:00,1.000000008,0,225,Variable,Mist,8,5,81,1027,-999,2,5
18/10/2013 9:00,2.000000016,70,247,ENE,Mist,10,4,66,1027,-999,2.4,4
18/10/2013 10:00,1.000000008,0,226,Variable,Haze,12,4,58,1026,-999,2.8,4
18/10/2013 11:00,1.000000008,0,218,Variable,Haze,14,4,51,1026,-999,3,4
18/10/2013 12:00,2.000000016,110,232,ESE,Haze,15,4,48,1025,-999,3,4
18/10/2013 13:00,2.000000016,110,252,ESE,Haze,17,3,39,1024,-999,3,3
18/10/2013 14:00,3.000000024,130,231,SE,Haze,18,4,40,1023,-999,3,4
18/10/2013 15:00,3.000000024,180,227,South,Haze,18,3,37,1023,-999,3,3
18/10/2013 16:00,1.000000008,140,234,SE,Haze,17,4,42,1023,-999,2.7,4
18/10/2013 17:00,1.000000008,80,234,East,Haze,15,6,55,1023,-999,2.3,6
18/10/2013 18:00,1.000000008,90,251,East,Haze,13,7,67,1023,-999,2.8,7
18/10/2013 19:00,1.000000008,0,271,Variable,Haze,12,6,67,1023,-999,3,6
18/10/2013 20:00,1.000000008,0,302,Variable,Haze,12,7,72,1023,-999,3,7
18/10/2013 21:00,0,0,273,North,Haze,11,7,76,1024,-999,3,7
18/10/2013 22:00,1.000000008,50,277,NE,Haze,11,7,76,1024,-999,3,7
18/10/2013 23:00,1.000000008,0,283,Variable,Haze,12,7,72,1024,-999,2.8,7
19/10/2013 0:00,2.000000016,10,263,North,Light Rain Showers,12,7,72,1024,-999,2.8,7
19/10/2013 1:00,1.000000008,0,268,Variable,Haze,12,7,72,1024,-999,3,7
19/10/2013 2:00,2.000000016,350,273,North,Haze,12,7,72,1024,-999,3,7
19/10/2013 3:00,3.000000024,320,260,NW,Haze,11,7,76,1024,-999,3,7
19/10/2013 4:00,2.000000016,10,162,North,Mist,10,6,76,1024,-999,3,6
19/10/2013 5:00,4.000000032,360,68,North,Mist,10,6,76,1024,-999,2.5,6
19/10/2013 6:00,2.000000016,10,32,North,Unknown,10,5,71,1025,-999,6,5
19/10/2013 7:00,3.000000024,360,30,North,Clear,9,2,62,1025,-999,-9999,2
19/10/2013 8:00,6.000000048,320,30,NW,Clear,14,-4,29,1026,-999,-9999,-4
19/10/2013 9:00,7.000000056,320,17,NW,Clear,15,-5,25,1026,-999,-9999,-5
19/10/2013 10:00,6.000000048,320,12,NW,Clear,15,-5,25,1026,-999,-9999,-5
19/10/2013 11:00,8.000000064,330,12,NNW,Clear,16,-7,20,1026,-999,-9999,-7
19/10/2013 12:00,8.000000064,340,20,NNW,Clear,18,-7,18,1025,-999,-9999,-7
19/10/2013 13:00,7.000000056,340,17,NNW,Clear,20,-7,16,1025,-999,-9999,-7
19/10/2013 14:00,6.000000048,300,13,WNW,Clear,19,-7,17,1024,-999,-9999,-7
19/10/2013 15:00,8.000000064,300,12,WNW,Clear,19,-6,18,1024,-999,-9999,-6
19/10/2013 16:00,9.000000072,320,12,NW,Clear,19,-5,19,1024,-999,-9999,-5
19/10/2013 17:00,8.000000064,350,15,North,Clear,17,-4,24,1025,-999,-9999,-4
19/10/2013 18:00,6.000000048,350,13,North,Clear,15,-3,29,1025,-999,-9999,-3
19/10/2013 19:00,9.000000072,330,17,NNW,Clear,15,-4,27,1026,-999,-9999,-4
19/10/2013 20:00,6.000000048,330,15,NNW,Clear,13,-4,31,1026,-999,-9999,-4
19/10/2013 21:00,7.000000056,320,13,NW,Clear,13,-4,31,1027,-999,-9999,-4
19/10/2013 22:00,4.000000032,320,18,NW,Clear,14,-4,29,1027,-999,-9999,-4
19/10/2013 23:00,4.000000032,320,40,NW,Clear,12,-3,35,1026,-999,-9999,-3
20/10/2013 0:00,1.000000008,30,29,NNE,Clear,8,-1,53,1026,-999,-9999,-1
20/10/2013 1:00,3.000000024,350,20,North,Clear,7,-2,53,1026,4.9,-9999,-2
20/10/2013 2:00,1.000000008,0,30,Variable,Clear,7,-1,57,1026,-999,-9999,-1
20/10/2013 3:00,3.000000024,40,21,NE,Clear,9,-2,46,1026,-999,-9999,-2
20/10/2013 4:00,2.000000016,30,18,NNE,Clear,8,-2,50,1026,6.9,-9999,-2
20/10/2013 5:00,4.000000032,40,30,NE,Clear,10,-3,40,1026,-999,-9999,-3
20/10/2013 6:00,3.000000024,40,29,NE,Clear,9,-2,46,1026,-999,-9999,-2
20/10/2013 7:00,3.000000024,350,31,North,Clear,6,-2,57,1027,3.7,-9999,-2
20/10/2013 8:00,2.000000016,10,29,North,Clear,11,-1,44,1027,-999,-9999,-1
20/10/2013 9:00,3.000000024,20,24,NNE,Clear,14,-4,29,1027,-999,-9999,-4
20/10/2013 10:00,2.000000016,10,18,North,Clear,15,-5,25,1027,-999,-9999,-5
20/10/2013 11:00,2.000000016,0,17,Variable,Clear,17,-5,22,1026,-999,-9999,-5
20/10/2013 12:00,2.000000016,0,11,Variable,Clear,18,-5,21,1025,-999,-9999,-5
20/10/2013 13:00,3.000000024,30,14,NNE,Clear,19,-5,19,1024,-999,-9999,-5
20/10/2013 14:00,2.000000016,360,18,North,Clear,20,-6,17,1023,-999,-9999,-6
20/10/2013 15:00,1.000000008,0,16,Variable,Clear,20,-7,16,1023,-999,-9999,-7
20/10/2013 16:00,2.000000016,140,23,SE,Clear,18,-4,22,1022,-999,-9999,-4
20/10/2013 17:00,2.000000016,150,28,SSE,Clear,16,-3,27,1022,-999,-9999,-3
20/10/2013 18:00,1.000000008,150,34,SSE,Clear,13,1,44,1023,-999,-9999,1
20/10/2013 19:00,2.000000016,160,46,SSE,Clear,12,0,44,1023,-999,-9999,0
20/10/2013 20:00,3.000000024,190,46,South,Clear,14,-3,31,1023,-999,-9999,-3
20/10/2013 21:00,4.000000032,200,55,SSW,Clear,14,-4,29,1023,-999,-9999,-4
20/10/2013 22:00,1.000000008,0,57,Variable,Clear,11,-1,44,1023,-999,-9999,-1
20/10/2013 23:00,1.000000008,0,66,Variable,Clear,8,1,62,1023,-999,-9999,1
21/10/2013 0:00,1.000000008,0,70,Variable,Clear,8,2,66,1023,-999,-9999,2
21/10/2013 1:00,1.000000008,0,90,Variable,Clear,7,2,71,1024,-999,-9999,2
21/10/2013 2:00,0,0,113,North,Unknown,5,2,81,1024,-999,8,2
21/10/2013 3:00,0,0,114,North,Unknown,6,2,76,1023,-999,8,2
21/10/2013 4:00,0,0,106,North,Clear,5,2,81,1023,-999,-9999,2
21/10/2013 5:00,1.000000008,10,99,North,Unknown,4,1,81,1023,-999,8,1
21/10/2013 6:00,0,0,97,North,Unknown,5,2,81,1023,-999,8,2
21/10/2013 7:00,1.000000008,0,89,Variable,Unknown,6,2,76,1023,-999,6,2
21/10/2013 8:00,1.000000008,0,82,Variable,Unknown,8,3,71,1024,-999,6,3
21/10/2013 9:00,1.000000008,0,92,Variable,Unknown,10,2,58,1024,-999,8,2
21/10/2013 10:00,1.000000008,0,115,Variable,Unknown,13,2,47,1024,-999,8,2
21/10/2013 11:00,1.000000008,0,128,Variable,Unknown,15,2,42,1024,-999,8,2
21/10/2013 12:00,2.000000016,190,110,South,Unknown,17,0,32,1023,-999,8,0
21/10/2013 13:00,3.000000024,170,99,South,Unknown,18,-1,28,1022,-999,7,-1
21/10/2013 14:00,4.000000032,180,87,South,Unknown,19,-3,23,1021,-999,8,-3
21/10/2013 15:00,4.000000032,180,72,South,Clear,19,-3,23,1021,-999,-9999,-3
21/10/2013 16:00,3.000000024,160,79,SSE,Clear,18,-1,28,1021,-999,-9999,-1
21/10/2013 17:00,1.000000008,120,69,ESE,Unknown,16,0,34,1022,-999,8,0
21/10/2013 18:00,0,0,77,North,Unknown,13,3,51,1022,-999,8,3
21/10/2013 19:00,1.000000008,170,93,South,Unknown,11,4,62,1023,-999,7,4
21/10/2013 20:00,1.000000008,0,122,Variable,Unknown,10,4,66,1023,-999,7,4
21/10/2013 21:00,1.000000008,0,121,Variable,Unknown,9,4,71,1023,-999,6,4
21/10/2013 22:00,1.000000008,70,134,ENE,Unknown,8,3,71,1023,-999,6,3
21/10/2013 23:00,1.000000008,80,146,East,Haze,8,3,71,1024,-999,5,3
22/10/2013 0:00,1.000000008,50,149,NE,Mist,6,2,76,1024,-999,5,2
22/10/2013 1:00,2.000000016,100,143,East,Mist,7,4,81,1024,5.7,5,4
22/10/2013 2:00,1.000000008,0,141,Variable,Mist,6,2,76,1024,-999,4,2
22/10/2013 3:00,1.000000008,0,166,Variable,Mist,6,2,76,1024,-999,4,2
22/10/2013 4:00,1.000000008,80,187,East,Mist,6,2,76,1023,-999,4,2
22/10/2013 5:00,1.000000008,0,193,Variable,Mist,6,2,76,1023,-999,5,2
22/10/2013 6:00,2.000000016,360,184,North,Mist,5,1,76,1023,3.4,4,1
22/10/2013 7:00,1.000000008,0,174,Variable,Mist,5,2,81,1024,-999,3.5,2
22/10/2013 8:00,2.000000016,60,182,ENE,Mist,8,4,76,1024,6.9,3.5,4
22/10/2013 9:00,1.000000008,0,187,Variable,Haze,10,4,66,1025,-999,3.5,4
22/10/2013 10:00,2.000000016,120,184,ESE,Haze,12,5,62,1024,-999,3.5,5
22/10/2013 11:00,3.000000024,110,166,ESE,Haze,14,5,55,1023,-999,3.5,5
22/10/2013 12:00,3.000000024,140,151,SE,Haze,16,5,48,1021,-999,3.5,5
22/10/2013 13:00,5.00000004,160,144,SSE,Haze,17,4,42,1020,-999,3.5,4
22/10/2013 14:00,5.00000004,180,,South,Haze,18,4,40,1019,-999,4.5,4
22/10/2013 15:00,5.00000004,170,,South,Haze,18,4,40,1018,-999,5,4
22/10/2013 16:00,3.000000024,140,148,SE,Haze,17,6,48,1018,-999,4.5,6
22/10/2013 17:00,1.000000008,0,154,Variable,Haze,16,7,55,1018,-999,4,7
22/10/2013 18:00,6.000000048,320,95,NW,Haze,14,6,59,1020,-999,5,6
22/10/2013 19:00,2.000000016,10,95,North,Light Rain Showers,13,7,67,1020,-999,6,7
22/10/2013 20:00,1.000000008,0,125,Variable,Light Rain Showers,11,8,82,1020,-999,5,8
22/10/2013 21:00,1.000000008,80,116,East,Mist,11,7,76,1021,-999,5,7
22/10/2013 22:00,2.000000016,10,95,North,Mist,8,5,81,1021,6.9,5,5
22/10/2013 23:00,4.000000032,20,73,NNE,Unknown,9,5,76,1020,-999,8,5
23/10/2013 0:00,3.000000024,20,58,NNE,Clear,8,4,76,1021,6.1,-9999,4
23/10/2013 1:00,4.000000032,360,51,North,Clear,6,2,76,1021,3.1,-9999,2
23/10/2013 2:00,4.000000032,20,49,NNE,Clear,7,2,71,1022,4.3,-9999,2
23/10/2013 3:00,5.00000004,10,27,North,Clear,7,1,66,1022,3.8,-9999,1
23/10/2013 4:00,5.00000004,10,21,North,Clear,6,0,66,1022,2.6,-9999,0
23/10/2013 5:00,4.000000032,20,21,NNE,Clear,6,-1,61,1022,3.1,-9999,-1
23/10/2013 6:00,3.000000024,20,16,NNE,Clear,5,-2,61,1022,2.5,-9999,-2
23/10/2013 7:00,3.000000024,350,22,North,Clear,3,-3,65,1023,0.1,-9999,-3
23/10/2013 8:00,2.000000016,10,27,North,Clear,7,-1,57,1023,5.7,-9999,-1
23/10/2013 9:00,3.000000024,10,26,North,Clear,9,-4,40,1023,-999,-9999,-4
23/10/2013 10:00,4.000000032,10,26,North,Clear,11,-6,30,1023,-999,-9999,-6
23/10/2013 11:00,7.000000056,320,18,NW,Clear,14,-14,13,1022,-999,-9999,-14
23/10/2013 12:00,12.0000001,320,17,NW,Clear,15,-14,13,1021,-999,-9999,-14
23/10/2013 13:00,11.00000009,320,15,NW,Clear,15,-15,12,1020,-999,-9999,-15
23/10/2013 14:00,8.000000064,320,20,NW,Clear,16,-14,12,1020,-999,-9999,-14
23/10/2013 15:00,8.000000064,330,21,NNW,Clear,16,-16,10,1020,-999,-9999,-16
23/10/2013 16:00,7.000000056,310,24,NW,Clear,16,-16,10,1020,-999,-9999,-16
23/10/2013 17:00,5.00000004,290,27,WNW,Clear,15,-15,12,1020,-999,-9999,-15
23/10/2013 18:00,3.000000024,220,49,SW,Clear,14,-13,14,1021,-999,-9999,-13
23/10/2013 19:00,3.000000024,10,25,North,Clear,9,-10,25,1022,-999,-9999,-10
23/10/2013 20:00,6.000000048,340,18,NNW,Clear,11,-9,24,1024,-999,-9999,-9
23/10/2013 21:00,5.00000004,10,17,North,Clear,9,-9,27,1025,-999,-9999,-9
23/10/2013 22:00,7.000000056,360,12,North,Clear,8,-11,25,1026,4.4,-9999,-11
23/10/2013 23:00,8.000000064,340,11,NNW,Clear,8,-12,23,1027,4.1,-9999,-12
24/10/2013 0:00,7.000000056,340,9,NNW,Clear,8,-12,23,1027,4.4,-9999,-12
24/10/2013 1:00,7.000000056,350,13,North,Clear,7,-11,27,1027,3.1,-9999,-11
24/10/2013 2:00,9.000000072,340,12,NNW,Clear,7,-12,25,1027,2.5,-9999,-12
24/10/2013 3:00,6.000000048,340,13,NNW,Clear,6,-12,27,1027,2.2,-9999,-12
24/10/2013 4:00,3.000000024,340,12,NNW,Clear,5,-12,29,1027,2.5,-9999,-12
24/10/2013 5:00,5.00000004,320,14,NW,Clear,6,-11,29,1027,2.6,-9999,-11
24/10/2013 6:00,1.000000008,0,21,Variable,Clear,3,-10,38,1027,-999,-9999,-10
24/10/2013 7:00,1.000000008,0,25,Variable,Clear,2,-6,56,1028,-999,-9999,-6
24/10/2013 8:00,0,0,18,North,Clear,7,-8,34,1028,-999,-9999,-8
24/10/2013 9:00,2.000000016,0,17,Variable,Clear,8,-10,27,1028,6.9,-9999,-10
24/10/2013 10:00,5.00000004,280,17,West,Clear,12,-8,24,1027,-999,-9999,-8
24/10/2013 11:00,6.000000048,290,17,WNW,Clear,14,-7,23,1027,-999,-9999,-7
24/10/2013 12:00,7.000000056,290,23,WNW,Clear,15,-7,22,1026,-999,-9999,-7
24/10/2013 13:00,6.000000048,290,22,WNW,Clear,16,-8,19,1025,-999,-9999,-8
24/10/2013 14:00,6.000000048,290,22,WNW,Clear,17,-7,19,1025,-999,-9999,-7
24/10/2013 15:00,5.00000004,10,22,North,Clear,17,-5,22,1025,-999,-9999,-5
24/10/2013 16:00,8.000000064,330,25,NNW,Clear,16,-5,23,1025,-999,-9999,-5
24/10/2013 17:00,7.000000056,320,33,NW,Clear,15,-5,25,1025,-999,-9999,-5
24/10/2013 18:00,7.000000056,330,36,NNW,Clear,14,-5,27,1025,-999,-9999,-5
24/10/2013 19:00,5.00000004,340,38,NNW,Clear,13,-5,29,1026,-999,-9999,-5
24/10/2013 20:00,6.000000048,330,38,NNW,Clear,12,-5,30,1027,-999,-9999,-5
24/10/2013 21:00,4.000000032,320,41,NW,Clear,12,-4,33,1027,-999,-9999,-4
24/10/2013 22:00,3.000000024,340,45,NNW,Clear,9,-3,43,1028,-999,-9999,-3
24/10/2013 23:00,4.000000032,330,37,NNW,Clear,11,-4,35,1028,-999,-9999,-4
25/10/2013 0:00,5.00000004,320,42,NW,Clear,11,-4,35,1028,-999,-9999,-4
25/10/2013 1:00,2.000000016,290,40,WNW,Clear,10,-3,40,1028,-999,-9999,-3
25/10/2013 2:00,3.000000024,310,41,NW,Clear,9,-3,43,1028,-999,-9999,-3
25/10/2013 3:00,2.000000016,350,40,North,Clear,6,-2,57,1028,4.5,-9999,-2
25/10/2013 4:00,2.000000016,330,41,NNW,Clear,5,-2,61,1028,3.4,-9999,-2
25/10/2013 5:00,2.000000016,320,36,NW,Clear,5,-2,61,1029,3.4,-9999,-2
25/10/2013 6:00,3.000000024,320,36,NW,Clear,7,-2,53,1029,4.9,-9999,-2
25/10/2013 7:00,4.000000032,320,43,NW,Clear,9,-3,43,1029,-999,-9999,-3
25/10/2013 8:00,5.00000004,320,43,NW,Clear,11,-3,38,1030,-999,-9999,-3
25/10/2013 9:00,5.00000004,320,36,NW,Clear,13,-4,31,1030,-999,-9999,-4
25/10/2013 10:00,6.000000048,300,31,WNW,Clear,14,-4,29,1029,-999,-9999,-4
25/10/2013 11:00,5.00000004,300,26,WNW,Clear,16,-5,23,1028,-999,-9999,-5
25/10/2013 12:00,5.00000004,330,28,NNW,Clear,17,-7,19,1027,-999,-9999,-7
25/10/2013 13:00,4.000000032,340,26,NNW,Clear,18,-6,19,1026,-999,-9999,-6
25/10/2013 14:00,3.000000024,0,25,Variable,Clear,18,-7,18,1025,-999,-9999,-7
25/10/2013 15:00,2.000000016,330,23,NNW,Clear,19,-7,17,1025,-999,-9999,-7
25/10/2013 16:00,2.000000016,310,31,NW,Clear,17,-7,19,1025,-999,-9999,-7
25/10/2013 17:00,2.000000016,200,36,SSW,Clear,17,-6,20,1024,-999,-9999,-6
25/10/2013 18:00,1.000000008,0,100,Variable,Clear,10,-1,47,1025,-999,-9999,-1
25/10/2013 19:00,3.000000024,280,84,West,Clear,15,-6,23,1025,-999,-9999,-6
25/10/2013 20:00,2.000000016,360,73,North,Clear,9,-1,50,1025,-999,-9999,-1
25/10/2013 21:00,2.000000016,320,92,NW,Clear,10,-2,43,1025,-999,-9999,-2
25/10/2013 22:00,1.000000008,0,110,Variable,Clear,7,0,61,1025,-999,-9999,0
25/10/2013 23:00,3.000000024,360,52,North,Clear,4,-2,65,1025,1.3,-9999,-2
26/10/2013 0:00,2.000000016,350,34,North,Clear,5,-1,65,1025,3.4,-9999,-1
26/10/2013 1:00,3.000000024,350,39,North,Clear,4,-3,61,1025,1.3,-9999,-3
26/10/2013 2:00,3.000000024,350,39,North,Clear,4,-3,61,1025,1.3,-9999,-3
26/10/2013 3:00,3.000000024,340,42,NNW,Clear,4,-3,61,1025,1.3,-9999,-3
26/10/2013 4:00,3.000000024,350,36,North,Clear,2,-3,70,1025,-1.1,-9999,-3
26/10/2013 5:00,4.000000032,350,41,North,Clear,2,-3,70,1024,-1.8,-9999,-3
26/10/2013 6:00,3.000000024,340,39,NNW,Clear,2,-3,70,1024,-1.1,-9999,-3
26/10/2013 7:00,4.000000032,360,40,North,Clear,3,-3,65,1025,-0.6,-9999,-3
26/10/2013 8:00,3.000000024,360,38,North,Clear,7,-1,57,1025,4.9,-9999,-1
26/10/2013 9:00,3.000000024,350,38,North,Clear,11,-3,38,1025,-999,-9999,-3
26/10/2013 10:00,3.000000024,360,47,North,Clear,14,-5,27,1024,-999,-9999,-5
26/10/2013 11:00,3.000000024,310,44,NW,Clear,14,-5,27,1024,-999,-9999,-5
26/10/2013 12:00,2.000000016,320,56,NW,Clear,16,-7,20,1023,-999,-9999,-7
26/10/2013 13:00,3.000000024,0,62,Variable,Clear,16,-5,23,1021,-999,-9999,-5
26/10/2013 14:00,3.000000024,220,50,SW,Clear,17,-5,22,1021,-999,-9999,-5
26/10/2013 15:00,4.000000032,190,47,South,Clear,18,-5,21,1020,-999,-9999,-5
26/10/2013 16:00,4.000000032,190,57,South,Clear,17,-6,20,1019,-999,-9999,-6
26/10/2013 17:00,3.000000024,200,71,SSW,Clear,16,-5,23,1019,-999,-9999,-5
26/10/2013 18:00,3.000000024,190,91,South,Clear,14,-5,27,1020,-999,-9999,-5
26/10/2013 19:00,1.000000008,0,129,Variable,Clear,9,1,58,1020,-999,-9999,1
26/10/2013 20:00,1.000000008,150,150,SSE,Clear,9,1,58,1020,-999,-9999,1
26/10/2013 21:00,1.000000008,0,168,Variable,Clear,7,1,66,1020,-999,-9999,1
26/10/2013 22:00,1.000000008,90,188,East,Clear,6,1,70,1020,-999,-9999,1
26/10/2013 23:00,1.000000008,0,215,Variable,Unknown,6,1,70,1019,-999,7,1
27/10/2013 0:00,1.000000008,0,165,Variable,Unknown,6,0,66,1019,-999,7,0
27/10/2013 1:00,1.000000008,20,178,NNE,Unknown,5,1,76,1019,-999,7,1
27/10/2013 2:00,1.000000008,20,199,NNE,Unknown,4,1,81,1019,-999,7,1
27/10/2013 3:00,0,0,196,North,Unknown,4,1,81,1018,-999,7,1
27/10/2013 4:00,1.000000008,0,144,Variable,Unknown,3,0,81,1018,-999,7,0
27/10/2013 5:00,1.000000008,20,107,NNE,Unknown,3,0,81,1019,-999,7,0
27/10/2013 6:00,1.000000008,360,108,North,Unknown,3,0,81,1018,-999,7,0
27/10/2013 7:00,1.000000008,360,113,North,Mist,3,0,81,1019,-999,5,0
27/10/2013 8:00,1.000000008,10,127,North,Mist,4,2,87,1019,-999,4,2
27/10/2013 9:00,0,0,155,North,Mist,8,4,76,1019,-999,4,4
27/10/2013 10:00,2.000000016,80,197,East,Haze,10,1,54,1019,-999,4,1
27/10/2013 11:00,2.000000016,0,222,Variable,Haze,12,0,44,1018,-999,4,0
27/10/2013 12:00,1.000000008,0,245,Variable,Haze,14,1,41,1017,-999,3.5,1
27/10/2013 13:00,1.000000008,0,241,Variable,Haze,15,1,39,1016,-999,3.5,1
27/10/2013 14:00,2.000000016,120,258,ESE,Haze,15,1,39,1016,-999,-9999,1
27/10/2013 15:00,3.000000024,150,243,SSE,Haze,15,1,39,1015,-999,3.5,1
27/10/2013 16:00,2.000000016,150,234,SSE,Haze,15,2,42,1016,-999,-9999,2
27/10/2013 17:00,1.000000008,160,274,SSE,Haze,12,3,54,1016,-999,3,3
27/10/2013 18:00,0,0,295,North,Haze,10,4,66,1016,-999,3.5,4
27/10/2013 19:00,1.000000008,0,310,Variable,Haze,9,4,71,1017,-999,3.5,4
27/10/2013 20:00,1.000000008,70,335,ENE,Mist,8,4,76,1017,-999,3.5,4
27/10/2013 21:00,1.000000008,120,347,ESE,Mist,8,4,76,1017,-999,2.7,4
27/10/2013 22:00,0,0,385,North,Mist,7,4,81,1018,-999,2.5,4
27/10/2013 23:00,1.000000008,50,407,NE,Mist,6,3,81,1017,-999,2.5,3
28/10/2013 0:00,1.000000008,360,402,North,Mist,6,3,81,1018,-999,2.5,3
28/10/2013 1:00,1.000000008,360,348,North,Mist,6,3,81,1018,-999,2.5,3
28/10/2013 2:00,2.000000016,360,318,North,Mist,6,3,81,1018,4.5,3,3
28/10/2013 3:00,2.000000016,340,270,NNW,Mist,5,2,81,1018,3.4,3,2
28/10/2013 4:00,2.000000016,340,273,NNW,Mist,5,2,81,1018,3.4,3,2
28/10/2013 5:00,3.000000024,350,274,North,Mist,5,2,81,1018,2.5,3,2
28/10/2013 6:00,3.000000024,330,273,NNW,Mist,4,1,81,1018,1.3,3,1
28/10/2013 7:00,2.000000016,360,269,North,Mist,5,2,81,1018,3.4,2,2
28/10/2013 8:00,4.000000032,340,282,NNW,Mist,7,3,76,1019,4.3,1.7,3
28/10/2013 9:00,3.000000024,360,279,North,Mist,9,4,71,1019,-999,1.8,4
28/10/2013 10:00,2.000000016,360,275,North,Haze,12,3,54,1020,-999,2,3
28/10/2013 11:00,4.000000032,10,284,North,Haze,14,2,44,1019,-999,2.2,2
28/10/2013 12:00,3.000000024,360,274,North,Haze,15,2,42,1019,-999,2.5,2
28/10/2013 13:00,2.000000016,10,275,North,Haze,16,2,39,1018,-999,2.5,2
28/10/2013 14:00,1.000000008,0,270,Variable,Haze,17,2,37,1018,-999,2.5,2
28/10/2013 15:00,2.000000016,80,292,East,Haze,16,3,42,1018,-999,2.5,3
28/10/2013 16:00,2.000000016,120,321,ESE,Haze,15,4,48,1018,-999,2.3,4
28/10/2013 17:00,2.000000016,110,327,ESE,Haze,14,5,55,1019,-999,2,5
28/10/2013 18:00,2.000000016,100,348,East,Haze,12,6,67,1020,-999,2,6
28/10/2013 19:00,2.000000016,130,393,SE,Haze,13,6,63,1022,-999,2,6
28/10/2013 20:00,3.000000024,120,386,ESE,Haze,12,6,67,1022,-999,2,6
28/10/2013 21:00,2.000000016,360,385,North,Haze,11,6,71,1023,-999,2,6
28/10/2013 22:00,2.000000016,350,359,North,Mist,10,6,76,1024,-999,2,6
28/10/2013 23:00,2.000000016,340,367,NNW,Mist,10,6,76,1024,-999,2,6
29/10/2013 0:00,2.000000016,50,144,NE,Mist,9,5,76,1025,-999,1.8,5
29/10/2013 1:00,1.000000008,0,28,Variable,Mist,8,5,81,1025,-999,1.7,5
29/10/2013 2:00,3.000000024,350,15,North,Mist,6,3,81,1026,3.7,1.8,3
29/10/2013 3:00,3.000000024,360,13,North,Mist,5,3,87,1026,2.5,1.7,3
29/10/2013 4:00,2.000000016,360,16,North,Mist,5,2,81,1026,3.4,2.5,2
29/10/2013 5:00,1.000000008,0,17,Variable,Mist,5,2,81,1027,-999,4.5,2
29/10/2013 6:00,1.000000008,0,20,Variable,Unknown,3,0,81,1027,-999,8,0
29/10/2013 7:00,1.000000008,0,24,Variable,Clear,4,1,81,1028,-999,-9999,1
29/10/2013 8:00,2.000000016,330,21,NNW,Clear,10,-1,47,1029,-999,-9999,-1
29/10/2013 9:00,2.000000016,360,14,North,Clear,12,-1,41,1030,-999,-9999,-1
29/10/2013 10:00,3.000000024,350,9,North,Clear,14,-3,31,1030,-999,-9999,-3
29/10/2013 11:00,3.000000024,340,7,NNW,Clear,15,-4,27,1029,-999,-9999,-4
29/10/2013 12:00,3.000000024,350,10,North,Clear,16,-7,20,1028,-999,-9999,-7
29/10/2013 13:00,3.000000024,350,10,North,Clear,16,-8,19,1028,-999,-9999,-8
29/10/2013 14:00,3.000000024,20,12,NNE,Clear,16,-9,17,1027,-999,-9999,-9
29/10/2013 15:00,2.000000016,20,12,NNE,Clear,17,-10,15,1027,-999,-9999,-10
29/10/2013 16:00,2.000000016,110,17,ESE,Clear,16,-9,17,1026,-999,-9999,-9
29/10/2013 17:00,2.000000016,120,38,ESE,Clear,13,-7,25,1027,-999,-9999,-7
29/10/2013 18:00,2.000000016,170,35,South,Clear,10,-4,37,1027,-999,-9999,-4
29/10/2013 19:00,1.000000008,0,36,Variable,Clear,8,-3,46,1028,-999,-9999,-3
29/10/2013 20:00,2.000000016,180,46,South,Clear,8,-4,43,1028,6.9,-9999,-4
29/10/2013 21:00,2.000000016,190,52,South,Clear,8,-4,43,1029,6.9,-9999,-4
29/10/2013 22:00,1.000000008,70,57,ENE,Clear,4,-2,65,1029,-999,-9999,-2
29/10/2013 23:00,1.000000008,90,64,East,Clear,4,-2,65,1029,-999,-9999,-2
30/10/2013 0:00,1.000000008,0,103,Variable,Clear,4,-1,70,1029,-999,-9999,-1
30/10/2013 1:00,1.000000008,0,123,Variable,Clear,3,-1,75,1029,-999,-9999,-1
30/10/2013 2:00,1.000000008,40,128,NE,Clear,2,-2,75,1029,-999,-9999,-2
30/10/2013 3:00,2.000000016,10,135,North,Clear,2,-2,75,1029,-0.1,-9999,-2
30/10/2013 4:00,3.000000024,10,87,North,Clear,2,-2,75,1029,-1.1,-9999,-2
30/10/2013 5:00,1.000000008,0,46,Variable,Clear,1,-2,81,1029,-999,-9999,-2
30/10/2013 6:00,1.000000008,30,37,NNE,Clear,1,-2,81,1029,-999,-9999,-2
30/10/2013 7:00,1.000000008,0,44,Variable,Clear,1,-2,81,1029,-999,-9999,-2
30/10/2013 8:00,2.000000016,10,37,North,Clear,4,0,75,1030,2.2,-9999,0
30/10/2013 9:00,2.000000016,10,37,North,Clear,7,-1,57,1030,5.7,-9999,-1
30/10/2013 10:00,1.000000008,0,37,Variable,Clear,11,-1,44,1030,-999,-9999,-1
30/10/2013 11:00,1.000000008,0,51,Variable,Clear,11,-2,41,1029,-999,-9999,-2
30/10/2013 12:00,1.000000008,0,70,Variable,Clear,14,-3,31,1028,-999,-9999,-3
30/10/2013 13:00,2.000000016,130,74,SE,Clear,14,-3,31,1027,-999,-9999,-3
30/10/2013 14:00,2.000000016,150,111,SSE,Clear,15,-2,31,1026,-999,-9999,-2
30/10/2013 15:00,3.000000024,210,101,SSW,Unknown,15,-2,31,1026,-999,7,-2
30/10/2013 16:00,3.000000024,210,103,SSW,Unknown,15,-2,31,1025,-999,7,-2
30/10/2013 17:00,2.000000016,190,124,South,Unknown,14,-2,33,1025,-999,7,-2
30/10/2013 18:00,1.000000008,0,160,Variable,Unknown,10,1,54,1026,-999,7,1
30/10/2013 19:00,1.000000008,0,164,Variable,Unknown,8,2,66,1026,-999,6,2
30/10/2013 20:00,1.000000008,0,156,Variable,Haze,7,2,71,1027,-999,5,2
30/10/2013 21:00,1.000000008,80,142,East,Mist,6,2,76,1027,-999,5,2
30/10/2013 22:00,0,0,136,North,Mist,6,2,76,1027,-999,4,2
30/10/2013 23:00,1.000000008,70,165,ENE,Mist,5,1,76,1027,-999,4,1
31/10/2013 0:00,1.000000008,10,187,North,Mist,5,2,81,1027,-999,4,2
31/10/2013 1:00,0,0,224,North,Mist,5,2,81,1027,-999,4,2
31/10/2013 2:00,1.000000008,20,192,NNE,Mist,4,1,81,1027,-999,5,1
31/10/2013 3:00,2.000000016,10,135,North,Mist,2,0,87,1027,-0.1,5,0
31/10/2013 4:00,2.000000016,10,126,North,Mist,3,0,81,1027,1,5,0
31/10/2013 5:00,1.000000008,10,121,North,Mist,3,0,81,1027,-999,5,0
31/10/2013 6:00,2.000000016,10,118,North,Mist,2,-1,81,1027,-0.1,5,-1
31/10/2013 7:00,4.000000032,360,118,North,Mist,2,-1,81,1028,-1.8,5,-1
31/10/2013 8:00,2.000000016,360,118,North,Mist,5,1,76,1029,3.4,5,1
31/10/2013 9:00,3.000000024,360,112,North,Haze,9,1,58,1029,-999,5,1
31/10/2013 10:00,3.000000024,340,126,NNW,Unknown,10,-1,47,1029,-999,6,-1
31/10/2013 11:00,3.000000024,350,127,North,Unknown,13,-1,38,1028,-999,7,-1
31/10/2013 12:00,2.000000016,340,122,NNW,Unknown,14,-2,33,1027,-999,7,-2
31/10/2013 13:00,1.000000008,0,131,Variable,Unknown,14,-1,36,1026,-999,6,-1
31/10/2013 14:00,1.000000008,0,141,Variable,Unknown,15,-1,34,1026,-999,6,-1
31/10/2013 15:00,3.000000024,170,151,South,Unknown,14,-1,36,1026,-999,6,-1
31/10/2013 16:00,2.000000016,150,149,SSE,Unknown,13,0,41,1026,-999,6,0
31/10/2013 17:00,1.000000008,160,174,SSE,Haze,12,1,47,1026,-999,4,1
31/10/2013 18:00,1.000000008,100,233,East,Haze,10,2,58,1027,-999,5,2
31/10/2013 19:00,1.000000008,0,218,Variable,Haze,9,3,66,1027,-999,5,3
31/10/2013 20:00,0,0,211,North,Haze,8,4,76,1027,-999,5,4
31/10/2013 21:00,1.000000008,150,229,SSE,Mist,6,3,81,1028,-999,4,3
31/10/2013 22:00,1.000000008,70,280,ENE,Mist,5,2,81,1028,-999,3.5,2
31/10/2013 23:00,1.000000008,0,274,Variable,Mist,5,2,81,1028,-999,3,2
1/11/2013 0:00,1.000000008,100,289,East,Mist,5,2,81,1028,-999,2.5,2
1/11/2013 1:00,1.000000008,80,311,East,Mist,4,2,87,1028,-999,2,2
1/11/2013 2:00,0,0,299,North,Mist,4,2,87,1028,-999,2,2
1/11/2013 3:00,0,0,308,North,Mist,4,1,81,1027,-999,1.7,1
1/11/2013 4:00,1.000000008,350,297,North,Mist,4,2,87,1027,-999,2,2
1/11/2013 5:00,1.000000008,10,233,North,Mist,4,1,81,1027,-999,2.8,1
1/11/2013 6:00,2.000000016,20,178,NNE,Mist,4,1,81,1027,2.2,3,1
1/11/2013 7:00,0,0,167,North,Mist,4,2,87,1027,-999,3,2
1/11/2013 8:00,2.000000016,20,139,NNE,Mist,5,3,87,1028,3.4,-9999,3
1/11/2013 9:00,1.000000008,40,145,NE,Mist,7,3,76,1028,-999,-9999,3
1/11/2013 10:00,1.000000008,0,166,Variable,Haze,9,3,66,1028,-999,3,3
1/11/2013 11:00,1.000000008,0,189,Variable,Haze,10,2,58,1027,-999,2.8,2
1/11/2013 12:00,1.000000008,0,190,Variable,Haze,11,3,58,1026,-999,2.5,3
1/11/2013 13:00,2.000000016,150,254,SSE,Haze,11,4,62,1025,-999,2.2,4
1/11/2013 14:00,2.000000016,130,266,SE,Haze,12,3,54,1025,-999,2,3
1/11/2013 15:00,3.000000024,160,241,SSE,Haze,13,3,51,1024,-999,2,3
1/11/2013 16:00,2.000000016,160,206,SSE,Haze,12,2,51,1024,-999,2,2
1/11/2013 17:00,4.000000032,210,177,SSW,Haze,12,2,51,1024,-999,2.5,2
1/11/2013 18:00,3.000000024,190,180,South,Light Rain,11,3,58,1025,-999,2.5,3
1/11/2013 19:00,1.000000008,0,175,Variable,Haze,10,4,66,1025,-999,3,4
1/11/2013 20:00,1.000000008,0,188,Variable,Haze,10,5,71,1025,-999,3,5
1/11/2013 21:00,2.000000016,160,209,SSE,Haze,10,4,66,1025,-999,3,4
1/11/2013 22:00,1.000000008,0,205,Variable,Haze,9,3,66,1024,-999,2.6,3
1/11/2013 23:00,1.000000008,0,196,Variable,Mist,7,3,76,1024,-999,2.2,3
2/11/2013 0:00,1.000000008,0,195,Variable,Mist,7,4,81,1024,-999,2.2,4
2/11/2013 1:00,1.000000008,0,205,Variable,Mist,7,4,81,1024,-999,2.2,4
2/11/2013 2:00,1.000000008,0,213,Variable,Mist,8,5,81,1023,-999,2,5
2/11/2013 3:00,1.000000008,0,223,Variable,Mist,6,3,81,1023,-999,1.8,3
2/11/2013 4:00,0,0,231,North,Mist,5,3,87,1023,-999,1.5,3
2/11/2013 5:00,0,0,238,North,Mist,4,2,87,1023,-999,1.3,2
2/11/2013 6:00,1.000000008,0,242,Variable,Mist,3,1,87,1023,-999,1.3,1
2/11/2013 7:00,0,0,247,North,Mist,4,2,87,1023,-999,1.1,2
2/11/2013 8:00,1.000000008,150,290,SSE,Fog,4,2,87,1024,-999,0.8,2
2/11/2013 9:00,2.000000016,20,297,NNE,Fog,6,4,87,1024,4.5,0.8,4
2/11/2013 10:00,1.000000008,0,323,Variable,Mist,9,6,82,1024,-999,1,6
2/11/2013 11:00,1.000000008,0,356,Variable,Haze,11,5,67,1023,-999,1.2,5
2/11/2013 12:00,2.000000016,130,388,SE,Haze,12,5,62,1023,-999,1.5,5
2/11/2013 13:00,2.000000016,160,329,SSE,Haze,13,5,58,1021,-999,1.5,5
2/11/2013 14:00,3.000000024,200,310,SSW,Haze,14,5,55,1021,-999,1.5,5
2/11/2013 15:00,3.000000024,180,292,South,Haze,14,5,55,1020,-999,1.6,5
2/11/2013 16:00,3.000000024,190,309,South,Haze,13,5,58,1020,-999,1.6,5
2/11/2013 17:00,2.000000016,170,285,South,Haze,10,4,66,1020,-999,1.6,4
2/11/2013 18:00,3.000000024,180,284,South,Mist,9,4,71,1021,-999,1.7,4
2/11/2013 19:00,2.000000016,160,331,SSE,Mist,8,4,76,1021,6.9,1.7,4
2/11/2013 20:00,1.000000008,130,320,SE,Mist,8,4,76,1021,-999,1.8,4
2/11/2013 21:00,1.000000008,0,325,Variable,Mist,8,4,76,1021,-999,1.8,4
2/11/2013 22:00,3.000000024,10,316,North,Mist,9,6,82,1022,-999,1.7,6
2/11/2013 23:00,1.000000008,80,334,East,Mist,8,5,81,1022,-999,1.7,5
3/11/2013 0:00,0,0,326,North,Mist,7,4,81,1022,-999,1.5,4
3/11/2013 1:00,1.000000008,0,314,Variable,Mist,7,4,81,1022,-999,1.2,4
3/11/2013 2:00,1.000000008,0,212,Variable,Mist,6,3,81,1022,-999,1.2,3
3/11/2013 3:00,4.000000032,300,52,WNW,Mist,9,4,71,1022,-999,2.2,4
3/11/2013 4:00,7.000000056,300,22,WNW,Clear,11,1,50,1021,-999,-9999,1
3/11/2013 5:00,4.000000032,280,12,West,Clear,10,0,50,1022,-999,-9999,0
3/11/2013 6:00,3.000000024,0,14,Variable,Clear,11,-2,41,1022,-999,-9999,-2
3/11/2013 7:00,6.000000048,310,12,NW,Clear,12,-3,35,1022,-999,-9999,-3
3/11/2013 8:00,7.000000056,320,13,NW,Clear,13,-3,33,1023,-999,-9999,-3
3/11/2013 9:00,5.00000004,300,11,WNW,Clear,15,-3,29,1024,-999,-9999,-3
3/11/2013 10:00,10.00000008,330,15,NNW,Clear,17,-4,24,1024,-999,-9999,-4
3/11/2013 11:00,8.000000064,330,14,NNW,Clear,18,-5,21,1024,-999,-9999,-5
3/11/2013 12:00,8.000000064,340,10,NNW,Clear,19,-7,17,1024,-999,-9999,-7
3/11/2013 13:00,8.000000064,340,10,NNW,Clear,20,-9,13,1024,-999,-9999,-9
3/11/2013 14:00,9.000000072,360,10,North,Clear,19,-9,14,1024,-999,-9999,-9
3/11/2013 15:00,8.000000064,350,7,North,Clear,19,-9,14,1024,-999,-9999,-9
3/11/2013 16:00,7.000000056,340,6,NNW,Clear,18,-8,16,1024,-999,-9999,-8
3/11/2013 17:00,6.000000048,320,16,NW,Clear,17,-9,16,1025,-999,-9999,-9
3/11/2013 18:00,6.000000048,330,13,NNW,Clear,16,-8,19,1025,-999,-9999,-8
3/11/2013 19:00,2.000000016,20,13,NNE,Clear,11,-7,28,1026,-999,-9999,-7
3/11/2013 20:00,1.000000008,0,11,Variable,Clear,8,-4,43,1027,-999,-9999,-4
3/11/2013 21:00,2.000000016,40,11,NE,Clear,8,-6,37,1027,6.9,-9999,-6
3/11/2013 22:00,3.000000024,360,6,North,Clear,8,-6,37,1028,6.1,-9999,-6
3/11/2013 23:00,2.000000016,10,9,North,Clear,5,-4,53,1028,3.4,-9999,-4
4/11/2013 0:00,1.000000008,0,24,Variable,Clear,4,-3,61,1029,-999,-9999,-3
4/11/2013 1:00,1.000000008,0,19,Variable,Clear,4,-2,65,1029,-999,-9999,-2
4/11/2013 2:00,1.000000008,0,26,Variable,Clear,5,-3,57,1030,-999,-9999,-3
4/11/2013 3:00,1.000000008,0,27,Variable,Clear,3,-3,65,1029,-999,-9999,-3
4/11/2013 4:00,2.000000016,360,44,North,Clear,3,-2,70,1029,1,-9999,-2
4/11/2013 5:00,2.000000016,320,46,NW,Clear,7,-4,46,1029,5.7,-9999,-4
4/11/2013 6:00,2.000000016,350,47,North,Clear,3,-4,60,1030,1,-9999,-4
4/11/2013 7:00,1.000000008,30,48,NNE,Clear,3,-3,65,1030,-999,-9999,-3
4/11/2013 8:00,2.000000016,10,41,North,Clear,7,0,61,1030,5.7,-9999,0
4/11/2013 9:00,3.000000024,320,33,NW,Clear,11,-4,35,1030,-999,-9999,-4
4/11/2013 10:00,3.000000024,350,33,North,Clear,14,-5,27,1030,-999,-9999,-5
4/11/2013 11:00,1.000000008,0,32,Variable,Clear,16,-7,20,1030,-999,-9999,-7
4/11/2013 12:00,2.000000016,260,38,West,Clear,17,-6,20,1029,-999,-9999,-6
4/11/2013 13:00,2.000000016,190,41,South,Clear,17,-6,20,1027,-999,-9999,-6
4/11/2013 14:00,3.000000024,200,25,SSW,Clear,18,-7,18,1027,-999,-9999,-7
4/11/2013 15:00,3.000000024,220,27,SW,Clear,17,-7,19,1026,-999,-9999,-7
4/11/2013 16:00,4.000000032,210,33,SSW,Clear,17,-7,19,1026,-999,-9999,-7
4/11/2013 17:00,4.000000032,190,46,South,Clear,15,-6,23,1025,-999,-9999,-6
4/11/2013 18:00,1.000000008,0,62,Variable,Clear,12,-4,33,1025,-999,-9999,-4
4/11/2013 19:00,1.000000008,170,79,South,Clear,9,-1,50,1026,-999,-9999,-1
4/11/2013 20:00,1.000000008,0,105,Variable,Clear,8,0,57,1025,-999,-9999,0
4/11/2013 21:00,1.000000008,110,115,ESE,Clear,6,0,66,1026,-999,-9999,0
4/11/2013 22:00,1.000000008,0,129,Variable,Clear,7,-1,57,1026,-999,-9999,-1
4/11/2013 23:00,2.000000016,100,158,East,Clear,8,-1,53,1025,6.9,-9999,-1
5/11/2013 0:00,2.000000016,70,178,ENE,Clear,6,-1,61,1025,4.5,-9999,-1
5/11/2013 1:00,1.000000008,30,227,NNE,Clear,6,-1,61,1024,-999,-9999,-1
5/11/2013 2:00,1.000000008,0,223,Variable,Clear,7,0,61,1024,-999,-9999,0
5/11/2013 3:00,1.000000008,50,170,NE,Clear,7,-1,57,1023,-999,-9999,-1
5/11/2013 4:00,1.000000008,0,152,Variable,Clear,7,0,61,1023,-999,-9999,0
5/11/2013 5:00,2.000000016,110,142,ESE,Clear,7,0,61,1022,5.7,-9999,0
5/11/2013 6:00,1.000000008,0,135,Variable,Unknown,7,0,61,1022,-999,8,0
5/11/2013 7:00,1.000000008,0,151,Variable,Unknown,7,1,66,1022,-999,6,1
5/11/2013 8:00,1.000000008,90,162,East,Unknown,8,1,62,1021,-999,6,1
5/11/2013 9:00,2.000000016,320,163,NW,Haze,10,0,50,1022,-999,4.5,0
5/11/2013 10:00,2.000000016,360,185,North,Haze,11,0,47,1021,-999,5,0
5/11/2013 11:00,1.000000008,0,188,Variable,Haze,12,0,44,1021,-999,5,0
5/11/2013 12:00,1.000000008,0,183,Variable,Haze,13,0,41,1020,-999,4,0
5/11/2013 13:00,1.000000008,0,182,Variable,Haze,13,0,41,1019,-999,5,0
5/11/2013 14:00,2.000000016,110,163,ESE,Haze,13,0,41,1019,-999,5,0
5/11/2013 15:00,2.000000016,150,173,SSE,Haze,13,-1,38,1018,-999,5,-1
5/11/2013 16:00,2.000000016,170,190,South,Haze,13,0,41,1018,-999,4.5,0
5/11/2013 17:00,1.000000008,0,221,Variable,Haze,11,2,54,1018,-999,4,2
5/11/2013 18:00,1.000000008,0,254,Variable,Haze,8,2,66,1019,-999,4,2
5/11/2013 19:00,1.000000008,0,260,Variable,Haze,8,2,66,1019,-999,4,2
5/11/2013 20:00,1.000000008,100,286,East,Mist,6,1,70,1019,-999,3.5,1
5/11/2013 21:00,1.000000008,80,304,East,Mist,5,2,81,1019,-999,3.5,2
5/11/2013 22:00,1.000000008,0,295,Variable,Mist,5,1,76,1019,-999,3.5,1
5/11/2013 23:00,2.000000016,360,296,North,Mist,5,1,76,1019,3.4,3,1
6/11/2013 0:00,1.000000008,0,270,Variable,Mist,4,1,81,1018,-999,2.8,1
6/11/2013 1:00,2.000000016,350,247,North,Mist,4,1,81,1018,2.2,2.8,1
6/11/2013 2:00,1.000000008,0,266,Variable,Mist,3,0,81,1018,-999,2.8,0
6/11/2013 3:00,2.000000016,10,263,North,Mist,3,0,81,1017,1,2.5,0
6/11/2013 4:00,3.000000024,350,239,North,Mist,2,-1,81,1017,-1.1,3,-1
6/11/2013 5:00,2.000000016,10,238,North,Mist,2,0,87,1016,-0.1,3,0
6/11/2013 6:00,1.000000008,0,206,Variable,Mist,2,0,87,1016,-999,3,0
6/11/2013 7:00,1.000000008,0,183,Variable,Mist,2,0,87,1016,-999,2.5,0
6/11/2013 8:00,4.000000032,350,159,North,Mist,5,2,81,1017,1.9,3,2
6/11/2013 9:00,3.000000024,320,162,NW,Mist,8,2,66,1017,6.1,-9999,2
6/11/2013 10:00,2.000000016,340,173,NNW,Haze,11,1,50,1016,-999,3.5,1
6/11/2013 11:00,2.000000016,0,149,Variable,Haze,13,0,41,1016,-999,4,0
6/11/2013 12:00,11.00000009,310,34,NW,Clear,18,-12,12,1015,-999,-9999,-12
6/11/2013 13:00,14.00000011,310,26,NW,Clear,18,-17,8,1015,-999,-9999,-17
6/11/2013 14:00,10.00000008,310,18,NW,Clear,18,-17,8,1015,-999,-9999,-17
6/11/2013 15:00,11.00000009,310,15,NW,Clear,18,-17,8,1015,-999,-9999,-17
6/11/2013 16:00,11.00000009,320,13,NW,Clear,16,-20,7,1016,-999,-9999,-20
6/11/2013 17:00,13.0000001,320,12,NW,Clear,15,-19,8,1017,-999,-9999,-19
6/11/2013 18:00,6.000000048,310,11,NW,Clear,14,-17,10,1018,-999,-9999,-17
6/11/2013 19:00,11.00000009,330,12,NNW,Clear,14,-16,11,1019,-999,-9999,-16
6/11/2013 20:00,11.00000009,310,8,NW,Clear,13,-15,13,1020,-999,-9999,-15
6/11/2013 21:00,8.000000064,340,6,NNW,Clear,11,-13,18,1021,-999,-9999,-13
6/11/2013 22:00,5.00000004,330,8,NNW,Clear,10,-12,20,1022,-999,-9999,-12
6/11/2013 23:00,5.00000004,290,10,WNW,Clear,10,-12,20,1022,-999,-9999,-12
7/11/2013 0:00,6.000000048,310,7,NW,Clear,10,-12,20,1022,-999,-9999,-12
7/11/2013 1:00,3.000000024,280,7,West,Clear,8,-11,25,1022,6.1,-9999,-11
7/11/2013 2:00,7.000000056,300,8,WNW,Clear,9,-12,22,1022,-999,-9999,-12
7/11/2013 3:00,6.000000048,280,7,West,Clear,8,-11,25,1022,4.7,-9999,-11
7/11/2013 4:00,4.000000032,270,8,West,Clear,7,-11,27,1022,4.3,-9999,-11
7/11/2013 5:00,4.000000032,300,15,WNW,Clear,7,-11,27,1022,4.3,-9999,-11
7/11/2013 6:00,1.000000008,0,15,Variable,Clear,5,-9,36,1022,-999,-9999,-9
7/11/2013 7:00,1.000000008,10,27,North,Clear,1,-7,56,1022,-999,-9999,-7
7/11/2013 8:00,1.000000008,0,20,Variable,Clear,6,-7,39,1023,-999,-9999,-7
7/11/2013 9:00,1.000000008,0,17,Variable,Clear,11,-11,21,1023,-999,-9999,-11
7/11/2013 10:00,2.000000016,0,18,Variable,Clear,11,-12,19,1023,-999,-9999,-12
7/11/2013 11:00,3.000000024,260,24,West,Clear,12,-15,14,1022,-999,-9999,-15
7/11/2013 12:00,4.000000032,220,27,SW,Clear,14,-14,13,1021,-999,-9999,-14
7/11/2013 13:00,5.00000004,230,38,SW,Clear,14,-15,12,1020,-999,-9999,-15
7/11/2013 14:00,5.00000004,210,31,SSW,Clear,14,-15,12,1019,-999,-9999,-15
7/11/2013 15:00,6.000000048,210,35,SSW,Clear,14,-14,13,1019,-999,-9999,-14
7/11/2013 16:00,4.000000032,210,51,SSW,Clear,14,-13,14,1018,-999,-9999,-13
7/11/2013 17:00,3.000000024,180,56,South,Clear,10,-11,22,1018,-999,-9999,-11
7/11/2013 18:00,2.000000016,170,66,South,Clear,10,-9,26,1019,-999,-9999,-9
7/11/2013 19:00,1.000000008,0,89,Variable,Clear,6,-5,46,1019,-999,-9999,-5
7/11/2013 20:00,1.000000008,70,108,ENE,Clear,5,-5,49,1019,-999,-9999,-5
7/11/2013 21:00,1.000000008,0,112,Variable,Unknown,5,-5,49,1020,-999,8,-5
7/11/2013 22:00,1.000000008,0,118,Variable,Unknown,4,-5,52,1020,-999,8,-5
7/11/2013 23:00,1.000000008,0,164,Variable,Unknown,4,-6,49,1020,-999,8,-6
8/11/2013 0:00,1.000000008,10,196,North,Unknown,2,-6,56,1020,-999,8,-6
8/11/2013 1:00,0,0,188,North,Unknown,2,-4,65,1021,-999,8,-4
8/11/2013 2:00,1.000000008,0,217,Variable,Unknown,2,-4,65,1021,-999,8,-4
8/11/2013 3:00,2.000000016,340,174,NNW,Unknown,0,-6,64,1021,-2.5,8,-6
8/11/2013 4:00,2.000000016,360,167,North,Unknown,1,-4,70,1021,-1.3,7,-4
8/11/2013 5:00,1.000000008,10,151,North,Unknown,0,-4,75,1021,-999,7,-4
8/11/2013 6:00,0,0,138,North,Unknown,0,-4,75,1021,-999,7,-4
8/11/2013 7:00,1.000000008,10,121,North,Unknown,0,-4,75,1021,-999,7,-4
8/11/2013 8:00,1.000000008,20,123,NNE,Unknown,1,-3,75,1022,-999,8,-3
8/11/2013 9:00,2.000000016,10,110,North,Clear,6,-2,57,1022,4.5,-9999,-2
8/11/2013 10:00,2.000000016,340,109,NNW,Clear,9,-4,40,1022,-999,-9999,-4
8/11/2013 11:00,1.000000008,0,128,Variable,Clear,10,-5,35,1021,-999,-9999,-5
8/11/2013 12:00,2.000000016,120,143,ESE,Clear,12,-3,35,1020,-999,-9999,-3
8/11/2013 13:00,1.000000008,0,159,Variable,Unknown,13,-3,33,1020,-999,8,-3
8/11/2013 14:00,3.000000024,160,164,SSE,Unknown,14,-4,29,1019,-999,8,-4
8/11/2013 15:00,1.000000008,0,175,Variable,Unknown,14,-3,31,1019,-999,8,-3
8/11/2013 16:00,1.000000008,140,177,SE,Unknown,13,-4,31,1018,-999,8,-4
8/11/2013 17:00,1.000000008,0,191,Variable,Unknown,11,-2,41,1019,-999,6,-2
8/11/2013 18:00,1.000000008,140,178,SE,Unknown,7,-1,57,1019,-999,6,-1
8/11/2013 19:00,0,0,195,North,Unknown,7,-1,57,1020,-999,6,-1
8/11/2013 20:00,0,0,181,North,Unknown,7,0,61,1020,-999,6,0
8/11/2013 21:00,1.000000008,0,169,Variable,Unknown,8,0,57,1020,-999,6,0
8/11/2013 22:00,1.000000008,0,173,Variable,Unknown,8,1,62,1021,-999,6,1
8/11/2013 23:00,0,0,178,North,Haze,7,0,61,1021,-999,5,0
9/11/2013 0:00,1.000000008,0,170,Variable,Haze,6,0,66,1021,-999,5,0
9/11/2013 1:00,2.000000016,10,160,North,Haze,6,-1,61,1021,4.5,5,-1
9/11/2013 2:00,2.000000016,350,161,North,Haze,5,-1,65,1021,3.4,5,-1
9/11/2013 3:00,2.000000016,340,164,NNW,Haze,5,0,70,1021,3.4,5,0
9/11/2013 4:00,1.000000008,0,171,Variable,Haze,6,-1,61,1022,-999,5,-1
9/11/2013 5:00,1.000000008,0,178,Variable,Haze,5,0,70,1021,-999,5,0
9/11/2013 6:00,1.000000008,350,176,North,Haze,5,-1,65,1021,-999,5,-1
9/11/2013 7:00,2.000000016,310,179,NW,Haze,6,0,66,1022,4.5,5,0
9/11/2013 8:00,4.000000032,360,175,North,Haze,7,0,61,1022,4.3,4,0
9/11/2013 9:00,4.000000032,360,179,North,Haze,9,0,54,1023,-999,4.5,0
9/11/2013 10:00,3.000000024,360,148,North,Haze,11,-1,44,1022,-999,4.5,-1
9/11/2013 11:00,3.000000024,350,118,North,Haze,12,-1,41,1023,-999,5,-1
9/11/2013 12:00,4.000000032,340,79,NNW,Haze,14,-3,31,1022,-999,5,-3
9/11/2013 13:00,3.000000024,20,115,NNE,Unknown,15,-5,25,1022,-999,6,-5
9/11/2013 14:00,5.00000004,360,46,North,Clear,16,-7,20,1022,-999,-9999,-7
9/11/2013 15:00,3.000000024,20,32,NNE,Clear,15,-8,20,1022,-999,-9999,-8
9/11/2013 16:00,2.000000016,10,20,North,Clear,14,-7,23,1023,-999,-9999,-7
9/11/2013 17:00,3.000000024,10,6,North,Clear,12,-7,26,1024,-999,-9999,-7
9/11/2013 18:00,6.000000048,350,6,North,Clear,13,-11,18,1025,-999,-9999,-11
9/11/2013 19:00,10.00000008,330,7,NNW,Clear,13,-13,15,1027,-999,-9999,-13
9/11/2013 20:00,13.0000001,320,13,NW,Clear,11,-13,18,1028,-999,-9999,-13
9/11/2013 21:00,7.000000056,310,8,NW,Clear,10,-13,19,1030,-999,-9999,-13
9/11/2013 22:00,13.0000001,330,6,NNW,Clear,9,-17,15,1030,-999,-9999,-17
9/11/2013 23:00,10.00000008,330,8,NNW,Clear,7,-22,11,1031,2.2,-9999,-22
10/11/2013 0:00,9.000000072,320,6,NW,Clear,6,-28,7,1032,1.2,-9999,-28
10/11/2013 1:00,9.000000072,320,3,NW,Clear,3,-27,9,1033,-2.8,-9999,-27
10/11/2013 2:00,10.00000008,320,4,NW,Clear,2,-31,7,1034,-4.4,-9999,-31
10/11/2013 3:00,11.00000009,320,3,NW,Clear,1,-30,8,1034,-6,-9999,-30
10/11/2013 4:00,8.000000064,340,3,NNW,Clear,1,-30,8,1033,-5,-9999,-30
10/11/2013 5:00,6.000000048,320,6,NW,Clear,0,-28,11,1033,-5.4,-9999,-28
10/11/2013 6:00,8.000000064,320,8,NW,Clear,1,-28,10,1032,-5,-9999,-28
10/11/2013 7:00,6.000000048,320,9,NW,Clear,1,-28,10,1032,-4.2,-9999,-28
10/11/2013 8:00,8.000000064,320,10,NW,Clear,2,-28,9,1033,-3.7,-9999,-28
10/11/2013 9:00,7.000000056,310,14,NW,Clear,3,-28,9,1032,-2.1,-9999,-28
10/11/2013 10:00,7.000000056,320,9,NW,Clear,5,-30,6,1032,0.5,-9999,-30
10/11/2013 11:00,7.000000056,320,5,NW,Clear,7,-31,5,1030,3.1,-9999,-31
10/11/2013 12:00,8.000000064,300,6,WNW,Clear,8,-30,5,1028,4.1,-9999,-30
10/11/2013 13:00,10.00000008,300,5,WNW,Clear,8,-30,5,1027,3.6,-9999,-30
10/11/2013 14:00,10.00000008,290,12,WNW,Clear,10,-27,6,1025,-999,-9999,-27
10/11/2013 15:00,9.000000072,290,9,WNW,Clear,10,-26,6,1024,-999,-9999,-26
10/11/2013 16:00,8.000000064,280,17,West,Clear,10,-26,6,1024,-999,-9999,-26
10/11/2013 17:00,6.000000048,280,46,West,Clear,10,-24,8,1024,-999,-9999,-24
10/11/2013 18:00,5.00000004,250,53,WSW,Clear,9,-22,10,1025,-999,-9999,-22
10/11/2013 19:00,4.000000032,240,72,WSW,Clear,8,-21,11,1025,5.6,-9999,-21
10/11/2013 20:00,5.00000004,270,78,West,Clear,8,-19,13,1026,5.1,-9999,-19
10/11/2013 21:00,2.000000016,20,56,NNE,Clear,3,-18,20,1027,1,-9999,-18
10/11/2013 22:00,3.000000024,10,16,North,Clear,3,-16,24,1028,0.1,-9999,-16
10/11/2013 23:00,1.000000008,0,14,Variable,Clear,3,-15,26,1029,-999,-9999,-15
11/11/2013 0:00,2.000000016,10,25,North,Clear,1,-12,38,1030,-1.3,-9999,-12
11/11/2013 1:00,2.000000016,360,20,North,Clear,1,-13,35,1030,-1.3,-9999,-13
11/11/2013 2:00,1.000000008,0,23,Variable,Clear,2,-13,33,1031,-999,-9999,-13
11/11/2013 3:00,3.000000024,360,21,North,Clear,1,-12,38,1031,-2.3,-9999,-12
11/11/2013 4:00,2.000000016,270,24,West,Clear,1,-14,32,1031,-1.3,-9999,-14
11/11/2013 5:00,2.000000016,360,15,North,Clear,0,-10,48,1031,-2.5,-9999,-10
11/11/2013 6:00,2.000000016,10,17,North,Clear,-2,-11,51,1030,-4.8,-9999,-11
11/11/2013 7:00,2.000000016,360,26,North,Clear,-1,-11,47,1031,-3.6,-9999,-11
11/11/2013 8:00,3.000000024,10,23,North,Clear,3,-9,41,1031,0.1,-9999,-9
11/11/2013 9:00,3.000000024,10,27,North,Clear,8,-12,23,1031,6.1,-9999,-12
11/11/2013 10:00,4.000000032,350,20,North,Clear,11,-16,14,1031,-999,-9999,-16
11/11/2013 11:00,3.000000024,330,14,NNW,Clear,12,-17,12,1030,-999,-9999,-17
11/11/2013 12:00,4.000000032,290,15,WNW,Clear,12,-16,13,1028,-999,-9999,-16
11/11/2013 13:00,4.000000032,250,38,WSW,Clear,13,-16,12,1027,-999,-9999,-16
11/11/2013 14:00,4.000000032,230,38,SW,Clear,13,-16,12,1026,-999,-9999,-16
11/11/2013 15:00,5.00000004,210,42,SSW,Clear,13,-15,13,1025,-999,-9999,-15
11/11/2013 16:00,6.000000048,200,48,SSW,Clear,12,-14,15,1025,-999,-9999,-14
11/11/2013 17:00,5.00000004,220,52,SW,Clear,10,-14,17,1024,-999,-9999,-14
11/11/2013 18:00,2.000000016,180,66,South,Clear,7,-13,23,1025,5.7,-9999,-13
11/11/2013 19:00,2.000000016,140,76,SE,Clear,7,-11,27,1024,5.7,-9999,-11
11/11/2013 20:00,1.000000008,0,81,Variable,Clear,4,-9,39,1025,-999,-9999,-9
11/11/2013 21:00,1.000000008,80,87,East,Unknown,2,-8,48,1025,-999,8,-8
11/11/2013 22:00,1.000000008,90,98,East,Unknown,2,-6,56,1025,-999,8,-6
11/11/2013 23:00,1.000000008,0,103,Variable,Unknown,2,-6,56,1025,-999,8,-6
12/11/2013 0:00,2.000000016,50,125,NE,Unknown,1,-7,56,1025,-1.3,8,-7
12/11/2013 1:00,1.000000008,0,123,Variable,Unknown,0,-7,60,1025,-999,8,-7
12/11/2013 2:00,1.000000008,10,135,North,Unknown,-1,-6,69,1026,-999,8,-6
12/11/2013 3:00,1.000000008,0,150,Variable,Unknown,0,-5,69,1025,-999,7,-5
12/11/2013 4:00,2.000000016,10,102,North,Unknown,-1,-6,69,1025,-3.6,8,-6
12/11/2013 5:00,4.000000032,360,89,North,Clear,-1,-7,64,1025,-5.5,-9999,-7
12/11/2013 6:00,3.000000024,350,58,North,Clear,-1,-7,64,1025,-4.7,-9999,-7
12/11/2013 7:00,3.000000024,340,45,NNW,Clear,1,-7,56,1026,-2.3,-9999,-7
12/11/2013 8:00,2.000000016,310,52,NW,Clear,4,-6,49,1026,2.2,-9999,-6
12/11/2013 9:00,2.000000016,10,45,North,Clear,8,-7,34,1026,6.9,-9999,-7
12/11/2013 10:00,2.000000016,40,38,NE,Clear,11,-9,24,1027,-999,-9999,-9
12/11/2013 11:00,3.000000024,50,18,NE,Clear,13,-9,21,1026,-999,-9999,-9
12/11/2013 12:00,2.000000016,0,25,Variable,Clear,15,-10,17,1025,-999,-9999,-10
12/11/2013 13:00,2.000000016,320,24,NW,Clear,16,-10,16,1024,-999,-9999,-10
12/11/2013 14:00,2.000000016,70,15,ENE,Clear,15,-10,17,1023,-999,-9999,-10
12/11/2013 15:00,3.000000024,50,14,NE,Clear,15,-9,19,1023,-999,-9999,-9
12/11/2013 16:00,1.000000008,0,17,Variable,Clear,14,-10,18,1023,-999,-9999,-10
12/11/2013 17:00,1.000000008,0,36,Variable,Clear,11,-9,24,1023,-999,-9999,-9
12/11/2013 18:00,1.000000008,110,49,ESE,Clear,7,-6,39,1023,-999,-9999,-6
12/11/2013 19:00,2.000000016,170,55,South,Clear,7,-5,43,1024,5.7,-9999,-5
12/11/2013 20:00,2.000000016,170,54,South,Clear,8,-7,34,1024,6.9,-9999,-7
12/11/2013 21:00,2.000000016,180,73,South,Clear,8,-7,34,1025,6.9,-9999,-7
12/11/2013 22:00,2.000000016,130,82,SE,Clear,5,-6,45,1025,3.4,-9999,-6
12/11/2013 23:00,1.000000008,0,76,Variable,Clear,4,-5,52,1025,-999,-9999,-5
13/11/2013 0:00,2.000000016,80,90,East,Clear,4,-5,52,1025,2.2,-9999,-5
13/11/2013 1:00,2.000000016,100,106,East,Clear,4,-4,56,1025,2.2,-9999,-4
13/11/2013 2:00,1.000000008,80,124,East,Clear,3,-4,60,1024,-999,-9999,-4
13/11/2013 3:00,1.000000008,0,123,Variable,Clear,3,-3,65,1024,-999,-9999,-3
13/11/2013 4:00,1.000000008,0,128,Variable,Clear,2,-3,70,1023,-999,-9999,-3
13/11/2013 5:00,1.000000008,80,132,East,Clear,3,-2,70,1023,-999,-9999,-2
13/11/2013 6:00,1.000000008,10,155,North,Unknown,1,-3,75,1023,-999,8,-3
13/11/2013 7:00,1.000000008,60,163,ENE,Unknown,2,-2,75,1023,-999,7,-2
13/11/2013 8:00,1.000000008,40,157,NE,Unknown,3,-2,70,1023,-999,6,-2
13/11/2013 9:00,1.000000008,0,160,Variable,Haze,5,-1,65,1023,-999,4.5,-1
13/11/2013 10:00,1.000000008,0,185,Variable,Haze,6,-1,61,1023,-999,4.5,-1
13/11/2013 11:00,1.000000008,130,189,SE,Haze,7,-2,53,1022,-999,4,-2
13/11/2013 12:00,1.000000008,0,198,Variable,Haze,8,-1,53,1021,-999,4,-1
13/11/2013 13:00,1.000000008,0,216,Variable,Haze,8,-2,50,1020,-999,4,-2
13/11/2013 14:00,1.000000008,0,225,Variable,Haze,9,-2,46,1019,-999,3.5,-2
13/11/2013 15:00,1.000000008,0,248,Variable,Haze,9,-1,50,1019,-999,-9999,-1
13/11/2013 16:00,1.000000008,80,270,East,Haze,9,-1,50,1018,-999,3,-1
13/11/2013 17:00,1.000000008,40,296,NE,Haze,7,0,61,1018,-999,2.7,0
13/11/2013 18:00,2.000000016,360,283,North,Haze,5,-1,65,1018,3.4,3,-1
13/11/2013 19:00,0,0,261,North,Haze,5,0,70,1019,-999,3,0
13/11/2013 20:00,0,0,264,North,Haze,4,0,75,1019,-999,3,0
13/11/2013 21:00,1.000000008,0,282,Variable,Mist,4,0,75,1019,-999,2.8,0
13/11/2013 22:00,3.000000024,350,252,North,Mist,4,-1,70,1019,1.3,2.8,-1
13/11/2013 23:00,2.000000016,340,252,NNW,Mist,5,-1,65,1019,3.4,2.8,-1
14/11/2013 0:00,2.000000016,330,211,NNW,Mist,4,-2,65,1019,2.2,2.8,-2
14/11/2013 1:00,3.000000024,330,199,NNW,Haze,2,-4,65,1019,-1.1,3,-4
14/11/2013 2:00,3.000000024,10,235,North,Haze,2,-3,70,1019,-1.1,3.5,-3
14/11/2013 3:00,2.000000016,300,114,WNW,Haze,3,-3,65,1019,1,3,-3
14/11/2013 4:00,4.000000032,330,23,NNW,Mist,2,-2,75,1019,-1.8,3,-2
14/11/2013 5:00,2.000000016,320,18,NW,Mist,0,-5,69,1019,-2.5,3,-5
14/11/2013 6:00,2.000000016,270,19,West,Haze,4,-5,52,1019,2.2,4,-5
14/11/2013 7:00,3.000000024,330,14,NNW,Clear,4,-8,42,1019,1.3,-9999,-8
14/11/2013 8:00,2.000000016,0,23,Variable,Clear,7,-9,31,1020,5.7,-9999,-9
14/11/2013 9:00,5.00000004,320,21,NW,Clear,10,-11,22,1020,-999,-9999,-11
14/11/2013 10:00,4.000000032,310,14,NW,Clear,11,-12,19,1020,-999,-9999,-12
14/11/2013 11:00,6.000000048,310,24,NW,Clear,13,-14,14,1019,-999,-9999,-14
14/11/2013 12:00,9.000000072,290,22,WNW,Clear,13,-15,13,1018,-999,-9999,-15
14/11/2013 13:00,8.000000064,310,24,NW,Clear,14,-15,12,1018,-999,-9999,-15
14/11/2013 14:00,8.000000064,300,27,WNW,Clear,14,-15,12,1017,-999,-9999,-15
14/11/2013 15:00,9.000000072,300,27,WNW,Clear,14,-16,11,1017,-999,-9999,-16
14/11/2013 16:00,7.000000056,300,69,WNW,Clear,14,-16,11,1017,-999,-9999,-16
14/11/2013 17:00,4.000000032,270,64,West,Clear,13,-16,12,1017,-999,-9999,-16
14/11/2013 18:00,3.000000024,220,65,SW,Clear,12,-12,18,1018,-999,-9999,-12
14/11/2013 19:00,3.000000024,200,65,SSW,Clear,11,-11,21,1018,-999,-9999,-11
14/11/2013 20:00,1.000000008,0,76,Variable,Clear,7,-9,31,1018,-999,-9999,-9
14/11/2013 21:00,2.000000016,0,72,Variable,Clear,9,-10,25,1019,-999,-9999,-10
14/11/2013 22:00,2.000000016,220,78,SW,Clear,10,-10,24,1019,-999,-9999,-10
14/11/2013 23:00,2.000000016,290,81,WNW,Clear,9,-10,25,1019,-999,-9999,-10
15/11/2013 0:00,2.000000016,60,88,ENE,Clear,2,-6,56,1019,-0.1,-9999,-6
15/11/2013 1:00,1.000000008,170,93,South,Unknown,2,-6,56,1019,-999,8,-6
15/11/2013 2:00,1.000000008,0,106,Variable,Unknown,0,-6,64,1019,-999,8,-6
15/11/2013 3:00,1.000000008,0,108,Variable,Unknown,1,-6,60,1019,-999,6,-6
15/11/2013 4:00,1.000000008,10,115,North,Unknown,-1,-6,69,1019,-999,6,-6
15/11/2013 5:00,2.000000016,360,145,North,Unknown,-2,-6,74,1019,-4.8,6,-6
15/11/2013 6:00,2.000000016,360,164,North,Unknown,-2,-6,74,1018,-4.8,6,-6
15/11/2013 7:00,0,0,272,North,Unknown,-1,-5,75,1019,-999,8,-5
15/11/2013 8:00,2.000000016,150,172,SSE,Unknown,0,-5,69,1019,-2.5,7,-5
15/11/2013 9:00,1.000000008,0,106,Variable,Unknown,6,-4,49,1019,-999,7,-4
15/11/2013 10:00,2.000000016,320,70,NW,Clear,10,-8,28,1019,-999,-9999,-8
15/11/2013 11:00,2.000000016,310,76,NW,Clear,12,-12,18,1018,-999,-9999,-12
15/11/2013 12:00,2.000000016,320,67,NW,Clear,14,-12,16,1017,-999,-9999,-12
15/11/2013 13:00,2.000000016,210,69,SSW,Clear,16,-13,13,1016,-999,-9999,-13
15/11/2013 14:00,2.000000016,250,118,WSW,Clear,16,-13,13,1014,-999,-9999,-13
15/11/2013 15:00,5.00000004,210,108,SSW,Clear,16,-13,13,1015,-999,-9999,-13
15/11/2013 16:00,4.000000032,210,84,SSW,Unknown,15,-12,15,1015,-999,8,-12
15/11/2013 17:00,4.000000032,200,80,SSW,Unknown,13,-12,17,1015,-999,8,-12
15/11/2013 18:00,3.000000024,190,93,South,Unknown,13,-12,17,1015,-999,8,-12
15/11/2013 19:00,3.000000024,200,93,SSW,Unknown,12,-12,18,1015,-999,8,-12
15/11/2013 20:00,1.000000008,0,101,Variable,Unknown,6,-8,36,1015,-999,8,-8
15/11/2013 21:00,1.000000008,60,116,ENE,Unknown,4,-7,45,1016,-999,6,-7
15/11/2013 22:00,2.000000016,100,187,East,Unknown,4,-5,52,1015,2.2,6,-5
15/11/2013 23:00,1.000000008,0,210,Variable,Unknown,3,-7,48,1015,-999,6,-7
16/11/2013 0:00,1.000000008,0,216,Variable,Unknown,4,-6,49,1015,-999,6,-6
16/11/2013 1:00,2.000000016,10,214,North,Haze,3,-6,52,1014,1,5,-6
16/11/2013 2:00,2.000000016,340,188,NNW,Haze,3,-5,56,1014,1,5,-5
16/11/2013 3:00,1.000000008,0,150,Variable,Unknown,4,-5,52,1014,-999,6,-5
16/11/2013 4:00,3.000000024,320,71,NW,Unknown,5,-6,45,1014,2.5,7,-6
16/11/2013 5:00,3.000000024,310,47,NW,Unknown,8,-8,32,1014,6.1,8,-8
16/11/2013 6:00,10.00000008,300,43,WNW,Clear,10,-9,26,1015,-999,-9999,-9
16/11/2013 7:00,10.00000008,320,32,NW,Clear,10,-10,24,1016,-999,-9999,-10
16/11/2013 8:00,9.000000072,320,32,NW,Clear,10,-10,24,1017,-999,-9999,-10
16/11/2013 9:00,10.00000008,330,18,NNW,Clear,11,-11,21,1018,-999,-9999,-11
16/11/2013 10:00,12.0000001,320,14,NW,Clear,12,-12,18,1018,-999,-9999,-12
16/11/2013 11:00,13.0000001,320,11,NW,Clear,12,-13,16,1019,-999,-9999,-13
16/11/2013 12:00,12.0000001,310,10,NW,Clear,13,-14,14,1018,-999,-9999,-14
16/11/2013 13:00,14.00000011,310,13,NW,Clear,12,-16,13,1018,-999,-9999,-16
16/11/2013 14:00,14.00000011,320,8,NW,Clear,12,-17,12,1019,-999,-9999,-17
16/11/2013 15:00,13.0000001,310,7,NW,Clear,11,-16,14,1020,-999,-9999,-16
16/11/2013 16:00,12.0000001,320,6,NW,Clear,10,-15,16,1021,-999,-9999,-15
16/11/2013 17:00,12.0000001,320,9,NW,Clear,8,-15,18,1022,3.1,-9999,-15
16/11/2013 18:00,12.0000001,320,7,NW,Clear,8,-15,18,1023,3.1,-9999,-15
16/11/2013 19:00,12.0000001,320,5,NW,Clear,7,-15,20,1024,1.8,-9999,-15
16/11/2013 20:00,8.000000064,330,5,NNW,Clear,6,-15,21,1025,1.5,-9999,-15
16/11/2013 21:00,5.00000004,330,8,NNW,Clear,6,-15,21,1025,2.6,-9999,-15
16/11/2013 22:00,6.000000048,320,11,NW,Clear,6,-15,21,1025,2.2,-9999,-15
16/11/2013 23:00,5.00000004,330,11,NNW,Clear,6,-14,23,1024,2.6,-9999,-14
17/11/2013 0:00,2.000000016,340,27,NNW,Clear,3,-14,28,1024,1,-9999,-14
17/11/2013 1:00,1.000000008,0,37,Variable,Clear,2,-12,35,1023,-999,-9999,-12
17/11/2013 2:00,0,0,48,North,Clear,1,-9,48,1023,-999,-9999,-9
17/11/2013 3:00,0,0,21,North,Clear,-1,-8,60,1023,-999,-9999,-8
17/11/2013 4:00,0,0,12,North,Clear,-2,-8,64,1022,-999,-9999,-8
17/11/2013 5:00,1.000000008,0,8,Variable,Clear,-2,-8,64,1022,-999,-9999,-8
17/11/2013 6:00,4.000000032,300,12,WNW,Clear,1,-10,44,1023,-3,-9999,-10
17/11/2013 7:00,3.000000024,10,9,North,Clear,-1,-11,47,1024,-4.7,-9999,-11
17/11/2013 8:00,2.000000016,10,6,North,Clear,2,-11,38,1025,-0.1,-9999,-11
17/11/2013 9:00,4.000000032,270,8,West,Clear,7,-15,20,1025,4.3,-9999,-15
17/11/2013 10:00,3.000000024,320,9,NW,Clear,9,-16,16,1025,-999,-9999,-16
17/11/2013 11:00,8.000000064,330,8,NNW,Clear,9,-20,11,1025,-999,-9999,-20
17/11/2013 12:00,11.00000009,340,9,NNW,Clear,10,-20,11,1024,-999,-9999,-20
17/11/2013 13:00,13.0000001,350,12,North,Clear,9,-21,10,1023,-999,-9999,-21
17/11/2013 14:00,10.00000008,340,11,NNW,Clear,10,-21,10,1023,-999,-9999,-21
17/11/2013 15:00,9.000000072,330,9,NNW,Clear,10,-20,11,1023,-999,-9999,-20
17/11/2013 16:00,8.000000064,330,9,NNW,Clear,9,-19,12,1024,-999,-9999,-19
17/11/2013 17:00,9.000000072,330,12,NNW,Clear,8,-19,13,1025,3.8,-9999,-19
17/11/2013 18:00,11.00000009,330,10,NNW,Clear,7,-21,12,1025,2,-9999,-21
17/11/2013 19:00,7.000000056,340,10,NNW,Clear,6,-20,14,1026,1.8,-9999,-20
17/11/2013 20:00,5.00000004,350,10,North,Clear,5,-19,16,1027,1.3,-9999,-19
17/11/2013 21:00,5.00000004,360,9,North,Clear,4,-18,19,1027,0.1,-9999,-18
17/11/2013 22:00,5.00000004,10,12,North,Clear,4,-17,21,1027,0.1,-9999,-17
17/11/2013 23:00,4.000000032,340,14,NNW,Clear,4,-15,24,1027,0.6,-9999,-15
18/11/2013 0:00,5.00000004,10,13,North,Clear,3,-14,28,1027,-1.2,-9999,-14
18/11/2013 1:00,2.000000016,350,17,North,Clear,2,-15,28,1027,-0.1,-9999,-15
18/11/2013 2:00,4.000000032,340,12,NNW,Clear,2,-14,30,1027,-1.8,-9999,-14
18/11/2013 3:00,4.000000032,340,10,NNW,Clear,2,-14,30,1026,-1.8,-9999,-14
18/11/2013 4:00,8.000000064,330,6,NNW,Clear,4,-16,22,1026,-1.1,-9999,-16
18/11/2013 5:00,9.000000072,330,11,NNW,Clear,4,-17,21,1026,-1.4,-9999,-17
18/11/2013 6:00,7.000000056,320,7,NW,Clear,3,-18,20,1027,-2.1,-9999,-18
18/11/2013 7:00,8.000000064,330,12,NNW,Clear,3,-18,20,1027,-2.4,-9999,-18
18/11/2013 8:00,8.000000064,330,11,NNW,Clear,4,-19,17,1028,-1.1,-9999,-19
18/11/2013 9:00,9.000000072,330,9,NNW,Clear,5,-18,18,1028,-0.1,-9999,-18
18/11/2013 10:00,8.000000064,330,8,NNW,Clear,6,-19,15,1028,1.5,-9999,-19
18/11/2013 11:00,8.000000064,330,7,NNW,Clear,7,-19,14,1028,2.8,-9999,-19
18/11/2013 12:00,8.000000064,330,14,NNW,Clear,8,-20,12,1027,4.1,-9999,-20
18/11/2013 13:00,8.000000064,320,13,NW,Clear,8,-20,12,1026,4.1,-9999,-20
18/11/2013 14:00,8.000000064,340,9,NNW,Clear,10,-20,11,1025,-999,-9999,-20
18/11/2013 15:00,9.000000072,340,9,NNW,Clear,9,-20,11,1025,-999,-9999,-20
18/11/2013 16:00,8.000000064,350,8,North,Clear,8,-21,11,1025,4.1,-9999,-21
18/11/2013 17:00,7.000000056,360,9,North,Clear,5,-20,15,1025,0.5,-9999,-20
18/11/2013 18:00,5.00000004,360,20,North,Clear,4,-19,17,1026,0.1,-9999,-19
18/11/2013 19:00,9.000000072,360,14,North,Clear,5,-19,16,1026,-0.1,-9999,-19
18/11/2013 20:00,5.00000004,30,17,NNE,Clear,5,-19,16,1027,1.3,-9999,-19
18/11/2013 21:00,6.000000048,20,10,NNE,Clear,3,-19,19,1027,-1.6,-9999,-19
18/11/2013 22:00,5.00000004,40,16,NE,Clear,3,-18,20,1028,-1.2,-9999,-18
18/11/2013 23:00,4.000000032,40,19,NE,Clear,2,-18,22,1028,-1.8,-9999,-18
19/11/2013 0:00,4.000000032,20,14,NNE,Clear,1,-18,23,1028,-3,-9999,-18
19/11/2013 1:00,2.000000016,20,14,NNE,Clear,0,-18,25,1028,-2.5,-9999,-18
19/11/2013 2:00,3.000000024,10,14,North,Clear,0,-15,32,1027,-3.5,-9999,-15
19/11/2013 3:00,5.00000004,20,12,NNE,Clear,1,-18,23,1027,-3.7,-9999,-18
19/11/2013 4:00,3.000000024,70,10,ENE,Clear,0,-15,32,1026,-3.5,-9999,-15
19/11/2013 5:00,2.000000016,40,15,NE,Clear,-1,-15,34,1027,-3.6,-9999,-15
19/11/2013 6:00,2.000000016,50,16,NE,Clear,-1,-15,34,1026,-3.6,-9999,-15
19/11/2013 7:00,2.000000016,80,17,East,Clear,-1,-15,34,1027,-3.6,-9999,-15
19/11/2013 8:00,4.000000032,50,25,NE,Clear,0,-17,27,1027,-4.3,-9999,-17
19/11/2013 9:00,5.00000004,50,22,NE,Clear,2,-17,24,1027,-2.4,-9999,-17
19/11/2013 10:00,4.000000032,50,15,NE,Clear,3,-18,20,1027,-0.6,-9999,-18
19/11/2013 11:00,2.000000016,10,20,North,Clear,5,-19,16,1026,3.4,-9999,-19
19/11/2013 12:00,2.000000016,360,20,North,Clear,6,-19,15,1025,4.5,-9999,-19
19/11/2013 13:00,1.000000008,0,23,Variable,Clear,6,-20,14,1024,-999,-9999,-20
19/11/2013 14:00,2.000000016,240,26,WSW,Clear,7,-19,14,1023,5.7,-9999,-19
19/11/2013 15:00,1.000000008,0,,Variable,Clear,8,-20,12,1022,-999,-9999,-20
19/11/2013 16:00,1.000000008,0,73,Variable,Clear,7,-19,14,1022,-999,-9999,-19
19/11/2013 17:00,1.000000008,90,71,East,Clear,5,-17,19,1022,-999,-9999,-17
19/11/2013 18:00,1.000000008,150,80,SSE,Clear,2,-15,28,1023,-999,-9999,-15
19/11/2013 19:00,2.000000016,190,94,South,Clear,5,-17,19,1023,3.4,-9999,-17
19/11/2013 20:00,3.000000024,240,94,WSW,Clear,5,-15,23,1023,2.5,-9999,-15
19/11/2013 21:00,2.000000016,270,87,West,Clear,5,-14,24,1023,3.4,-9999,-14
19/11/2013 22:00,2.000000016,10,93,North,Clear,-1,-10,51,1023,-3.6,-9999,-10
19/11/2013 23:00,1.000000008,0,116,Variable,Clear,-1,-13,40,1023,-999,-9999,-13
20/11/2013 0:00,1.000000008,30,138,NNE,Clear,-1,-10,51,1023,-999,-9999,-10
20/11/2013 1:00,2.000000016,340,130,NNW,Unknown,-1,-11,47,1023,-3.6,8,-11
20/11/2013 2:00,2.000000016,350,130,North,Unknown,-3,-10,59,1023,-5.9,8,-10
20/11/2013 3:00,2.000000016,350,134,North,Unknown,-3,-12,51,1023,-5.9,8,-12
20/11/2013 4:00,4.000000032,340,71,NNW,Clear,-3,-10,59,1023,-8,-9999,-10
20/11/2013 5:00,3.000000024,340,57,NNW,Clear,-3,-11,55,1023,-7.1,-9999,-11
20/11/2013 6:00,3.000000024,350,75,North,Clear,-5,-12,59,1023,-9.5,-9999,-12
20/11/2013 7:00,4.000000032,350,62,North,Clear,-3,-11,55,1023,-8,-9999,-11
20/11/2013 8:00,4.000000032,340,69,NNW,Clear,1,-13,35,1024,-3,-9999,-13
20/11/2013 9:00,4.000000032,340,48,NNW,Clear,4,-13,28,1024,0.6,-9999,-13
20/11/2013 10:00,4.000000032,330,43,NNW,Clear,7,-13,23,1025,4.3,-9999,-13
20/11/2013 11:00,4.000000032,20,32,NNE,Clear,9,-13,20,1024,-999,-9999,-13
20/11/2013 12:00,2.000000016,0,24,Variable,Clear,10,-12,20,1023,-999,-9999,-12
20/11/2013 13:00,3.000000024,30,20,NNE,Clear,11,-12,19,1023,-999,-9999,-12
20/11/2013 14:00,2.000000016,50,20,NE,Clear,11,-13,18,1022,-999,-9999,-13
20/11/2013 15:00,1.000000008,0,19,Variable,Clear,11,-13,18,1022,-999,-9999,-13
20/11/2013 16:00,1.000000008,0,30,Variable,Clear,11,-13,18,1022,-999,-9999,-13
20/11/2013 17:00,1.000000008,0,32,Variable,Clear,9,-12,22,1022,-999,-9999,-12
20/11/2013 18:00,1.000000008,0,70,Variable,Clear,7,-11,27,1023,-999,-9999,-11
20/11/2013 19:00,1.000000008,0,89,Variable,Clear,4,-9,39,1023,-999,-9999,-9
20/11/2013 20:00,3.000000024,220,121,SW,Clear,8,-11,25,1024,6.1,-9999,-11
20/11/2013 21:00,1.000000008,40,131,NE,Clear,1,-9,48,1024,-999,-9999,-9
20/11/2013 22:00,1.000000008,60,144,ENE,Clear,0,-8,55,1025,-999,-9999,-8
20/11/2013 23:00,1.000000008,0,174,Variable,Clear,1,-8,52,1025,-999,-9999,-8
21/11/2013 0:00,1.000000008,360,191,North,Clear,0,-9,51,1026,-999,-9999,-9
21/11/2013 1:00,1.000000008,360,205,North,Clear,-1,-8,60,1026,-999,-9999,-8
21/11/2013 2:00,2.000000016,360,197,North,Clear,-3,-8,69,1026,-5.9,-9999,-8
21/11/2013 3:00,1.000000008,350,154,North,Clear,-2,-7,69,1026,-999,-9999,-7
21/11/2013 4:00,2.000000016,330,83,NNW,Clear,-2,-8,64,1026,-4.8,-9999,-8
21/11/2013 5:00,1.000000008,350,103,North,Clear,-1,-8,60,1026,-999,-9999,-8
21/11/2013 6:00,1.000000008,340,128,NNW,Clear,-2,-8,64,1026,-999,-9999,-8
21/11/2013 7:00,2.000000016,360,161,North,Clear,-3,-7,74,1026,-5.9,-9999,-7
21/11/2013 8:00,1.000000008,0,86,Variable,Clear,-1,-7,64,1027,-999,-9999,-7
21/11/2013 9:00,3.000000024,350,71,North,Clear,4,-7,45,1027,1.3,-9999,-7
21/11/2013 10:00,2.000000016,360,77,North,Clear,7,-9,31,1027,5.7,-9999,-9
21/11/2013 11:00,2.000000016,340,63,NNW,Clear,10,-9,26,1027,-999,-9999,-9
21/11/2013 12:00,1.000000008,0,54,Variable,Clear,11,-11,21,1026,-999,-9999,-11
21/11/2013 13:00,2.000000016,300,61,WNW,Clear,11,-12,19,1025,-999,-9999,-12
21/11/2013 14:00,2.000000016,360,43,North,Clear,12,-12,18,1024,-999,-9999,-12
21/11/2013 15:00,1.000000008,0,50,Variable,Clear,12,-12,18,1024,-999,-9999,-12
21/11/2013 16:00,2.000000016,0,70,Variable,Clear,11,-12,19,1024,-999,-9999,-12
21/11/2013 17:00,1.000000008,150,158,SSE,Clear,8,-11,25,1025,-999,-9999,-11
21/11/2013 18:00,3.000000024,190,141,South,Clear,8,-9,29,1025,6.1,-9999,-9
21/11/2013 19:00,2.000000016,200,166,SSW,Unknown,9,-9,27,1025,-999,8,-9
21/11/2013 20:00,1.000000008,0,206,Variable,Unknown,4,-7,45,1026,-999,8,-7
21/11/2013 21:00,1.000000008,0,218,Variable,Unknown,2,-7,52,1026,-999,7,-7
21/11/2013 22:00,1.000000008,0,226,Variable,Unknown,1,-7,56,1027,-999,6,-7
21/11/2013 23:00,1.000000008,60,232,ENE,Haze,0,-6,64,1027,-999,5,-6
22/11/2013 0:00,0,0,239,North,Haze,0,-7,60,1027,-999,5,-7
22/11/2013 1:00,2.000000016,350,230,North,Unknown,-1,-7,64,1027,-3.6,6,-7
22/11/2013 2:00,2.000000016,360,165,North,Unknown,-1,-7,64,1027,-3.6,7,-7
22/11/2013 3:00,2.000000016,310,163,NW,Unknown,-1,-8,60,1027,-3.6,8,-8
22/11/2013 4:00,3.000000024,350,128,North,Clear,-2,-8,64,1027,-5.9,-9999,-8
22/11/2013 5:00,2.000000016,320,69,NW,Clear,-1,-8,60,1026,-3.6,-9999,-8
22/11/2013 6:00,2.000000016,330,54,NNW,Clear,-2,-8,64,1026,-4.8,-9999,-8
22/11/2013 7:00,3.000000024,350,57,North,Clear,-2,-8,64,1026,-5.9,-9999,-8
22/11/2013 8:00,4.000000032,350,58,North,Clear,0,-6,64,1026,-4.3,-9999,-6
22/11/2013 9:00,3.000000024,350,68,North,Clear,4,-8,42,1027,1.3,-9999,-8
22/11/2013 10:00,3.000000024,340,59,NNW,Clear,7,-10,29,1026,4.9,-9999,-10
22/11/2013 11:00,2.000000016,340,63,NNW,Clear,10,-10,24,1025,-999,-9999,-10
22/11/2013 12:00,2.000000016,0,74,Variable,Clear,10,-11,22,1024,-999,-9999,-11
22/11/2013 13:00,1.000000008,0,82,Variable,Clear,11,-11,21,1023,-999,-9999,-11
22/11/2013 14:00,2.000000016,0,125,Variable,Clear,12,-11,19,1022,-999,-9999,-11
22/11/2013 15:00,2.000000016,0,203,Variable,Clear,13,-10,20,1022,-999,-9999,-10
22/11/2013 16:00,3.000000024,170,176,South,Clear,11,-10,22,1021,-999,-9999,-10
22/11/2013 17:00,4.000000032,180,185,South,Haze,10,-8,28,1021,-999,5,-8
22/11/2013 18:00,3.000000024,180,212,South,Haze,7,-8,34,1022,4.9,5,-8
22/11/2013 19:00,2.000000016,190,323,South,Haze,8,-8,32,1022,6.9,5,-8
22/11/2013 20:00,2.000000016,190,347,South,Haze,7,-8,34,1022,5.7,4.5,-8
22/11/2013 21:00,1.000000008,0,352,Variable,Haze,4,-5,52,1022,-999,3.5,-5
22/11/2013 22:00,1.000000008,0,365,Variable,Haze,3,-5,56,1022,-999,-9999,-5
22/11/2013 23:00,1.000000008,0,383,Variable,Haze,1,-5,65,1022,-999,-9999,-5
23/11/2013 0:00,2.000000016,60,314,ENE,Haze,0,-6,64,1022,-2.5,3,-6
23/11/2013 1:00,1.000000008,0,,Variable,Haze,0,-5,69,1022,-999,3,-5
23/11/2013 2:00,0,0,387,North,Haze,0,-4,75,1021,-999,-9999,-4
23/11/2013 3:00,2.000000016,360,394,North,Haze,-1,-5,75,1021,-3.6,-9999,-5
23/11/2013 4:00,3.000000024,350,280,North,Haze,-1,-6,69,1021,-4.7,4.5,-6
23/11/2013 5:00,2.000000016,360,218,North,Haze,-2,-7,69,1021,-4.8,5,-7
23/11/2013 6:00,3.000000024,360,201,North,Haze,-2,-7,69,1021,-5.9,5,-7
23/11/2013 7:00,1.000000008,20,163,NNE,Unknown,-2,-7,69,1021,-999,6,-7
23/11/2013 8:00,1.000000008,0,147,Variable,Unknown,0,-6,64,1022,-999,6,-6
23/11/2013 9:00,3.000000024,350,143,North,Unknown,4,-6,49,1022,1.3,6,-6
23/11/2013 10:00,1.000000008,0,153,Variable,Unknown,6,-6,42,1021,-999,6,-6
23/11/2013 11:00,3.000000024,30,145,NNE,Unknown,9,-8,30,1020,-999,7,-8
23/11/2013 12:00,3.000000024,30,122,NNE,Unknown,12,-8,24,1019,-999,7,-8
23/11/2013 13:00,4.000000032,340,107,NNW,Unknown,16,-11,15,1019,-999,8,-11
23/11/2013 14:00,4.000000032,350,141,North,Clear,16,-11,15,1018,-999,-9999,-11
23/11/2013 15:00,3.000000024,340,199,NNW,Clear,16,-11,15,1018,-999,-9999,-11
23/11/2013 16:00,4.000000032,290,222,WNW,Clear,15,-12,15,1018,-999,-9999,-12
23/11/2013 17:00,4.000000032,240,249,WSW,Haze,13,-7,25,1019,-999,5,-7
23/11/2013 18:00,3.000000024,270,267,West,Haze,12,-7,26,1019,-999,5,-7
23/11/2013 19:00,1.000000008,0,271,Variable,Haze,8,-6,37,1019,-999,5,-6
23/11/2013 20:00,1.000000008,0,273,Variable,Haze,7,-6,39,1019,-999,4,-6
23/11/2013 21:00,1.000000008,0,256,Variable,Haze,6,-5,46,1019,-999,4,-5
23/11/2013 22:00,1.000000008,0,218,Variable,Haze,4,-4,56,1020,-999,4,-4
23/11/2013 23:00,0,0,229,North,Haze,4,-4,56,1020,-999,3,-4
24/11/2013 0:00,1.000000008,50,251,NE,Haze,3,-4,60,1020,-999,3,-4
24/11/2013 1:00,1.000000008,0,303,Variable,Haze,3,-4,60,1019,-999,4,-4
24/11/2013 2:00,1.000000008,0,347,Variable,Haze,3,-4,60,1019,-999,4,-4
24/11/2013 3:00,2.000000016,340,210,NNW,Haze,3,-5,56,1018,1,5,-5
24/11/2013 4:00,1.000000008,0,98,Variable,Unknown,5,-7,42,1018,-999,7,-7
24/11/2013 5:00,2.000000016,350,49,North,Clear,3,-6,52,1018,1,-9999,-6
24/11/2013 6:00,2.000000016,350,41,North,Clear,4,-6,49,1017,2.2,-9999,-6
24/11/2013 7:00,4.000000032,360,47,North,Clear,4,-5,52,1017,0.6,-9999,-5
24/11/2013 8:00,4.000000032,360,42,North,Clear,6,-7,39,1017,3.1,-9999,-7
24/11/2013 9:00,4.000000032,360,46,North,Clear,7,-8,34,1017,4.3,-9999,-8
24/11/2013 10:00,3.000000024,340,46,NNW,Clear,9,-10,25,1017,-999,-9999,-10
24/11/2013 11:00,3.000000024,350,58,North,Clear,9,-10,25,1016,-999,-9999,-10
24/11/2013 12:00,5.00000004,330,63,NNW,Clear,10,-14,17,1015,-999,-9999,-14
24/11/2013 13:00,6.000000048,320,69,NW,Clear,10,-15,16,1014,-999,-9999,-15
24/11/2013 14:00,5.00000004,330,71,NNW,Clear,11,-15,15,1013,-999,-9999,-15
24/11/2013 15:00,6.000000048,320,79,NW,Clear,10,-16,15,1012,-999,-9999,-16
24/11/2013 16:00,5.00000004,340,78,NNW,Clear,10,-16,15,1012,-999,-9999,-16
24/11/2013 17:00,1.000000008,0,74,Variable,Clear,7,-14,21,1012,-999,-9999,-14
24/11/2013 18:00,1.000000008,0,69,Variable,Clear,4,-10,36,1012,-999,-9999,-10
24/11/2013 19:00,2.000000016,10,68,North,Clear,3,-10,38,1013,1,-9999,-10
24/11/2013 20:00,4.000000032,330,70,NNW,Clear,8,-14,20,1013,5.6,-9999,-14
24/11/2013 21:00,9.000000072,320,38,NW,Clear,8,-14,20,1013,3.8,-9999,-14
24/11/2013 22:00,11.00000009,310,23,NW,Clear,7,-14,21,1014,2,-9999,-14
24/11/2013 23:00,9.000000072,320,15,NW,Clear,6,-13,25,1014,1.2,-9999,-13
25/11/2013 0:00,11.00000009,310,16,NW,Clear,6,-13,25,1015,0.7,-9999,-13
25/11/2013 1:00,7.000000056,320,24,NW,Clear,5,-13,26,1015,0.5,-9999,-13
25/11/2013 2:00,8.000000064,320,19,NW,Clear,5,-14,24,1015,0.2,-9999,-14
25/11/2013 3:00,6.000000048,310,11,NW,Clear,4,-13,28,1015,-0.4,-9999,-13
25/11/2013 4:00,6.000000048,330,18,NNW,Clear,4,-13,28,1016,-0.4,-9999,-13
25/11/2013 5:00,8.000000064,320,18,NW,Clear,4,-14,26,1016,-1.1,-9999,-14
25/11/2013 6:00,7.000000056,320,16,NW,Clear,3,-16,24,1017,-2.1,-9999,-16
25/11/2013 7:00,8.000000064,330,17,NNW,Clear,3,-16,24,1018,-2.4,-9999,-16
25/11/2013 8:00,6.000000048,330,19,NNW,Clear,3,-17,22,1019,-1.6,-9999,-17
25/11/2013 9:00,9.000000072,320,27,NW,Clear,4,-19,17,1020,-1.4,-9999,-19
25/11/2013 10:00,9.000000072,340,13,NNW,Clear,6,-21,13,1020,1.2,-9999,-21
25/11/2013 11:00,7.000000056,330,16,NNW,Clear,7,-18,15,1020,3.1,-9999,-18
25/11/2013 12:00,5.00000004,290,13,WNW,Clear,6,-17,18,1018,2.6,-9999,-17
25/11/2013 13:00,6.000000048,290,17,WNW,Clear,7,-17,17,1018,3.4,-9999,-17
25/11/2013 14:00,8.000000064,290,17,WNW,Clear,7,-19,14,1017,2.8,-9999,-19
25/11/2013 15:00,8.000000064,290,14,WNW,Clear,7,-20,13,1017,2.8,-9999,-20
25/11/2013 16:00,9.000000072,290,11,WNW,Clear,7,-21,12,1017,2.5,-9999,-21
25/11/2013 17:00,7.000000056,290,14,WNW,Clear,6,-21,13,1017,1.8,-9999,-21
25/11/2013 18:00,5.00000004,290,11,WNW,Clear,6,-21,13,1018,2.6,-9999,-21
25/11/2013 19:00,3.000000024,280,96,West,Clear,6,-21,13,1018,3.7,-9999,-21
25/11/2013 20:00,1.000000008,0,16,Variable,Clear,2,-17,24,1018,-999,-9999,-17
25/11/2013 21:00,0,0,29,North,Clear,1,-16,28,1018,-999,-9999,-16
25/11/2013 22:00,1.000000008,0,59,Variable,Clear,0,-16,30,1017,-999,-9999,-16
25/11/2013 23:00,1.000000008,0,67,Variable,Unknown,-1,-12,44,1017,-999,8,-12
26/11/2013 0:00,1.000000008,0,61,Variable,Unknown,-3,-10,59,1017,-999,8,-10
26/11/2013 1:00,1.000000008,0,97,Variable,Unknown,-3,-13,47,1017,-999,6,-13
26/11/2013 2:00,1.000000008,0,78,Variable,Unknown,-3,-13,47,1017,-999,6,-13
26/11/2013 3:00,2.000000016,340,51,NNW,Unknown,-4,-14,46,1017,-7.1,7,-14
26/11/2013 4:00,1.000000008,0,32,Variable,Unknown,-3,-14,43,1017,-999,7,-14
26/11/2013 5:00,1.000000008,270,26,West,Unknown,-5,-13,54,1017,-999,7,-13
26/11/2013 6:00,1.000000008,20,25,NNE,Clear,-5,-11,63,1017,-999,-9999,-11
26/11/2013 7:00,1.000000008,0,21,Variable,Clear,-4,-11,59,1018,-999,-9999,-11
26/11/2013 8:00,3.000000024,360,17,North,Clear,-3,-13,47,1019,-7.1,-9999,-13
26/11/2013 9:00,3.000000024,10,16,North,Clear,3,-17,22,1019,0.1,-9999,-17
26/11/2013 10:00,3.000000024,30,16,NNE,Clear,4,-20,16,1019,1.3,-9999,-20
26/11/2013 11:00,3.000000024,310,13,NW,Clear,6,-21,13,1019,3.7,-9999,-21
26/11/2013 12:00,4.000000032,320,17,NW,Clear,8,-20,12,1018,5.6,-9999,-20
26/11/2013 13:00,6.000000048,300,22,WNW,Clear,7,-22,11,1017,3.4,-9999,-22
26/11/2013 14:00,9.000000072,290,24,WNW,Clear,7,-22,11,1017,2.5,-9999,-22
26/11/2013 15:00,10.00000008,280,16,West,Clear,6,-26,8,1017,0.9,-9999,-26
26/11/2013 16:00,10.00000008,290,10,WNW,Clear,6,-26,8,1017,0.9,-9999,-26
26/11/2013 17:00,8.000000064,290,8,WNW,Clear,5,-27,8,1018,0.2,-9999,-27
26/11/2013 18:00,8.000000064,300,19,WNW,Clear,4,-29,7,1019,-1.1,-9999,-29
26/11/2013 19:00,8.000000064,330,26,NNW,Clear,2,-29,8,1021,-3.7,-9999,-29
26/11/2013 20:00,9.000000072,340,12,NNW,Clear,1,-28,10,1022,-5.4,-9999,-28
26/11/2013 21:00,11.00000009,350,8,North,Clear,0,-25,14,1024,-7.3,-9999,-25
26/11/2013 22:00,8.000000064,350,7,North,Clear,-2,-24,18,1025,-8.9,-9999,-24
26/11/2013 23:00,10.00000008,340,7,NNW,Clear,-2,-24,18,1025,-9.7,-9999,-24
27/11/2013 0:00,10.00000008,350,5,North,Clear,-2,-25,16,1025,-9.7,-9999,-25
27/11/2013 1:00,8.000000064,340,6,NNW,Clear,-3,-25,17,1025,-10.2,-9999,-25
27/11/2013 2:00,8.000000064,340,3,NNW,Clear,-3,-24,19,1025,-10.2,-9999,-24
27/11/2013 3:00,6.000000048,360,5,North,Clear,-4,-21,26,1025,-10.5,-9999,-21
27/11/2013 4:00,9.000000072,350,5,North,Clear,-3,-23,21,1025,-10.6,-9999,-23
27/11/2013 5:00,11.00000009,350,6,North,Clear,-4,-26,17,1025,-12.7,-9999,-26
27/11/2013 6:00,10.00000008,340,7,NNW,Clear,-4,-26,17,1026,-12.3,-9999,-26
27/11/2013 7:00,12.0000001,330,5,NNW,Clear,-4,-26,17,1027,-13,-9999,-26
27/11/2013 8:00,12.0000001,330,3,NNW,Clear,-4,-27,16,1027,-13,-9999,-27
27/11/2013 9:00,10.00000008,330,5,NNW,Clear,-3,-26,16,1028,-11,-9999,-26
27/11/2013 10:00,12.0000001,330,6,NNW,Clear,-2,-28,12,1028,-10.3,-9999,-28
27/11/2013 11:00,12.0000001,330,13,NNW,Clear,-1,-29,10,1028,-9,-9999,-29
27/11/2013 12:00,10.00000008,340,12,NNW,Clear,0,-28,11,1028,-7,-9999,-28
27/11/2013 13:00,8.000000064,300,10,WNW,Clear,-1,-28,11,1027,-7.6,-9999,-28
27/11/2013 14:00,10.00000008,280,9,West,Clear,0,-28,11,1027,-7,-9999,-28
27/11/2013 15:00,9.000000072,290,12,WNW,Clear,0,-28,11,1027,-6.7,-9999,-28
27/11/2013 16:00,8.000000064,290,10,WNW,Clear,-1,-29,10,1027,-7.6,-9999,-29
27/11/2013 17:00,8.000000064,300,8,WNW,Clear,-1,-29,10,1027,-7.6,-9999,-29
27/11/2013 18:00,7.000000056,310,10,NW,Clear,-1,-29,10,1028,-7.2,-9999,-29
27/11/2013 19:00,7.000000056,320,9,NW,Clear,-2,-29,11,1028,-8.5,-9999,-29
27/11/2013 20:00,7.000000056,320,9,NW,Clear,-2,-30,10,1028,-8.5,-9999,-30
27/11/2013 21:00,7.000000056,330,7,NNW,Clear,-3,-29,12,1028,-9.8,-9999,-29
27/11/2013 22:00,7.000000056,350,7,North,Clear,-3,-29,12,1029,-9.8,-9999,-29
27/11/2013 23:00,9.000000072,340,6,NNW,Clear,-3,-30,11,1029,-10.6,-9999,-30
28/11/2013 0:00,11.00000009,340,5,NNW,Clear,-3,-30,11,1029,-11.3,-9999,-30
28/11/2013 1:00,7.000000056,320,2,NW,Clear,-3,-29,12,1029,-9.8,-9999,-29
28/11/2013 2:00,4.000000032,300,4,WNW,Clear,-4,-28,14,1028,-9.2,-9999,-28
28/11/2013 3:00,5.00000004,290,4,WNW,Clear,-4,-28,14,1028,-9.9,-9999,-28
28/11/2013 4:00,5.00000004,290,4,WNW,Clear,-4,-28,14,1028,-9.9,-9999,-28
28/11/2013 5:00,7.000000056,290,10,WNW,Clear,-3,-27,14,1027,-9.8,-9999,-27
28/11/2013 6:00,7.000000056,290,11,WNW,Clear,-3,-27,14,1028,-9.8,-9999,-27
28/11/2013 7:00,7.000000056,290,10,WNW,Clear,-3,-26,16,1028,-9.8,-9999,-26
28/11/2013 8:00,6.000000048,310,10,NW,Clear,-2,-26,15,1029,-8,-9999,-26
28/11/2013 9:00,8.000000064,330,13,NNW,Clear,0,-27,12,1028,-6.3,-9999,-27
28/11/2013 10:00,8.000000064,320,9,NW,Clear,1,-30,8,1028,-5,-9999,-30
28/11/2013 11:00,9.000000072,310,9,NW,Clear,3,-32,6,1027,-2.8,-9999,-32
28/11/2013 12:00,10.00000008,310,9,NW,Clear,4,-33,5,1026,-1.7,-9999,-33
28/11/2013 13:00,9.000000072,290,23,WNW,Clear,4,-31,6,1025,-1.4,-9999,-31
28/11/2013 14:00,8.000000064,290,13,WNW,Clear,6,-30,6,1024,1.5,-9999,-30
28/11/2013 15:00,10.00000008,290,10,WNW,Clear,5,-28,8,1024,-0.4,-9999,-28
28/11/2013 16:00,8.000000064,300,10,WNW,Clear,6,-28,7,1024,1.5,-9999,-28
28/11/2013 17:00,5.00000004,290,33,WNW,Clear,6,-24,10,1024,2.6,-9999,-24
28/11/2013 18:00,5.00000004,300,59,WNW,Clear,5,-21,14,1024,1.3,-9999,-21
28/11/2013 19:00,3.000000024,280,91,West,Clear,6,-19,15,1024,3.7,-9999,-19
28/11/2013 20:00,5.00000004,300,85,WNW,Clear,6,-19,15,1024,2.6,-9999,-19
28/11/2013 21:00,3.000000024,280,88,West,Clear,5,-18,18,1024,2.5,-9999,-18
28/11/2013 22:00,6.000000048,300,94,WNW,Clear,6,-18,16,1024,2.2,-9999,-18
28/11/2013 23:00,6.000000048,300,46,WNW,Clear,6,-18,16,1024,2.2,-9999,-18
29/11/2013 0:00,5.00000004,330,33,NNW,Clear,4,-18,19,1024,0.1,-9999,-18
29/11/2013 1:00,5.00000004,360,38,North,Clear,-1,-16,32,1023,-6.2,-9999,-16
29/11/2013 2:00,1.000000008,0,25,Variable,Clear,-2,-14,40,1023,-999,-9999,-14
29/11/2013 3:00,3.000000024,360,21,North,Clear,-3,-16,37,1023,-7.1,-9999,-16
29/11/2013 4:00,3.000000024,350,27,North,Clear,-4,-16,40,1023,-8.3,-9999,-16
29/11/2013 5:00,2.000000016,360,19,North,Clear,-3,-15,40,1023,-5.9,-9999,-15
29/11/2013 6:00,2.000000016,360,27,North,Clear,-3,-14,43,1022,-5.9,-9999,-14
29/11/2013 7:00,4.000000032,360,37,North,Clear,-4,-14,46,1022,-9.2,-9999,-14
29/11/2013 8:00,1.000000008,0,65,Variable,Clear,-1,-12,44,1023,-999,-9999,-12
29/11/2013 9:00,1.000000008,0,63,Variable,Clear,5,-14,24,1023,-999,-9999,-14
29/11/2013 10:00,3.000000024,300,39,WNW,Clear,8,-18,14,1022,6.1,-9999,-18
29/11/2013 11:00,3.000000024,260,37,West,Clear,10,-18,13,1021,-999,-9999,-18
29/11/2013 12:00,3.000000024,270,33,West,Clear,10,-17,14,1020,-999,-9999,-17
29/11/2013 13:00,4.000000032,270,32,West,Clear,12,-17,12,1018,-999,-9999,-17
29/11/2013 14:00,5.00000004,250,77,WSW,Clear,13,-17,11,1018,-999,-9999,-17
29/11/2013 15:00,4.000000032,220,74,SW,Clear,12,-18,11,1017,-999,-9999,-18
29/11/2013 16:00,4.000000032,200,56,SSW,Clear,11,-18,12,1016,-999,-9999,-18
29/11/2013 17:00,3.000000024,220,122,SW,Clear,10,-18,13,1017,-999,-9999,-18
29/11/2013 18:00,5.00000004,240,128,WSW,Clear,10,-17,14,1017,-999,-9999,-17
29/11/2013 19:00,5.00000004,250,105,WSW,Clear,9,-15,17,1017,-999,-9999,-15
29/11/2013 20:00,4.000000032,240,94,WSW,Clear,8,-14,20,1017,5.6,-9999,-14
29/11/2013 21:00,4.000000032,240,90,WSW,Clear,8,-14,20,1017,5.6,-9999,-14
29/11/2013 22:00,2.000000016,300,90,WNW,Unknown,7,-14,21,1017,5.7,7,-14
29/11/2013 23:00,1.000000008,0,97,Variable,Unknown,2,-12,35,1017,-999,6,-12
30/11/2013 0:00,1.000000008,0,109,Variable,Unknown,0,-12,41,1017,-999,7,-12
30/11/2013 1:00,1.000000008,0,95,Variable,Unknown,1,-13,35,1017,-999,7,-13
30/11/2013 2:00,5.00000004,340,61,NNW,Unknown,2,-13,33,1018,-2.4,7,-13
30/11/2013 3:00,4.000000032,340,34,NNW,Clear,-1,-10,51,1019,-5.5,-9999,-10
30/11/2013 4:00,4.000000032,350,38,North,Clear,-1,-10,51,1019,-5.5,-9999,-10
30/11/2013 5:00,5.00000004,350,40,North,Clear,0,-11,44,1020,-4.9,-9999,-11
30/11/2013 6:00,4.000000032,340,31,NNW,Clear,0,-12,41,1021,-4.3,-9999,-12
30/11/2013 7:00,3.000000024,350,22,North,Clear,-1,-12,44,1022,-4.7,-9999,-12
30/11/2013 8:00,6.000000048,340,24,NNW,Clear,3,-14,28,1023,-1.6,-9999,-14
30/11/2013 9:00,3.000000024,20,25,NNE,Clear,6,-15,21,1024,3.7,-9999,-15
30/11/2013 10:00,4.000000032,10,20,North,Clear,8,-18,14,1024,5.6,-9999,-18
30/11/2013 11:00,6.000000048,350,15,North,Clear,10,-17,14,1025,-999,-9999,-17
30/11/2013 12:00,3.000000024,10,12,North,Clear,10,-17,14,1024,-999,-9999,-17
30/11/2013 13:00,4.000000032,350,14,North,Clear,11,-17,13,1024,-999,-9999,-17
30/11/2013 14:00,3.000000024,50,16,NE,Clear,10,-18,13,1023,-999,-9999,-18
30/11/2013 15:00,2.000000016,70,20,ENE,Clear,10,-19,12,1023,-999,-9999,-19
30/11/2013 16:00,2.000000016,80,24,East,Clear,9,-20,11,1024,-999,-9999,-20
30/11/2013 17:00,1.000000008,10,23,North,Clear,6,-20,14,1024,-999,-9999,-20
30/11/2013 18:00,1.000000008,0,29,Variable,Clear,4,-19,17,1025,-999,-9999,-19
30/11/2013 19:00,2.000000016,350,35,North,Clear,1,-17,25,1025,-1.3,-9999,-17
30/11/2013 20:00,1.000000008,0,56,Variable,Clear,3,-18,20,1026,-999,-9999,-18
30/11/2013 21:00,1.000000008,0,36,Variable,Clear,1,-17,25,1026,-999,-9999,-17
30/11/2013 22:00,1.000000008,20,26,NNE,Clear,0,-13,38,1026,-999,-9999,-13
30/11/2013 23:00,1.000000008,0,28,Variable,Clear,4,-18,19,1026,-999,-9999,-18
1/12/2013 0:00,1.000000008,30,28,NNE,Clear,-2,-13,43,1026,-999,-9999,-13
1/12/2013 1:00,3.000000024,360,36,North,Clear,-3,-14,43,1025,-7.1,-9999,-14
1/12/2013 2:00,1.000000008,20,46,NNE,Clear,-3,-13,47,1025,-999,-9999,-13
1/12/2013 3:00,1.000000008,0,57,Variable,Clear,-4,-13,50,1025,-999,-9999,-13
1/12/2013 4:00,1.000000008,0,60,Variable,Clear,-3,-13,47,1025,-999,-9999,-13
1/12/2013 5:00,1.000000008,0,90,Variable,Clear,-4,-14,46,1025,-999,-9999,-14
1/12/2013 6:00,1.000000008,340,99,NNW,Clear,-6,-13,58,1025,-999,-9999,-13
1/12/2013 7:00,1.000000008,0,125,Variable,Clear,-3,-14,43,1025,-999,-9999,-14
1/12/2013 8:00,3.000000024,350,101,North,Clear,-2,-13,43,1025,-5.9,-9999,-13
1/12/2013 9:00,1.000000008,0,93,Variable,Clear,1,-14,32,1026,-999,-9999,-14
1/12/2013 10:00,1.000000008,0,69,Variable,Clear,5,-15,23,1026,-999,-9999,-15
1/12/2013 11:00,1.000000008,0,43,Variable,Clear,9,-16,16,1025,-999,-9999,-16
1/12/2013 12:00,2.000000016,300,38,WNW,Clear,9,-16,16,1023,-999,-9999,-16
1/12/2013 13:00,3.000000024,280,44,West,Clear,10,-17,14,1022,-999,-9999,-17
1/12/2013 14:00,3.000000024,250,62,WSW,Clear,11,-17,13,1021,-999,-9999,-17
1/12/2013 15:00,3.000000024,260,83,West,Clear,12,-18,11,1021,-999,-9999,-18
1/12/2013 16:00,3.000000024,240,80,WSW,Clear,11,-17,13,1020,-999,-9999,-17
1/12/2013 17:00,3.000000024,200,63,SSW,Clear,9,-15,17,1020,-999,-9999,-15
1/12/2013 18:00,3.000000024,210,102,SSW,Clear,8,-14,20,1021,6.1,-9999,-14
1/12/2013 19:00,4.000000032,210,130,SSW,Clear,8,-13,22,1021,5.6,-9999,-13
1/12/2013 20:00,2.000000016,180,154,South,Clear,4,-12,31,1021,2.2,-9999,-12
1/12/2013 21:00,1.000000008,0,135,Variable,Unknown,1,-11,41,1021,-999,7,-11
1/12/2013 22:00,2.000000016,330,134,NNW,Unknown,2,-10,41,1021,-0.1,7,-10
1/12/2013 23:00,1.000000008,20,161,NNE,Unknown,-2,-10,55,1021,-999,6,-10
2/12/2013 0:00,1.000000008,30,219,NNE,Haze,-3,-10,59,1021,-999,5,-10
2/12/2013 1:00,2.000000016,360,202,North,Unknown,-3,-10,59,1020,-5.9,6,-10
2/12/2013 2:00,2.000000016,350,138,North,Unknown,-3,-9,64,1020,-5.9,7,-9
2/12/2013 3:00,3.000000024,340,107,NNW,Unknown,-4,-11,59,1020,-8.3,7,-11
2/12/2013 4:00,2.000000016,10,84,North,Unknown,-2,-12,47,1019,-4.8,8,-12
2/12/2013 5:00,3.000000024,350,97,North,Clear,-5,-11,63,1019,-9.5,-9999,-11
2/12/2013 6:00,1.000000008,0,109,Variable,Clear,-4,-11,59,1019,-999,-9999,-11
2/12/2013 7:00,3.000000024,350,140,North,Clear,-4,-12,54,1019,-8.3,-9999,-12
2/12/2013 8:00,3.000000024,330,69,NNW,Clear,0,-11,44,1019,-3.5,-9999,-11
2/12/2013 9:00,3.000000024,350,76,North,Clear,2,-12,35,1020,-1.1,-9999,-12
2/12/2013 10:00,2.000000016,340,77,NNW,Clear,5,-13,26,1019,3.4,-9999,-13
2/12/2013 11:00,2.000000016,0,87,Variable,Clear,7,-15,20,1019,5.7,-9999,-15
2/12/2013 12:00,2.000000016,350,96,North,Clear,10,-16,15,1018,-999,-9999,-16
2/12/2013 13:00,1.000000008,0,88,Variable,Clear,10,-15,16,1018,-999,-9999,-15
2/12/2013 14:00,1.000000008,0,71,Variable,Clear,12,-15,14,1017,-999,-9999,-15
2/12/2013 15:00,1.000000008,0,93,Variable,Clear,11,-15,15,1017,-999,-9999,-15
2/12/2013 16:00,2.000000016,210,117,SSW,Clear,11,-16,14,1017,-999,-9999,-16
2/12/2013 17:00,1.000000008,0,138,Variable,Clear,6,-13,25,1017,-999,-9999,-13
2/12/2013 18:00,0,0,190,North,Unknown,4,-11,33,1018,-999,8,-11
2/12/2013 19:00,1.000000008,50,197,NE,Unknown,1,-11,41,1018,-999,7,-11
2/12/2013 20:00,1.000000008,120,213,ESE,Unknown,1,-12,38,1019,-999,6,-12
2/12/2013 21:00,2.000000016,10,211,North,Unknown,-1,-11,47,1020,-3.6,6,-11
2/12/2013 22:00,1.000000008,0,226,Variable,Unknown,1,-12,38,1020,-999,6,-12
2/12/2013 23:00,1.000000008,0,233,Variable,Unknown,1,-11,41,1020,-999,6,-11
3/12/2013 0:00,4.000000032,340,225,NNW,Unknown,2,-11,38,1021,-1.8,6,-11
3/12/2013 1:00,3.000000024,360,159,North,Unknown,-1,-11,47,1020,-4.7,7,-11
3/12/2013 2:00,4.000000032,350,115,North,Clear,-3,-11,55,1021,-8,-9999,-11
3/12/2013 3:00,3.000000024,350,87,North,Clear,-3,-11,55,1021,-7.1,-9999,-11
3/12/2013 4:00,3.000000024,360,73,North,Clear,-3,-11,55,1021,-7.1,-9999,-11
3/12/2013 5:00,3.000000024,360,60,North,Clear,-2,-11,51,1021,-5.9,-9999,-11
3/12/2013 6:00,3.000000024,350,74,North,Clear,-3,-11,55,1021,-7.1,-9999,-11
3/12/2013 7:00,0,0,82,North,Clear,-2,-11,51,1022,-999,-9999,-11
3/12/2013 8:00,2.000000016,20,73,NNE,Clear,0,-12,41,1023,-2.5,-9999,-12
3/12/2013 9:00,3.000000024,10,50,North,Clear,7,-10,29,1024,4.9,-9999,-10
3/12/2013 10:00,3.000000024,20,56,NNE,Clear,10,-14,17,1024,-999,-9999,-14
3/12/2013 11:00,2.000000016,350,48,North,Clear,11,-14,16,1024,-999,-9999,-14
3/12/2013 12:00,3.000000024,340,33,NNW,Clear,13,-15,13,1023,-999,-9999,-15
3/12/2013 13:00,3.000000024,330,30,NNW,Clear,14,-14,13,1022,-999,-9999,-14
3/12/2013 14:00,2.000000016,300,28,WNW,Clear,14,-14,13,1021,-999,-9999,-14
3/12/2013 15:00,4.000000032,310,30,NW,Clear,15,-14,13,1021,-999,-9999,-14
3/12/2013 16:00,4.000000032,300,33,WNW,Clear,14,-15,12,1021,-999,-9999,-15
3/12/2013 17:00,4.000000032,290,46,WNW,Clear,13,-16,12,1021,-999,-9999,-16
3/12/2013 18:00,3.000000024,260,74,West,Clear,12,-16,13,1021,-999,-9999,-16
3/12/2013 19:00,3.000000024,280,136,West,Clear,11,-15,15,1021,-999,-9999,-15
3/12/2013 20:00,2.000000016,0,152,Variable,Clear,11,-15,15,1021,-999,-9999,-15
3/12/2013 21:00,2.000000016,310,159,NW,Clear,10,-14,17,1021,-999,-9999,-14
3/12/2013 22:00,3.000000024,240,164,WSW,Unknown,10,-11,22,1021,-999,8,-11
3/12/2013 23:00,2.000000016,0,167,Variable,Unknown,6,-12,27,1021,4.5,7,-12
4/12/2013 0:00,1.000000008,0,180,Variable,Haze,3,-10,38,1021,-999,5,-10
4/12/2013 1:00,2.000000016,350,187,North,Haze,-1,-9,55,1021,-3.6,5,-9
4/12/2013 2:00,3.000000024,360,163,North,Haze,-1,-10,51,1021,-4.7,5,-10
4/12/2013 3:00,0,0,185,North,Unknown,-1,-10,51,1021,-999,6,-10
4/12/2013 4:00,0,0,159,North,Unknown,-3,-9,64,1020,-999,7,-9
4/12/2013 5:00,1.000000008,0,139,Variable,Unknown,-2,-8,64,1020,-999,7,-8
4/12/2013 6:00,1.000000008,0,151,Variable,Clear,-2,-8,64,1020,-999,-9999,-8
4/12/2013 7:00,2.000000016,340,113,NNW,Clear,-3,-9,64,1020,-5.9,-9999,-9
4/12/2013 8:00,3.000000024,350,137,North,Clear,-1,-8,60,1021,-4.7,-9999,-8
4/12/2013 9:00,1.000000008,0,92,Variable,Clear,3,-9,41,1021,-999,-9999,-9
4/12/2013 10:00,4.000000032,360,71,North,Clear,8,-11,25,1021,5.6,-9999,-11
4/12/2013 11:00,3.000000024,20,73,NNE,Clear,11,-12,19,1020,-999,-9999,-12
4/12/2013 12:00,3.000000024,30,68,NNE,Clear,11,-13,18,1019,-999,-9999,-13
4/12/2013 13:00,2.000000016,40,47,NE,Clear,12,-13,16,1018,-999,-9999,-13
4/12/2013 14:00,3.000000024,40,41,NE,Clear,14,-13,14,1018,-999,-9999,-13
4/12/2013 15:00,2.000000016,60,43,ENE,Clear,14,-13,14,1018,-999,-9999,-13
4/12/2013 16:00,3.000000024,70,56,ENE,Clear,12,-12,18,1018,-999,-9999,-12
4/12/2013 17:00,1.000000008,0,69,Variable,Clear,9,-12,22,1018,-999,-9999,-12
4/12/2013 18:00,1.000000008,0,83,Variable,Clear,5,-11,31,1018,-999,-9999,-11
4/12/2013 19:00,1.000000008,20,130,NNE,Unknown,5,-11,31,1019,-999,7,-11
4/12/2013 20:00,0,0,175,North,Unknown,5,-9,36,1019,-999,6,-9
4/12/2013 21:00,1.000000008,0,155,Variable,Unknown,3,-9,41,1020,-999,6,-9
4/12/2013 22:00,2.000000016,340,106,NNW,Unknown,4,-9,39,1020,2.2,6,-9
4/12/2013 23:00,2.000000016,350,83,North,Unknown,4,-9,39,1020,2.2,6,-9
5/12/2013 0:00,1.000000008,0,122,Variable,Unknown,4,-9,39,1021,-999,6,-9
5/12/2013 1:00,1.000000008,0,162,Variable,Unknown,3,-8,45,1021,-999,6,-8
5/12/2013 2:00,2.000000016,360,142,North,Unknown,2,-8,48,1022,-0.1,7,-8
5/12/2013 3:00,2.000000016,50,70,NE,Clear,2,-8,48,1022,-0.1,-9999,-8
5/12/2013 4:00,6.000000048,30,33,NNE,Clear,6,-12,27,1022,2.2,-9999,-12
5/12/2013 5:00,2.000000016,350,25,North,Clear,3,-13,30,1023,1,-9999,-13
5/12/2013 6:00,3.000000024,10,39,North,Clear,2,-11,38,1024,-1.1,-9999,-11
5/12/2013 7:00,5.00000004,30,33,NNE,Clear,4,-11,33,1025,0.1,-9999,-11
5/12/2013 8:00,4.000000032,10,27,North,Clear,4,-12,31,1026,0.6,-9999,-12
5/12/2013 9:00,3.000000024,10,25,North,Clear,6,-14,23,1027,3.7,-9999,-14
5/12/2013 10:00,3.000000024,10,12,North,Clear,8,-17,16,1027,6.1,-9999,-17
5/12/2013 11:00,4.000000032,20,9,NNE,Clear,9,-18,13,1027,-999,-9999,-18
5/12/2013 12:00,3.000000024,360,10,North,Clear,9,-17,15,1026,-999,-9999,-17
5/12/2013 13:00,3.000000024,50,11,NE,Clear,9,-17,15,1025,-999,-9999,-17
5/12/2013 14:00,3.000000024,20,11,NNE,Clear,10,-17,14,1024,-999,-9999,-17
5/12/2013 15:00,1.000000008,0,13,Variable,Clear,10,-17,14,1023,-999,-9999,-17
5/12/2013 16:00,2.000000016,100,17,East,Clear,8,-18,14,1023,6.9,-9999,-18
5/12/2013 17:00,1.000000008,130,32,SE,Clear,6,-16,19,1023,-999,-9999,-16
5/12/2013 18:00,1.000000008,0,62,Variable,Clear,3,-15,26,1023,-999,-9999,-15
5/12/2013 19:00,2.000000016,160,42,SSE,Clear,3,-15,26,1023,1,-9999,-15
5/12/2013 20:00,2.000000016,150,59,SSE,Clear,4,-16,22,1023,2.2,-9999,-16
5/12/2013 21:00,2.000000016,170,66,South,Clear,3,-15,26,1022,1,-9999,-15
5/12/2013 22:00,2.000000016,150,77,SSE,Clear,0,-14,35,1022,-2.5,-9999,-14
5/12/2013 23:00,1.000000008,0,84,Variable,Clear,-1,-11,47,1022,-999,-9999,-11
6/12/2013 0:00,1.000000008,0,91,Variable,Unknown,-2,-12,47,1022,-999,7,-12
6/12/2013 1:00,1.000000008,0,112,Variable,Unknown,-2,-11,51,1021,-999,7,-11
6/12/2013 2:00,2.000000016,360,130,North,Unknown,-4,-11,59,1021,-7.1,6,-11
6/12/2013 3:00,1.000000008,0,139,Variable,Unknown,-3,-11,55,1021,-999,6,-11
6/12/2013 4:00,1.000000008,350,155,North,Unknown,-4,-12,54,1021,-999,6,-12
6/12/2013 5:00,1.000000008,20,163,NNE,Unknown,-5,-11,63,1020,-999,6,-11
6/12/2013 6:00,2.000000016,360,141,North,Unknown,-4,-11,59,1020,-7.1,6,-11
6/12/2013 7:00,1.000000008,0,182,Variable,Unknown,-5,-11,63,1020,-999,6,-11
6/12/2013 8:00,2.000000016,10,138,North,Unknown,-5,-11,63,1021,-8.3,6,-11
6/12/2013 9:00,1.000000008,0,119,Variable,Unknown,0,-9,51,1021,-999,6,-9
6/12/2013 10:00,1.000000008,0,135,Variable,Unknown,3,-11,36,1021,-999,6,-11
6/12/2013 11:00,1.000000008,0,159,Variable,Unknown,5,-11,31,1020,-999,6,-11
6/12/2013 12:00,2.000000016,310,122,NW,Unknown,7,-12,25,1019,5.7,7,-12
6/12/2013 13:00,1.000000008,0,81,Variable,Unknown,9,-12,22,1018,-999,8,-12
6/12/2013 14:00,1.000000008,0,167,Variable,Clear,10,-12,20,1017,-999,-9999,-12
6/12/2013 15:00,1.000000008,0,246,Variable,Clear,10,-12,20,1017,-999,-9999,-12
6/12/2013 16:00,2.000000016,180,224,South,Haze,9,-9,27,1017,-999,4,-9
6/12/2013 17:00,4.000000032,190,115,South,Haze,8,-8,32,1018,5.6,4,-8
6/12/2013 18:00,1.000000008,0,124,Variable,Haze,5,-6,45,1018,-999,5,-6
6/12/2013 19:00,1.000000008,0,152,Variable,Haze,3,-6,52,1019,-999,5,-6
6/12/2013 20:00,2.000000016,70,170,ENE,Haze,-1,-7,64,1019,-3.6,5,-7
6/12/2013 21:00,0,0,269,North,Haze,1,-5,65,1019,-999,5,-5
6/12/2013 22:00,1.000000008,70,294,ENE,Haze,-1,-5,75,1020,-999,5,-5
6/12/2013 23:00,1.000000008,90,330,East,Mist,-2,-6,74,1020,-999,5,-6
7/12/2013 0:00,1.000000008,90,407,East,Mist,-2,-6,74,1020,-999,5,-6
7/12/2013 1:00,1.000000008,350,430,North,Mist,-3,-7,74,1019,-999,5,-7
7/12/2013 2:00,0,0,415,North,Mist,-3,-6,80,1020,-999,5,-6
7/12/2013 3:00,0,0,343,North,Mist,-3,-7,74,1020,-999,5,-7
7/12/2013 4:00,2.000000016,350,320,North,Mist,-4,-7,80,1020,-7.1,5,-7
7/12/2013 5:00,2.000000016,360,244,North,Unknown,-4,-8,74,1020,-7.1,6,-8
7/12/2013 6:00,1.000000008,0,197,Variable,Unknown,-4,-8,74,1020,-999,7,-8
7/12/2013 7:00,1.000000008,0,172,Variable,Unknown,-4,-8,74,1020,-999,7,-8
7/12/2013 8:00,2.000000016,360,156,North,Unknown,-4,-8,74,1021,-7.1,6,-8
7/12/2013 9:00,2.000000016,10,166,North,Unknown,-1,-7,64,1021,-3.6,6,-7
7/12/2013 10:00,1.000000008,0,203,Variable,Haze,2,-7,52,1022,-999,5,-7
7/12/2013 11:00,1.000000008,0,277,Variable,Haze,4,-7,45,1021,-999,4.5,-7
7/12/2013 12:00,2.000000016,140,290,SE,Haze,5,-5,49,1020,3.4,-9999,-5
7/12/2013 13:00,3.000000024,120,366,ESE,Haze,5,-4,53,1020,2.5,2.8,-4
7/12/2013 14:00,2.000000016,120,392,ESE,Haze,6,-4,49,1019,4.5,2.5,-4
7/12/2013 15:00,2.000000016,110,421,ESE,Haze,6,-3,53,1018,4.5,2,-3
7/12/2013 16:00,1.000000008,0,450,Variable,Haze,5,-3,57,1019,-999,2,-3
7/12/2013 17:00,1.000000008,0,443,Variable,Haze,2,-4,65,1019,-999,1.8,-4
7/12/2013 18:00,1.000000008,70,429,ENE,Haze,0,-4,75,1019,-999,1.8,-4
7/12/2013 19:00,1.000000008,70,439,ENE,Haze,0,-4,75,1019,-999,1.7,-4
7/12/2013 20:00,0,0,460,North,Haze,0,-3,80,1020,-999,1.6,-3
7/12/2013 21:00,0,0,480,North,Haze,1,-2,81,1020,-999,1.7,-2
7/12/2013 22:00,1.000000008,0,424,Variable,Haze,-1,-4,80,1020,-999,1.7,-4
7/12/2013 23:00,1.000000008,0,440,Variable,Haze,1,-3,75,1020,-999,1.7,-3
8/12/2013 0:00,1.000000008,0,403,Variable,Haze,2,-2,75,1020,-999,1.8,-2
8/12/2013 1:00,2.000000016,110,403,ESE,Haze,3,-1,75,1020,1,1.6,-1
8/12/2013 2:00,1.000000008,120,389,ESE,Haze,3,-1,75,1020,-999,1.5,-1
8/12/2013 3:00,0,0,432,North,Mist,3,-1,75,1020,-999,1.5,-1
8/12/2013 4:00,2.000000016,340,432,NNW,Mist,3,-1,75,1020,1,1.7,-1
8/12/2013 5:00,0,0,435,North,Mist,3,-1,75,1020,-999,1.7,-1
8/12/2013 6:00,2.000000016,330,403,NNW,Mist,4,-1,70,1020,2.2,1.7,-1
8/12/2013 7:00,3.000000024,350,379,North,Mist,2,-2,75,1020,-1.1,1.8,-2
8/12/2013 8:00,1.000000008,0,346,Variable,Mist,2,-2,75,1020,-999,1.7,-2
8/12/2013 9:00,2.000000016,360,354,North,Mist,3,-2,70,1021,1,1.6,-2
8/12/2013 10:00,2.000000016,30,343,NNE,Haze,5,-2,61,1021,3.4,1.8,-2
8/12/2013 11:00,2.000000016,40,266,NE,Haze,6,-3,53,1020,4.5,1.8,-3
8/12/2013 12:00,2.000000016,20,206,NNE,Haze,7,-3,49,1019,5.7,2,-3
8/12/2013 13:00,4.000000032,50,184,NE,Haze,9,-6,34,1019,-999,2.5,-6
8/12/2013 14:00,5.00000004,360,47,North,Unknown,11,-9,24,1018,-999,6,-9
8/12/2013 15:00,5.00000004,340,13,NNW,Clear,10,-11,22,1018,-999,-9999,-11
8/12/2013 16:00,8.000000064,300,15,WNW,Clear,10,-16,15,1019,-999,-9999,-16
8/12/2013 17:00,9.000000072,300,15,WNW,Clear,8,-15,18,1020,3.8,-9999,-15
8/12/2013 18:00,10.00000008,290,17,WNW,Clear,7,-15,20,1021,2.2,-9999,-15
8/12/2013 19:00,11.00000009,330,11,NNW,Clear,6,-16,19,1022,0.7,-9999,-16
8/12/2013 20:00,13.0000001,330,15,NNW,Clear,5,-16,21,1023,-1.1,-9999,-16
8/12/2013 21:00,11.00000009,330,12,NNW,Clear,4,-16,22,1024,-2,-9999,-16
8/12/2013 22:00,9.000000072,330,14,NNW,Clear,3,-16,24,1024,-2.8,-9999,-16
8/12/2013 23:00,7.000000056,330,12,NNW,Clear,3,-16,24,1024,-2.1,-9999,-16
9/12/2013 0:00,7.000000056,330,8,NNW,Clear,2,-16,26,1025,-3.3,-9999,-16
9/12/2013 1:00,7.000000056,330,8,NNW,Clear,2,-16,26,1025,-3.3,-9999,-16
9/12/2013 2:00,6.000000048,340,6,NNW,Clear,1,-16,28,1025,-4.2,-9999,-16
9/12/2013 3:00,5.00000004,350,7,North,Clear,-1,-14,37,1025,-6.2,-9999,-14
9/12/2013 4:00,8.000000064,330,8,NNW,Clear,2,-16,26,1025,-3.7,-9999,-16
9/12/2013 5:00,10.00000008,340,8,NNW,Clear,2,-17,24,1025,-4.4,-9999,-17
9/12/2013 6:00,9.000000072,330,8,NNW,Clear,1,-17,25,1025,-5.4,-9999,-17
9/12/2013 7:00,7.000000056,350,11,North,Clear,0,-17,27,1026,-5.9,-9999,-17
9/12/2013 8:00,7.000000056,350,12,North,Clear,1,-17,25,1026,-4.6,-9999,-17
9/12/2013 9:00,9.000000072,340,11,NNW,Clear,3,-17,22,1026,-2.8,-9999,-17
9/12/2013 10:00,9.000000072,340,11,NNW,Clear,4,-18,19,1026,-1.4,-9999,-18
9/12/2013 11:00,10.00000008,340,9,NNW,Clear,5,-18,18,1025,-0.4,-9999,-18
9/12/2013 12:00,8.000000064,340,17,NNW,Clear,6,-20,14,1024,1.5,-9999,-20
9/12/2013 13:00,8.000000064,320,12,NW,Clear,7,-19,14,1023,2.8,-9999,-19
9/12/2013 14:00,7.000000056,290,12,WNW,Clear,6,-19,15,1022,1.8,-9999,-19
9/12/2013 15:00,8.000000064,300,10,WNW,Clear,6,-19,15,1022,1.5,-9999,-19
9/12/2013 16:00,7.000000056,290,14,WNW,Clear,6,-19,15,1022,1.8,-9999,-19
9/12/2013 17:00,5.00000004,310,12,NW,Clear,5,-19,16,1022,1.3,-9999,-19
9/12/2013 18:00,2.000000016,20,19,NNE,Clear,2,-18,22,1022,-0.1,-9999,-18
9/12/2013 19:00,1.000000008,30,20,NNE,Clear,0,-14,35,1023,-999,-9999,-14
9/12/2013 20:00,1.000000008,0,55,Variable,Clear,-2,-12,47,1023,-999,-9999,-12
9/12/2013 21:00,1.000000008,0,68,Variable,Clear,-3,-14,43,1022,-999,-9999,-14
9/12/2013 22:00,1.000000008,0,58,Variable,Clear,-2,-14,40,1022,-999,-9999,-14
9/12/2013 23:00,2.000000016,360,63,North,Clear,-3,-14,43,1022,-5.9,-9999,-14
10/12/2013 0:00,1.000000008,10,52,North,Clear,-3,-14,43,1022,-999,-9999,-14
10/12/2013 1:00,1.000000008,0,44,Variable,Clear,-5,-13,54,1021,-999,-9999,-13
10/12/2013 2:00,2.000000016,20,60,NNE,Clear,-6,-13,58,1021,-9.4,-9999,-13
10/12/2013 3:00,3.000000024,10,64,North,Clear,-6,-14,54,1021,-10.7,-9999,-14
10/12/2013 4:00,2.000000016,360,44,North,Clear,-4,-12,54,1020,-7.1,-9999,-12
10/12/2013 5:00,2.000000016,360,38,North,Clear,-5,-13,54,1019,-8.3,-9999,-13
10/12/2013 6:00,1.000000008,350,41,North,Clear,-4,-12,54,1019,-999,-9999,-12
10/12/2013 7:00,2.000000016,360,29,North,Clear,-4,-12,54,1019,-7.1,-9999,-12
10/12/2013 8:00,0,0,32,North,Clear,-3,-12,51,1019,-999,-9999,-12
10/12/2013 9:00,2.000000016,20,41,NNE,Clear,-2,-11,51,1019,-4.8,-9999,-11
10/12/2013 10:00,1.000000008,0,53,Variable,Clear,0,-12,41,1019,-999,-9999,-12
10/12/2013 11:00,1.000000008,0,24,Variable,Clear,1,-14,32,1018,-999,-9999,-14
10/12/2013 12:00,8.000000064,290,16,WNW,Clear,5,-18,18,1017,0.2,-9999,-18
10/12/2013 13:00,12.0000001,290,14,WNW,Clear,6,-19,15,1016,0.4,-9999,-19
10/12/2013 14:00,11.00000009,290,8,WNW,Clear,6,-19,15,1017,0.7,-9999,-19
10/12/2013 15:00,12.0000001,320,9,NW,Clear,6,-22,12,1017,0.4,-9999,-22
10/12/2013 16:00,13.0000001,330,8,NNW,Clear,5,-22,13,1018,-1.1,-9999,-22
10/12/2013 17:00,13.0000001,320,10,NW,Clear,4,-22,14,1019,-2.5,-9999,-22
10/12/2013 18:00,13.0000001,320,13,NW,Clear,3,-22,15,1021,-3.8,-9999,-22
10/12/2013 19:00,11.00000009,320,11,NW,Clear,2,-21,17,1022,-4.7,-9999,-21
10/12/2013 20:00,9.000000072,330,7,NNW,Clear,2,-20,18,1022,-4.1,-9999,-20
10/12/2013 21:00,10.00000008,320,14,NW,Clear,1,-21,18,1022,-5.7,-9999,-21
10/12/2013 22:00,9.000000072,320,13,NW,Clear,1,-20,20,1022,-5.4,-9999,-20
10/12/2013 23:00,11.00000009,340,9,NNW,Clear,1,-21,18,1023,-6,-9999,-21
11/12/2013 0:00,10.00000008,330,8,NNW,Clear,0,-20,21,1023,-7,-9999,-20
11/12/2013 1:00,7.000000056,340,6,NNW,Clear,0,-19,23,1023,-5.9,-9999,-19
11/12/2013 2:00,7.000000056,340,6,NNW,Clear,-1,-20,23,1023,-7.2,-9999,-20
11/12/2013 3:00,5.00000004,340,5,NNW,Clear,-2,-20,25,1023,-7.4,-9999,-20
11/12/2013 4:00,3.000000024,310,11,NW,Clear,-2,-20,25,1022,-5.9,-9999,-20
11/12/2013 5:00,2.000000016,150,9,SSE,Clear,-4,-18,34,1022,-7.1,-9999,-18
11/12/2013 6:00,2.000000016,180,8,South,Clear,-5,-17,39,1022,-8.3,-9999,-17
11/12/2013 7:00,2.000000016,160,23,SSE,Clear,-5,-17,39,1022,-8.3,-9999,-17
11/12/2013 8:00,2.000000016,80,10,East,Clear,-5,-15,46,1022,-8.3,-9999,-15
11/12/2013 9:00,2.000000016,190,16,South,Clear,1,-18,23,1021,-1.3,-9999,-18
11/12/2013 10:00,5.00000004,220,30,SW,Clear,2,-20,18,1021,-2.4,-9999,-20
11/12/2013 11:00,6.000000048,220,35,SW,Clear,4,-21,15,1020,-0.4,-9999,-21
11/12/2013 12:00,5.00000004,230,33,SW,Clear,5,-22,13,1019,1.3,-9999,-22
11/12/2013 13:00,10.00000008,290,33,WNW,Clear,6,-21,13,1017,0.9,-9999,-21
11/12/2013 14:00,8.000000064,290,17,WNW,Clear,7,-22,11,1016,2.8,-9999,-22
11/12/2013 15:00,7.000000056,300,29,WNW,Clear,7,-22,11,1016,3.1,-9999,-22
11/12/2013 16:00,8.000000064,300,31,WNW,Clear,7,-21,12,1016,2.8,-9999,-21
11/12/2013 17:00,5.00000004,310,34,NW,Clear,6,-21,13,1016,2.6,-9999,-21
11/12/2013 18:00,1.000000008,0,40,Variable,Clear,3,-19,19,1017,-999,-9999,-19
11/12/2013 19:00,1.000000008,90,75,East,Clear,3,-18,20,1017,-999,-9999,-18
11/12/2013 20:00,2.000000016,40,55,NE,Clear,3,-20,17,1017,1,-9999,-20
11/12/2013 21:00,2.000000016,70,76,ENE,Clear,2,-19,20,1017,-0.1,-9999,-19
11/12/2013 22:00,1.000000008,0,89,Variable,Clear,1,-19,22,1017,-999,-9999,-19
11/12/2013 23:00,2.000000016,360,60,North,Clear,-1,-17,29,1017,-3.6,-9999,-17
12/12/2013 0:00,2.000000016,340,47,NNW,Clear,-3,-18,31,1017,-5.9,-9999,-18
12/12/2013 1:00,1.000000008,0,53,Variable,Clear,-3,-16,37,1016,-999,-9999,-16
12/12/2013 2:00,0,0,61,North,Clear,-4,-15,43,1016,-999,-9999,-15
12/12/2013 3:00,2.000000016,350,48,North,Clear,-6,-15,50,1016,-9.4,-9999,-15
12/12/2013 4:00,3.000000024,350,14,North,Clear,-7,-15,54,1017,-11.9,-9999,-15
12/12/2013 5:00,3.000000024,350,39,North,Clear,-7,-15,54,1018,-11.9,-9999,-15
12/12/2013 6:00,1.000000008,0,23,Variable,Clear,-3,-14,43,1019,-999,-9999,-14
12/12/2013 7:00,9.000000072,350,10,North,Clear,-1,-19,25,1020,-8,-9999,-19
12/12/2013 8:00,11.00000009,340,11,NNW,Clear,-1,-24,16,1021,-8.7,-9999,-24
12/12/2013 9:00,11.00000009,350,10,North,Clear,0,-26,13,1022,-7.3,-9999,-26
12/12/2013 10:00,13.0000001,340,9,NNW,Clear,0,-29,10,1023,-7.9,-9999,-29
12/12/2013 11:00,10.00000008,340,12,NNW,Clear,0,-28,11,1024,-7,-9999,-28
12/12/2013 12:00,10.00000008,340,8,NNW,Clear,1,-28,10,1023,-5.7,-9999,-28
12/12/2013 13:00,12.0000001,340,6,NNW,Clear,1,-32,7,1023,-6.3,-9999,-32
12/12/2013 14:00,12.0000001,340,13,NNW,Clear,1,-33,6,1023,-6.3,-9999,-33
12/12/2013 15:00,9.000000072,340,10,NNW,Clear,0,-32,7,1023,-6.7,-9999,-32
12/12/2013 16:00,9.000000072,360,8,North,Clear,-1,-29,10,1023,-8,-9999,-29
12/12/2013 17:00,7.000000056,360,9,North,Clear,-3,-29,12,1024,-9.8,-9999,-29
12/12/2013 18:00,4.000000032,10,16,North,Clear,-4,-28,14,1024,-9.2,-9999,-28
12/12/2013 19:00,2.000000016,40,23,NE,Clear,-4,-27,16,1025,-7.1,-9999,-27
12/12/2013 20:00,1.000000008,0,12,Variable,Clear,-5,-26,18,1025,-999,-9999,-26
12/12/2013 21:00,1.000000008,0,16,Variable,Clear,-6,-24,24,1025,-999,-9999,-24
12/12/2013 22:00,3.000000024,180,38,South,Clear,-6,-24,24,1025,-10.7,-9999,-24
12/12/2013 23:00,1.000000008,90,49,East,Clear,-8,-21,35,1025,-999,-9999,-21
13/12/2013 0:00,1.000000008,0,45,Variable,Clear,-8,-22,32,1025,-999,-9999,-22
13/12/2013 1:00,3.000000024,210,48,SSW,Clear,-6,-23,26,1025,-10.7,-9999,-23
13/12/2013 2:00,2.000000016,140,45,SE,Clear,-7,-21,33,1025,-10.6,-9999,-21
13/12/2013 3:00,2.000000016,200,39,SSW,Clear,-5,-21,28,1026,-8.3,-9999,-21
13/12/2013 4:00,1.000000008,0,43,Variable,Clear,-8,-20,38,1026,-999,-9999,-20
13/12/2013 5:00,2.000000016,330,51,NNW,Clear,-9,-21,38,1026,-12.9,-9999,-21
13/12/2013 6:00,2.000000016,360,88,North,Clear,-10,-21,41,1027,-14.1,-9999,-21
13/12/2013 7:00,1.000000008,10,92,North,Clear,-10,-20,45,1027,-999,-9999,-20
13/12/2013 8:00,1.000000008,0,85,Variable,Clear,-7,-19,39,1028,-999,-9999,-19
13/12/2013 9:00,0,0,87,North,Clear,-3,-19,29,1028,-999,-9999,-19
13/12/2013 10:00,1.000000008,0,30,Variable,Clear,-1,-20,23,1028,-999,-9999,-20
13/12/2013 11:00,1.000000008,0,57,Variable,Clear,0,-25,14,1027,-999,-9999,-25
13/12/2013 12:00,2.000000016,0,58,Variable,Clear,1,-26,12,1026,-1.3,-9999,-26
13/12/2013 13:00,2.000000016,200,49,SSW,Clear,1,-25,13,1025,-1.3,-9999,-25
13/12/2013 14:00,3.000000024,190,52,South,Clear,3,-25,11,1024,0.1,-9999,-25
13/12/2013 15:00,4.000000032,180,79,South,Clear,2,-25,12,1023,-1.8,-9999,-25
13/12/2013 16:00,3.000000024,180,88,South,Clear,2,-24,13,1024,-1.1,-9999,-24
13/12/2013 17:00,1.000000008,0,114,Variable,Clear,1,-23,15,1024,-999,-9999,-23
13/12/2013 18:00,2.000000016,20,144,NNE,Clear,-4,-20,28,1024,-7.1,-9999,-20
13/12/2013 19:00,3.000000024,30,101,NNE,Clear,-3,-21,24,1024,-7.1,-9999,-21
13/12/2013 20:00,2.000000016,30,66,NNE,Clear,-3,-20,26,1025,-5.9,-9999,-20
13/12/2013 21:00,1.000000008,0,68,Variable,Clear,-4,-20,28,1025,-999,-9999,-20
13/12/2013 22:00,2.000000016,350,69,North,Clear,-6,-20,33,1025,-9.4,-9999,-20
13/12/2013 23:00,4.000000032,360,71,North,Clear,-7,-19,39,1026,-12.9,-9999,-19
14/12/2013 0:00,2.000000016,360,123,North,Clear,-7,-18,42,1026,-10.6,-9999,-18
14/12/2013 1:00,3.000000024,350,118,North,Clear,-8,-18,45,1026,-13.1,-9999,-18
14/12/2013 2:00,3.000000024,350,91,North,Clear,-9,-17,53,1026,-14.3,-9999,-17
14/12/2013 3:00,3.000000024,340,69,NNW,Clear,-8,-18,45,1027,-13.1,-9999,-18
14/12/2013 4:00,2.000000016,330,53,NNW,Clear,-7,-21,33,1027,-10.6,-9999,-21
14/12/2013 5:00,1.000000008,0,51,Variable,Clear,-7,-19,39,1027,-999,-9999,-19
14/12/2013 6:00,4.000000032,340,43,NNW,Clear,-8,-19,42,1028,-14.1,-9999,-19
14/12/2013 7:00,3.000000024,10,53,North,Clear,-10,-21,41,1029,-15.5,-9999,-21
14/12/2013 8:00,2.000000016,360,41,North,Clear,-8,-20,38,1029,-11.8,-9999,-20
14/12/2013 9:00,2.000000016,160,28,SSE,Clear,-3,-20,26,1030,-5.9,-9999,-20
14/12/2013 10:00,3.000000024,50,25,NE,Clear,-1,-21,21,1031,-4.7,-9999,-21
14/12/2013 11:00,4.000000032,30,26,NNE,Clear,1,-27,11,1030,-3,-9999,-27
14/12/2013 12:00,4.000000032,20,21,NNE,Clear,3,-28,9,1029,-0.6,-9999,-28
14/12/2013 13:00,4.000000032,40,17,NE,Clear,3,-29,8,1028,-0.6,-9999,-29
14/12/2013 14:00,3.000000024,60,23,ENE,Clear,4,-28,8,1028,1.3,-9999,-28
14/12/2013 15:00,1.000000008,0,28,Variable,Clear,5,-29,7,1028,-999,-9999,-29
14/12/2013 16:00,2.000000016,0,117,Variable,Clear,4,-27,9,1028,2.2,-9999,-27
14/12/2013 17:00,1.000000008,50,125,NE,Clear,1,-28,10,1029,-999,-9999,-28
14/12/2013 18:00,1.000000008,20,122,NNE,Clear,-2,-24,18,1029,-999,-9999,-24
14/12/2013 19:00,1.000000008,20,92,NNE,Clear,-3,-22,22,1030,-999,-9999,-22
14/12/2013 20:00,1.000000008,0,51,Variable,Clear,-4,-20,28,1030,-999,-9999,-20
14/12/2013 21:00,1.000000008,0,61,Variable,Clear,-2,-21,23,1031,-999,-9999,-21
14/12/2013 22:00,3.000000024,220,80,SW,Clear,-1,-21,21,1031,-4.7,-9999,-21
14/12/2013 23:00,2.000000016,360,52,North,Clear,-3,-20,26,1032,-5.9,-9999,-20
15/12/2013 0:00,2.000000016,0,39,Variable,Clear,-3,-19,29,1032,-5.9,-9999,-19
15/12/2013 1:00,1.000000008,300,48,WNW,Clear,-3,-20,26,1032,-999,-9999,-20
15/12/2013 2:00,0,0,69,North,Clear,-4,-19,31,1033,-999,-9999,-19
15/12/2013 3:00,5.00000004,340,42,NNW,Clear,-5,-19,33,1033,-11.2,-9999,-19
15/12/2013 4:00,5.00000004,350,16,North,Clear,-5,-20,31,1033,-11.2,-9999,-20
15/12/2013 5:00,4.000000032,10,16,North,Clear,-5,-21,28,1033,-10.4,-9999,-21
15/12/2013 6:00,6.000000048,20,15,NNE,Clear,-2,-23,19,1033,-8,-9999,-23
15/12/2013 7:00,5.00000004,20,22,NNE,Clear,-3,-22,22,1033,-8.7,-9999,-22
15/12/2013 8:00,3.000000024,40,27,NE,Clear,-2,-22,21,1034,-5.9,-9999,-22
15/12/2013 9:00,1.000000008,0,24,Variable,Clear,0,-22,18,1035,-999,-9999,-22
15/12/2013 10:00,2.000000016,10,39,North,Clear,1,-23,15,1036,-1.3,-9999,-23
15/12/2013 11:00,2.000000016,360,44,North,Clear,3,-24,12,1035,1,-9999,-24
15/12/2013 12:00,1.000000008,0,25,Variable,Clear,4,-25,10,1034,-999,-9999,-25
15/12/2013 13:00,1.000000008,0,29,Variable,Clear,4,-25,10,1033,-999,-9999,-25
15/12/2013 14:00,2.000000016,0,38,Variable,Clear,5,-25,10,1032,3.4,-9999,-25
15/12/2013 15:00,1.000000008,0,48,Variable,Clear,5,-24,11,1032,-999,-9999,-24
15/12/2013 16:00,3.000000024,190,60,South,Clear,4,-23,12,1032,1.3,-9999,-23
15/12/2013 17:00,1.000000008,0,67,Variable,Clear,1,-22,17,1033,-999,-9999,-22
15/12/2013 18:00,1.000000008,0,60,Variable,Unknown,0,-20,21,1033,-999,8,-20
15/12/2013 19:00,1.000000008,150,79,SSE,Unknown,-2,-16,34,1034,-999,8,-16
15/12/2013 20:00,0,0,86,North,Unknown,-3,-16,37,1033,-999,6,-16
15/12/2013 21:00,0,0,98,North,Unknown,-3,-16,37,1034,-999,6,-16
15/12/2013 22:00,1.000000008,0,163,Variable,Haze,-5,-16,43,1034,-999,5,-16
15/12/2013 23:00,1.000000008,50,271,NE,Haze,-4,-16,40,1034,-999,5,-16
16/12/2013 0:00,1.000000008,0,331,Variable,Unknown,-5,-14,50,1034,-999,6,-14
16/12/2013 1:00,0,0,291,North,Unknown,-6,-16,46,1033,-999,7,-16
16/12/2013 2:00,0,0,262,North,Unknown,-5,-16,43,1033,-999,8,-16
16/12/2013 3:00,1.000000008,360,201,North,Unknown,-6,-14,54,1033,-999,7,-14
16/12/2013 4:00,2.000000016,360,90,North,Unknown,-7,-16,49,1032,-10.6,7,-16
16/12/2013 5:00,2.000000016,360,73,North,Unknown,-8,-15,58,1032,-11.8,7,-15
16/12/2013 6:00,2.000000016,340,66,NNW,Unknown,-8,-16,53,1031,-11.8,8,-16
16/12/2013 7:00,3.000000024,340,88,NNW,Unknown,-7,-15,54,1031,-11.9,8,-15
16/12/2013 8:00,3.000000024,360,82,North,Unknown,-8,-16,53,1032,-13.1,8,-16
16/12/2013 9:00,1.000000008,0,84,Variable,Unknown,-6,-13,58,1032,-999,8,-13
16/12/2013 10:00,1.000000008,0,89,Variable,Unknown,-3,-14,43,1033,-999,7,-14
16/12/2013 11:00,1.000000008,0,117,Variable,Unknown,-1,-14,37,1032,-999,7,-14
16/12/2013 12:00,0,0,135,North,Unknown,1,-18,23,1031,-999,7,-18
16/12/2013 13:00,1.000000008,0,143,Variable,Unknown,1,-18,23,1030,-999,7,-18
16/12/2013 14:00,1.000000008,0,156,Variable,Unknown,2,-18,22,1029,-999,6,-18
16/12/2013 15:00,1.000000008,140,174,SE,Haze,2,-17,24,1029,-999,5,-17
16/12/2013 16:00,1.000000008,90,202,East,Haze,1,-16,28,1029,-999,5,-16
16/12/2013 17:00,1.000000008,70,194,ENE,Haze,-1,-15,34,1029,-999,4,-15
16/12/2013 18:00,1.000000008,90,210,East,Haze,-2,-14,40,1029,-999,4,-14
16/12/2013 19:00,1.000000008,0,247,Variable,Haze,-2,-13,43,1030,-999,4,-13
16/12/2013 20:00,1.000000008,0,284,Variable,Haze,-2,-11,51,1030,-999,4,-11
16/12/2013 21:00,1.000000008,150,281,SSE,Haze,-1,-12,44,1031,-999,4,-12
16/12/2013 22:00,1.000000008,0,291,Variable,Haze,-1,-11,47,1031,-999,-9999,-11
16/12/2013 23:00,1.000000008,60,310,ENE,Haze,-1,-12,44,1031,-999,-9999,-12
17/12/2013 0:00,2.000000016,350,280,North,Haze,-2,-12,47,1031,-4.8,-9999,-12
17/12/2013 1:00,2.000000016,360,302,North,Haze,-3,-13,47,1031,-5.9,3.5,-13
17/12/2013 2:00,2.000000016,360,259,North,Haze,-3,-12,51,1031,-5.9,3.5,-12
17/12/2013 3:00,2.000000016,340,198,NNW,Haze,-2,-12,47,1032,-4.8,3.5,-12
17/12/2013 4:00,3.000000024,360,192,North,Haze,-1,-12,44,1031,-4.7,4,-12
17/12/2013 5:00,2.000000016,10,127,North,Haze,-2,-12,47,1031,-4.8,5,-12
17/12/2013 6:00,1.000000008,40,89,NE,Unknown,-1,-12,44,1032,-999,7,-12
17/12/2013 7:00,5.00000004,20,40,NNE,Clear,0,-16,30,1032,-4.9,-9999,-16
17/12/2013 8:00,5.00000004,30,24,NNE,Clear,0,-16,30,1033,-4.9,-9999,-16
17/12/2013 9:00,6.000000048,20,26,NNE,Clear,0,-16,30,1034,-5.4,-9999,-16
17/12/2013 10:00,7.000000056,20,20,NNE,Clear,0,-19,23,1034,-5.9,-9999,-19
17/12/2013 11:00,6.000000048,20,19,NNE,Clear,1,-19,22,1034,-4.2,-9999,-19
17/12/2013 12:00,5.00000004,10,24,North,Clear,2,-19,20,1033,-2.4,-9999,-19
17/12/2013 13:00,3.000000024,30,27,NNE,Clear,1,-19,22,1033,-2.3,-9999,-19
17/12/2013 14:00,3.000000024,50,30,NE,Clear,2,-19,20,1032,-1.1,-9999,-19
17/12/2013 15:00,3.000000024,20,26,NNE,Clear,2,-20,18,1032,-1.1,-9999,-20
17/12/2013 16:00,3.000000024,60,28,ENE,Clear,1,-20,20,1032,-2.3,-9999,-20
17/12/2013 17:00,2.000000016,50,39,NE,Clear,0,-18,25,1033,-2.5,-9999,-18
17/12/2013 18:00,2.000000016,40,30,NE,Clear,-3,-18,31,1034,-5.9,-9999,-18
17/12/2013 19:00,4.000000032,50,27,NE,Clear,-1,-20,23,1035,-5.5,-9999,-20
17/12/2013 20:00,4.000000032,40,17,NE,Clear,-2,-21,23,1035,-6.7,-9999,-21
17/12/2013 21:00,4.000000032,40,13,NE,Clear,-3,-21,24,1036,-8,-9999,-21
17/12/2013 22:00,5.00000004,40,11,NE,Clear,-4,-21,26,1037,-9.9,-9999,-21
17/12/2013 23:00,5.00000004,30,12,NNE,Clear,-5,-21,28,1037,-11.2,-9999,-21
18/12/2013 0:00,5.00000004,40,12,NE,Clear,-5,-21,28,1037,-11.2,-9999,-21
18/12/2013 1:00,4.000000032,30,10,NNE,Clear,-6,-21,30,1037,-11.6,-9999,-21
18/12/2013 2:00,5.00000004,30,11,NNE,Clear,-6,-20,33,1036,-12.4,-9999,-20
18/12/2013 3:00,4.000000032,20,13,NNE,Clear,-7,-20,36,1036,-12.9,-9999,-20
18/12/2013 4:00,3.000000024,20,12,NNE,Clear,-7,-20,36,1036,-11.9,-9999,-20
18/12/2013 5:00,3.000000024,360,12,North,Clear,-10,-22,38,1035,-15.5,-9999,-22
18/12/2013 6:00,3.000000024,350,27,North,Clear,-11,-20,48,1035,-16.7,-9999,-20
18/12/2013 7:00,2.000000016,20,12,NNE,Clear,-10,-20,45,1035,-14.1,-9999,-20
18/12/2013 8:00,7.000000056,320,19,NW,Clear,-6,-20,33,1035,-13.6,-9999,-20
18/12/2013 9:00,4.000000032,360,18,North,Clear,-4,-20,28,1035,-9.2,-9999,-20
18/12/2013 10:00,3.000000024,360,17,North,Clear,-3,-20,26,1035,-7.1,-9999,-20
18/12/2013 11:00,4.000000032,350,19,North,Clear,-1,-20,23,1034,-5.5,-9999,-20
18/12/2013 12:00,5.00000004,350,20,North,Clear,1,-23,15,1032,-3.7,-9999,-23
18/12/2013 13:00,2.000000016,0,13,Variable,Clear,0,-23,17,1031,-2.5,-9999,-23
18/12/2013 14:00,2.000000016,80,55,East,Clear,0,-20,21,1030,-2.5,-9999,-20
18/12/2013 15:00,2.000000016,120,59,ESE,Clear,0,-23,17,1029,-2.5,-9999,-23
18/12/2013 16:00,3.000000024,80,78,East,Clear,-1,-20,23,1029,-4.7,-9999,-20
18/12/2013 17:00,2.000000016,80,91,East,Clear,-3,-20,26,1029,-5.9,-9999,-20
18/12/2013 18:00,2.000000016,100,97,East,Clear,-4,-19,31,1029,-7.1,-9999,-19
18/12/2013 19:00,2.000000016,90,97,East,Clear,-5,-19,33,1029,-8.3,-9999,-19
18/12/2013 20:00,1.000000008,0,123,Variable,Clear,-5,-19,33,1029,-999,-9999,-19
18/12/2013 21:00,2.000000016,20,162,NNE,Clear,-8,-18,45,1030,-11.8,-9999,-18
18/12/2013 22:00,1.000000008,0,214,Variable,Clear,-7,-17,46,1030,-999,-9999,-17
18/12/2013 23:00,2.000000016,10,160,North,Clear,-7,-18,42,1030,-10.6,-9999,-18
19/12/2013 0:00,4.000000032,10,41,North,Clear,-9,-18,49,1030,-15.3,-9999,-18
19/12/2013 1:00,2.000000016,350,18,North,Clear,-7,-18,42,1030,-10.6,-9999,-18
19/12/2013 2:00,2.000000016,10,11,North,Clear,-10,-18,53,1030,-14.1,-9999,-18
19/12/2013 3:00,3.000000024,20,8,NNE,Clear,-8,-19,42,1030,-13.1,-9999,-19
19/12/2013 4:00,2.000000016,360,9,North,Clear,-10,-20,45,1030,-14.1,-9999,-20
19/12/2013 5:00,3.000000024,360,8,North,Clear,-11,-19,53,1030,-16.7,-9999,-19
19/12/2013 6:00,4.000000032,10,10,North,Clear,-10,-20,45,1030,-16.6,-9999,-20
19/12/2013 7:00,3.000000024,360,16,North,Clear,-8,-19,42,1031,-13.1,-9999,-19
19/12/2013 8:00,4.000000032,30,23,NNE,Clear,-7,-19,39,1031,-12.9,-9999,-19
19/12/2013 9:00,4.000000032,30,26,NNE,Clear,-6,-19,36,1032,-11.6,-9999,-19
19/12/2013 10:00,4.000000032,30,31,NNE,Clear,-4,-19,31,1032,-9.2,-9999,-19
19/12/2013 11:00,4.000000032,40,31,NE,Clear,-3,-20,26,1032,-8,-9999,-20
19/12/2013 12:00,3.000000024,30,27,NNE,Clear,-1,-20,23,1031,-4.7,-9999,-20
19/12/2013 13:00,3.000000024,20,23,NNE,Clear,-1,-20,23,1030,-4.7,-9999,-20
19/12/2013 14:00,3.000000024,70,27,ENE,Clear,0,-20,21,1029,-3.5,-9999,-20
19/12/2013 15:00,2.000000016,50,33,NE,Clear,0,-22,18,1030,-2.5,-9999,-22
19/12/2013 16:00,2.000000016,60,30,ENE,Clear,0,-21,20,1030,-2.5,-9999,-21
19/12/2013 17:00,1.000000008,160,43,SSE,Clear,-2,-21,23,1030,-999,-9999,-21
19/12/2013 18:00,1.000000008,0,48,Variable,Clear,-4,-20,28,1031,-999,-9999,-20
19/12/2013 19:00,2.000000016,210,80,SSW,Clear,-1,-19,25,1031,-3.6,-9999,-19
19/12/2013 20:00,2.000000016,190,93,South,Clear,-4,-19,31,1032,-7.1,-9999,-19
19/12/2013 21:00,2.000000016,360,95,North,Clear,-6,-17,42,1032,-9.4,-9999,-17
19/12/2013 22:00,2.000000016,360,107,North,Unknown,-8,-18,45,1032,-11.8,8,-18
19/12/2013 23:00,3.000000024,360,152,North,Unknown,-9,-18,49,1032,-14.3,8,-18
20/12/2013 0:00,3.000000024,360,117,North,Unknown,-8,-19,42,1032,-13.1,8,-19
20/12/2013 1:00,3.000000024,20,40,NNE,Clear,-5,-18,36,1033,-9.5,-9999,-18
20/12/2013 2:00,3.000000024,30,23,NNE,Clear,-4,-18,34,1033,-8.3,-9999,-18
20/12/2013 3:00,3.000000024,350,17,North,Clear,-10,-19,49,1033,-15.5,-9999,-19
20/12/2013 4:00,3.000000024,340,25,NNW,Clear,-10,-18,53,1033,-15.5,-9999,-18
20/12/2013 5:00,3.000000024,360,29,North,Clear,-7,-18,42,1033,-11.9,-9999,-18
20/12/2013 6:00,3.000000024,360,36,North,Clear,-9,-18,49,1033,-14.3,-9999,-18
20/12/2013 7:00,2.000000016,10,40,North,Clear,-11,-18,57,1034,-15.3,-9999,-18
20/12/2013 8:00,2.000000016,360,24,North,Clear,-10,-17,57,1035,-14.1,-9999,-17
20/12/2013 9:00,3.000000024,360,29,North,Clear,-3,-15,40,1035,-7.1,-9999,-15
20/12/2013 10:00,4.000000032,30,34,NNE,Clear,-1,-17,29,1035,-5.5,-9999,-17
20/12/2013 11:00,1.000000008,0,17,Variable,Clear,1,-20,20,1036,-999,-9999,-20
20/12/2013 12:00,3.000000024,60,17,ENE,Clear,1,-20,20,1035,-2.3,-9999,-20
20/12/2013 13:00,4.000000032,50,15,NE,Clear,1,-21,18,1034,-3,-9999,-21
20/12/2013 14:00,2.000000016,0,20,Variable,Clear,2,-21,17,1034,-0.1,-9999,-21
20/12/2013 15:00,3.000000024,30,24,NNE,Clear,2,-21,17,1034,-1.1,-9999,-21
20/12/2013 16:00,2.000000016,70,,ENE,Clear,1,-21,18,1034,-1.3,-9999,-21
20/12/2013 17:00,1.000000008,110,,ESE,Clear,-1,-19,25,1034,-999,-9999,-19
20/12/2013 18:00,1.000000008,350,50,North,Clear,-3,-18,31,1035,-999,-9999,-18
20/12/2013 19:00,2.000000016,350,57,North,Clear,0,-16,30,1035,-2.5,-9999,-16
20/12/2013 20:00,2.000000016,20,38,NNE,Clear,-5,-16,43,1036,-8.3,-9999,-16
20/12/2013 21:00,3.000000024,10,68,North,Clear,-5,-18,36,1036,-9.5,-9999,-18
20/12/2013 22:00,4.000000032,40,46,NE,Clear,-2,-17,31,1036,-6.7,-9999,-17
20/12/2013 23:00,2.000000016,30,37,NNE,Clear,-4,-19,31,1037,-7.1,-9999,-19
21/12/2013 0:00,1.000000008,40,28,NE,Clear,-4,-19,31,1037,-999,-9999,-19
21/12/2013 1:00,3.000000024,30,22,NNE,Clear,-5,-19,33,1037,-9.5,-9999,-19
21/12/2013 2:00,4.000000032,30,22,NNE,Clear,-3,-19,29,1037,-8,-9999,-19
21/12/2013 3:00,4.000000032,20,17,NNE,Clear,-4,-19,31,1037,-9.2,-9999,-19
21/12/2013 4:00,3.000000024,20,21,NNE,Clear,-5,-19,33,1037,-9.5,-9999,-19
21/12/2013 5:00,3.000000024,350,19,North,Clear,-9,-19,45,1036,-14.3,-9999,-19
21/12/2013 6:00,3.000000024,330,28,NNW,Clear,-8,-18,45,1036,-13.1,-9999,-18
21/12/2013 7:00,2.000000016,340,26,NNW,Clear,-8,-18,45,1036,-11.8,-9999,-18
21/12/2013 8:00,4.000000032,350,34,North,Clear,-8,-16,53,1037,-14.1,-9999,-16
21/12/2013 9:00,4.000000032,360,41,North,Clear,-3,-16,37,1037,-8,-9999,-16
21/12/2013 10:00,4.000000032,20,42,NNE,Clear,-1,-18,27,1037,-5.5,-9999,-18
21/12/2013 11:00,2.000000016,10,42,North,Clear,0,-20,21,1037,-2.5,-9999,-20
21/12/2013 12:00,2.000000016,40,36,NE,Clear,1,-21,18,1035,-1.3,-9999,-21
21/12/2013 13:00,2.000000016,270,34,West,Clear,2,-21,17,1034,-0.1,-9999,-21
21/12/2013 14:00,2.000000016,0,45,Variable,Clear,2,-21,17,1033,-0.1,-9999,-21
21/12/2013 15:00,2.000000016,0,89,Variable,Clear,4,-21,15,1033,2.2,-9999,-21
21/12/2013 16:00,2.000000016,200,121,SSW,Clear,2,-21,17,1033,-0.1,-9999,-21
21/12/2013 17:00,2.000000016,190,128,South,Clear,1,-19,22,1033,-1.3,-9999,-19
21/12/2013 18:00,3.000000024,180,158,South,Clear,-1,-16,32,1033,-4.7,-9999,-16
21/12/2013 19:00,2.000000016,170,242,South,Clear,-1,-16,32,1033,-3.6,-9999,-16
21/12/2013 20:00,2.000000016,190,247,South,Unknown,-2,-16,34,1034,-4.8,8,-16
21/12/2013 21:00,1.000000008,0,242,Variable,Unknown,-2,-15,37,1034,-999,7,-15
21/12/2013 22:00,1.000000008,0,240,Variable,Unknown,-5,-15,46,1034,-999,6,-15
21/12/2013 23:00,1.000000008,10,267,North,Unknown,-6,-15,50,1034,-999,6,-15
22/12/2013 0:00,1.000000008,80,177,East,Haze,-8,-15,58,1034,-999,5,-15
22/12/2013 1:00,0,0,148,North,Haze,-7,-14,58,1034,-999,5,-14
22/12/2013 2:00,2.000000016,10,178,North,Haze,-7,-14,58,1034,-10.6,5,-14
22/12/2013 3:00,2.000000016,10,165,North,Unknown,-7,-15,54,1034,-10.6,6,-15
22/12/2013 4:00,1.000000008,340,155,NNW,Unknown,-8,-16,53,1034,-999,6,-16
22/12/2013 5:00,2.000000016,340,96,NNW,Unknown,-9,-16,58,1033,-12.9,8,-16
22/12/2013 6:00,2.000000016,350,70,North,Clear,-8,-16,53,1033,-11.8,-9999,-16
22/12/2013 7:00,2.000000016,360,62,North,Clear,-8,-16,53,1033,-11.8,-9999,-16
22/12/2013 8:00,2.000000016,360,65,North,Clear,-9,-17,53,1034,-12.9,-9999,-17
22/12/2013 9:00,2.000000016,360,52,North,Clear,-7,-14,58,1034,-10.6,-9999,-14
22/12/2013 10:00,1.000000008,0,80,Variable,Clear,-4,-14,46,1034,-999,-9999,-14
22/12/2013 11:00,1.000000008,0,112,Variable,Clear,-2,-15,37,1034,-999,-9999,-15
22/12/2013 12:00,1.000000008,0,144,Variable,Unknown,0,-15,32,1032,-999,7,-15
22/12/2013 13:00,1.000000008,0,139,Variable,Unknown,1,-17,25,1031,-999,7,-17
22/12/2013 14:00,1.000000008,0,138,Variable,Unknown,2,-17,24,1031,-999,6,-17
22/12/2013 15:00,2.000000016,150,130,SSE,Unknown,1,-17,25,1030,-1.3,6,-17
22/12/2013 16:00,2.000000016,130,118,SE,Haze,0,-16,30,1030,-2.5,5,-16
22/12/2013 17:00,1.000000008,90,315,East,Haze,-2,-14,40,1031,-999,5,-14
22/12/2013 18:00,1.000000008,90,317,East,Haze,-3,-13,47,1031,-999,4,-13
22/12/2013 19:00,1.000000008,0,325,Variable,Haze,-4,-12,54,1031,-999,4,-12
22/12/2013 20:00,1.000000008,70,348,ENE,Haze,-5,-12,59,1031,-999,4,-12
22/12/2013 21:00,0,0,336,North,Haze,-6,-12,63,1031,-999,3,-12
22/12/2013 22:00,0,0,334,North,Haze,-6,-12,63,1031,-999,3,-12
22/12/2013 23:00,1.000000008,60,345,ENE,Haze,-7,-13,63,1031,-999,3,-13
23/12/2013 0:00,1.000000008,20,332,NNE,Haze,-8,-14,63,1031,-999,3,-14
23/12/2013 1:00,3.000000024,360,337,North,Haze,-8,-13,68,1031,-13.1,3,-13
23/12/2013 2:00,2.000000016,350,384,North,Haze,-8,-15,58,1031,-11.8,4,-15
23/12/2013 3:00,2.000000016,330,240,NNW,Haze,-9,-15,62,1031,-12.9,5,-15
23/12/2013 4:00,3.000000024,330,139,NNW,Unknown,-9,-16,58,1031,-14.3,7,-16
23/12/2013 5:00,3.000000024,330,111,NNW,Unknown,-7,-14,58,1031,-11.9,8,-14
23/12/2013 6:00,3.000000024,350,104,North,Clear,-10,-17,57,1031,-15.5,-9999,-17
23/12/2013 7:00,4.000000032,350,124,North,Clear,-9,-16,58,1031,-15.3,-9999,-16
23/12/2013 8:00,4.000000032,350,93,North,Clear,-6,-15,50,1031,-11.6,-9999,-15
23/12/2013 9:00,3.000000024,360,98,North,Clear,-2,-13,43,1032,-5.9,-9999,-13
23/12/2013 10:00,3.000000024,20,66,NNE,Clear,2,-16,26,1033,-1.1,-9999,-16
23/12/2013 11:00,5.00000004,20,47,NNE,Clear,3,-17,22,1032,-1.2,-9999,-17
23/12/2013 12:00,5.00000004,30,34,NNE,Clear,4,-17,21,1032,0.1,-9999,-17
23/12/2013 13:00,4.000000032,60,36,ENE,Clear,5,-17,19,1031,1.9,-9999,-17
23/12/2013 14:00,3.000000024,60,36,ENE,Clear,6,-18,16,1031,3.7,-9999,-18
23/12/2013 15:00,3.000000024,60,33,ENE,Clear,6,-18,16,1031,3.7,-9999,-18
23/12/2013 16:00,2.000000016,70,29,ENE,Clear,5,-19,16,1031,3.4,-9999,-19
23/12/2013 17:00,2.000000016,150,105,SSE,Clear,1,-18,23,1032,-1.3,-9999,-18
23/12/2013 18:00,3.000000024,170,121,South,Clear,1,-17,25,1033,-2.3,-9999,-17
23/12/2013 19:00,2.000000016,160,168,SSE,Unknown,-1,-16,32,1033,-3.6,8,-16
23/12/2013 20:00,1.000000008,0,202,Variable,Unknown,-2,-14,40,1034,-999,7,-14
23/12/2013 21:00,1.000000008,0,196,Variable,Unknown,-4,-14,46,1035,-999,6,-14
23/12/2013 22:00,1.000000008,0,216,Variable,Haze,-4,-13,50,1035,-999,5,-13
23/12/2013 23:00,1.000000008,0,247,Variable,Haze,-6,-13,58,1035,-999,4,-13
24/12/2013 0:00,1.000000008,40,273,NE,Haze,-6,-14,54,1036,-999,4,-14
24/12/2013 1:00,1.000000008,90,334,East,Haze,-6,-14,54,1036,-999,3.5,-14
24/12/2013 2:00,1.000000008,10,417,North,Haze,-9,-15,62,1036,-999,3.5,-15
24/12/2013 3:00,0,0,457,North,Haze,-8,-14,63,1036,-999,3,-14
24/12/2013 4:00,1.000000008,10,426,North,Haze,-9,-15,62,1036,-999,3,-15
24/12/2013 5:00,0,0,377,North,Haze,-8,-14,63,1035,-999,-9999,-14
24/12/2013 6:00,2.000000016,20,346,NNE,Haze,-9,-14,68,1035,-12.9,3.5,-14
24/12/2013 7:00,1.000000008,0,332,Variable,Haze,-9,-14,68,1036,-999,4.5,-14
24/12/2013 8:00,2.000000016,30,282,NNE,Haze,-9,-13,73,1036,-12.9,4.5,-13
24/12/2013 9:00,2.000000016,360,211,North,Haze,-6,-12,63,1037,-9.4,4.5,-12
24/12/2013 10:00,2.000000016,360,201,North,Haze,-4,-11,59,1036,-7.1,4.5,-11
24/12/2013 11:00,1.000000008,0,235,Variable,Haze,-1,-11,47,1036,-999,4.5,-11
24/12/2013 12:00,1.000000008,0,283,Variable,Haze,0,-10,48,1035,-999,3.5,-10
24/12/2013 13:00,1.000000008,0,313,Variable,Haze,0,-11,44,1034,-999,-9999,-11
24/12/2013 14:00,1.000000008,0,337,Variable,Haze,1,-10,44,1033,-999,-9999,-10
24/12/2013 15:00,1.000000008,0,362,Variable,Haze,1,-10,44,1032,-999,2.8,-10
24/12/2013 16:00,1.000000008,0,333,Variable,Haze,0,-11,44,1032,-999,2.8,-11
24/12/2013 17:00,1.000000008,90,312,East,Haze,-2,-10,55,1031,-999,2.8,-10
24/12/2013 18:00,2.000000016,360,309,North,Haze,-4,-10,64,1032,-7.1,2.8,-10
24/12/2013 19:00,1.000000008,20,332,NNE,Haze,-4,-10,64,1032,-999,2.5,-10
24/12/2013 20:00,2.000000016,360,294,North,Haze,-4,-10,64,1032,-7.1,2.5,-10
24/12/2013 21:00,1.000000008,20,302,NNE,Haze,-4,-9,69,1031,-999,2.3,-9
24/12/2013 22:00,1.000000008,20,267,NNE,Haze,-4,-9,69,1031,-999,2,-9
24/12/2013 23:00,0,0,267,North,Haze,-5,-9,74,1031,-999,2,-9
25/12/2013 0:00,2.000000016,10,297,North,Haze,-6,-10,74,1031,-9.4,2,-10
25/12/2013 1:00,2.000000016,360,329,North,Haze,-7,-11,74,1030,-10.6,2,-11
25/12/2013 2:00,2.000000016,360,326,North,Haze,-7,-11,74,1029,-10.6,2,-11
25/12/2013 3:00,2.000000016,360,305,North,Mist,-7,-10,80,1029,-10.6,2,-10
25/12/2013 4:00,2.000000016,360,281,North,Mist,-7,-10,80,1028,-10.6,2,-10
25/12/2013 5:00,2.000000016,350,254,North,Mist,-7,-10,80,1028,-10.6,2,-10
25/12/2013 6:00,3.000000024,330,247,NNW,Mist,-8,-12,73,1028,-13.1,2,-12
25/12/2013 7:00,2.000000016,350,265,North,Mist,-8,-12,73,1028,-11.8,2,-12
25/12/2013 8:00,3.000000024,350,262,North,Mist,-8,-12,73,1029,-13.1,2,-12
25/12/2013 9:00,4.000000032,360,267,North,Mist,-6,-10,74,1029,-11.6,2,-10
25/12/2013 10:00,2.000000016,360,282,North,Haze,-3,-8,69,1029,-5.9,2.5,-8
25/12/2013 11:00,3.000000024,330,295,NNW,Haze,-1,-10,51,1028,-4.7,3,-10
25/12/2013 12:00,3.000000024,340,286,NNW,Haze,2,-11,38,1026,-1.1,3.5,-11
25/12/2013 13:00,3.000000024,340,84,NNW,Haze,4,-11,33,1025,1.3,3,-11
25/12/2013 14:00,4.000000032,330,58,NNW,Haze,7,-14,21,1024,4.3,5,-14
25/12/2013 15:00,4.000000032,330,43,NNW,Unknown,6,-15,21,1024,3.1,6,-15
25/12/2013 16:00,8.000000064,300,36,WNW,Clear,6,-19,15,1025,1.5,-9999,-19
25/12/2013 17:00,10.00000008,320,26,NW,Clear,4,-22,14,1026,-1.7,-9999,-22
25/12/2013 18:00,7.000000056,340,36,NNW,Clear,2,-23,14,1028,-3.3,-9999,-23
25/12/2013 19:00,8.000000064,310,32,NW,Clear,1,-23,15,1030,-5,-9999,-23
25/12/2013 20:00,15.00000012,330,21,NNW,Clear,-1,-23,18,1031,-9.7,-9999,-23
25/12/2013 21:00,14.00000011,330,18,NNW,Clear,-2,-23,19,1031,-10.9,-9999,-23
25/12/2013 22:00,14.00000011,330,20,NNW,Clear,-3,-24,19,1032,-12.2,-9999,-24
25/12/2013 23:00,13.0000001,320,13,NW,Clear,-3,-23,21,1032,-12,-9999,-23
26/12/2013 0:00,12.0000001,320,15,NW,Clear,-3,-22,22,1032,-11.7,-9999,-22
26/12/2013 1:00,10.00000008,330,11,NNW,Clear,-4,-22,24,1032,-12.3,-9999,-22
26/12/2013 2:00,10.00000008,330,13,NNW,Clear,-4,-21,26,1032,-12.3,-9999,-21
26/12/2013 3:00,10.00000008,330,16,NNW,Clear,-4,-22,24,1033,-12.3,-9999,-22
26/12/2013 4:00,8.000000064,330,13,NNW,Clear,-5,-22,26,1034,-12.8,-9999,-22
26/12/2013 5:00,9.000000072,330,13,NNW,Clear,-5,-22,26,1034,-13.3,-9999,-22
26/12/2013 6:00,7.000000056,330,11,NNW,Clear,-5,-23,24,1035,-12.3,-9999,-23
26/12/2013 7:00,8.000000064,330,18,NNW,Clear,-5,-23,24,1035,-12.8,-9999,-23
26/12/2013 8:00,8.000000064,330,17,NNW,Clear,-5,-23,24,1036,-12.8,-9999,-23
26/12/2013 9:00,7.000000056,330,16,NNW,Clear,-3,-23,21,1036,-9.8,-9999,-23
26/12/2013 10:00,9.000000072,330,16,NNW,Clear,-2,-23,19,1036,-9.3,-9999,-23
26/12/2013 11:00,9.000000072,330,18,NNW,Clear,-1,-23,18,1036,-8,-9999,-23
26/12/2013 12:00,11.00000009,320,15,NW,Clear,1,-26,12,1035,-6,-9999,-26
26/12/2013 13:00,9.000000072,340,14,NNW,Clear,2,-26,11,1034,-4.1,-9999,-26
26/12/2013 14:00,11.00000009,340,16,NNW,Clear,2,-25,12,1033,-4.7,-9999,-25
26/12/2013 15:00,10.00000008,340,13,NNW,Clear,2,-26,11,1033,-4.4,-9999,-26
26/12/2013 16:00,10.00000008,320,11,NW,Clear,2,-25,12,1033,-4.4,-9999,-25
26/12/2013 17:00,8.000000064,340,14,NNW,Clear,1,-25,13,1034,-5,-9999,-25
26/12/2013 18:00,10.00000008,330,17,NNW,Clear,0,-25,14,1034,-7,-9999,-25
26/12/2013 19:00,8.000000064,320,16,NW,Clear,0,-23,17,1034,-6.3,-9999,-23
26/12/2013 20:00,8.000000064,330,13,NNW,Clear,-1,-23,18,1034,-7.6,-9999,-23
26/12/2013 21:00,9.000000072,340,17,NNW,Clear,-1,-23,18,1034,-8,-9999,-23
26/12/2013 22:00,7.000000056,330,15,NNW,Clear,-1,-23,18,1034,-7.2,-9999,-23
26/12/2013 23:00,5.00000004,350,13,North,Clear,-4,-23,22,1034,-9.9,-9999,-23
27/12/2013 0:00,4.000000032,360,23,North,Clear,-5,-22,26,1034,-10.4,-9999,-22
27/12/2013 1:00,5.00000004,320,16,NW,Clear,-3,-23,21,1034,-8.7,-9999,-23
27/12/2013 2:00,6.000000048,310,18,NW,Clear,-3,-23,21,1034,-9.3,-9999,-23
27/12/2013 3:00,6.000000048,310,12,NW,Clear,-2,-23,19,1034,-8,-9999,-23
27/12/2013 4:00,6.000000048,310,16,NW,Clear,-3,-23,21,1033,-9.3,-9999,-23
27/12/2013 5:00,4.000000032,290,9,WNW,Clear,-4,-22,24,1033,-9.2,-9999,-22
27/12/2013 6:00,5.00000004,300,14,WNW,Clear,-4,-22,24,1033,-9.9,-9999,-22
27/12/2013 7:00,6.000000048,310,18,NW,Clear,-4,-22,24,1033,-10.5,-9999,-22
27/12/2013 8:00,7.000000056,310,24,NW,Clear,-4,-21,26,1033,-11,-9999,-21
27/12/2013 9:00,6.000000048,320,25,NW,Clear,-2,-22,21,1033,-8,-9999,-22
27/12/2013 10:00,6.000000048,300,21,WNW,Clear,-2,-22,21,1033,-8,-9999,-22
27/12/2013 11:00,6.000000048,300,23,WNW,Clear,-1,-21,21,1032,-6.7,-9999,-21
27/12/2013 12:00,6.000000048,300,27,WNW,Clear,0,-21,20,1030,-5.4,-9999,-21
27/12/2013 13:00,5.00000004,300,18,WNW,Clear,0,-24,15,1029,-4.9,-9999,-24
27/12/2013 14:00,5.00000004,330,15,NNW,Clear,1,-24,14,1028,-3.7,-9999,-24
27/12/2013 15:00,3.000000024,350,20,North,Clear,1,-23,15,1027,-2.3,-9999,-23
27/12/2013 16:00,1.000000008,0,27,Variable,Clear,0,-23,17,1027,-999,-9999,-23
27/12/2013 17:00,2.000000016,260,30,West,Clear,1,-23,15,1027,-1.3,-9999,-23
27/12/2013 18:00,2.000000016,80,54,East,Clear,-2,-19,27,1027,-4.8,-9999,-19
27/12/2013 19:00,1.000000008,0,64,Variable,Clear,-2,-20,25,1027,-999,-9999,-20
27/12/2013 20:00,1.000000008,70,126,ENE,Clear,-3,-19,29,1027,-999,-9999,-19
27/12/2013 21:00,0,0,108,North,Clear,-4,-18,34,1027,-999,-9999,-18
27/12/2013 22:00,2.000000016,20,45,NNE,Unknown,-5,-18,36,1027,-8.3,8,-18
27/12/2013 23:00,2.000000016,340,30,NNW,Unknown,-6,-19,36,1027,-9.4,8,-19
28/12/2013 0:00,2.000000016,350,21,North,Unknown,-6,-20,33,1027,-9.4,8,-20
28/12/2013 1:00,4.000000032,300,14,WNW,Unknown,-3,-18,31,1027,-8,8,-18
28/12/2013 2:00,6.000000048,300,12,WNW,Clear,-2,-17,31,1027,-8,-9999,-17
28/12/2013 3:00,7.000000056,300,14,WNW,Clear,-3,-17,34,1027,-9.8,-9999,-17
28/12/2013 4:00,4.000000032,310,17,NW,Clear,-4,-18,34,1027,-9.2,-9999,-18
28/12/2013 5:00,7.000000056,330,13,NNW,Clear,-3,-20,26,1027,-9.8,-9999,-20
28/12/2013 6:00,8.000000064,320,15,NW,Clear,-4,-20,28,1027,-11.5,-9999,-20
28/12/2013 7:00,7.000000056,310,17,NW,Clear,-4,-20,28,1027,-11,-9999,-20
28/12/2013 8:00,6.000000048,310,21,NW,Clear,-4,-20,28,1028,-10.5,-9999,-20
28/12/2013 9:00,7.000000056,300,17,WNW,Clear,-3,-21,24,1029,-9.8,-9999,-21
28/12/2013 10:00,9.000000072,310,14,NW,Clear,-2,-23,19,1029,-9.3,-9999,-23
28/12/2013 11:00,9.000000072,320,11,NW,Clear,-1,-24,16,1029,-8,-9999,-24
28/12/2013 12:00,7.000000056,300,11,WNW,Clear,0,-23,17,1028,-5.9,-9999,-23
28/12/2013 13:00,9.000000072,300,15,WNW,Clear,1,-27,11,1026,-5.4,-9999,-27
28/12/2013 14:00,8.000000064,300,21,WNW,Clear,1,-26,12,1025,-5,-9999,-26
28/12/2013 15:00,7.000000056,300,14,WNW,Clear,2,-27,10,1025,-3.3,-9999,-27
28/12/2013 16:00,6.000000048,300,20,WNW,Clear,2,-26,11,1025,-2.9,-9999,-26
28/12/2013 17:00,5.00000004,280,22,West,Clear,1,-27,11,1024,-3.7,-9999,-27
28/12/2013 18:00,5.00000004,280,30,West,Clear,1,-27,11,1024,-3.7,-9999,-27
28/12/2013 19:00,4.000000032,270,,West,Clear,1,-26,12,1025,-3,-9999,-26
28/12/2013 20:00,3.000000024,280,38,West,Clear,0,-26,13,1024,-3.5,-9999,-26
28/12/2013 21:00,5.00000004,280,38,West,Clear,0,-26,13,1024,-4.9,-9999,-26
28/12/2013 22:00,3.000000024,280,48,West,Clear,0,-26,13,1024,-3.5,-9999,-26
28/12/2013 23:00,3.000000024,270,58,West,Clear,0,-26,13,1024,-3.5,-9999,-26
29/12/2013 0:00,4.000000032,250,64,WSW,Clear,-1,-23,18,1024,-5.5,-9999,-23
29/12/2013 1:00,6.000000048,280,74,West,Clear,0,-24,15,1023,-5.4,-9999,-24
29/12/2013 2:00,4.000000032,270,77,West,Clear,-1,-24,16,1023,-5.5,-9999,-24
29/12/2013 3:00,7.000000056,290,32,WNW,Clear,0,-24,15,1022,-5.9,-9999,-24
29/12/2013 4:00,7.000000056,290,27,WNW,Clear,0,-24,15,1022,-5.9,-9999,-24
29/12/2013 5:00,4.000000032,320,24,NW,Clear,-2,-24,18,1021,-6.7,-9999,-24
29/12/2013 6:00,4.000000032,340,33,NNW,Clear,-3,-24,19,1021,-8,-9999,-24
29/12/2013 7:00,1.000000008,0,60,Variable,Clear,-4,-23,22,1021,-999,-9999,-23
29/12/2013 8:00,1.000000008,0,77,Variable,Clear,-7,-22,30,1021,-999,-9999,-22
29/12/2013 9:00,2.000000016,90,84,East,Clear,-3,-18,31,1021,-5.9,-9999,-18
29/12/2013 10:00,1.000000008,0,67,Variable,Unknown,1,-22,17,1021,-999,8,-22
29/12/2013 11:00,1.000000008,0,59,Variable,Clear,4,-23,12,1020,-999,-9999,-23
29/12/2013 12:00,2.000000016,170,42,South,Clear,5,-24,11,1019,3.4,-9999,-24
29/12/2013 13:00,4.000000032,210,32,SSW,Clear,6,-25,9,1017,3.1,-9999,-25
29/12/2013 14:00,5.00000004,240,44,WSW,Clear,7,-24,9,1016,3.8,-9999,-24
29/12/2013 15:00,5.00000004,230,68,SW,Clear,7,-24,9,1016,3.8,-9999,-24
29/12/2013 16:00,4.000000032,230,43,SW,Clear,6,-25,9,1016,3.1,-9999,-25
29/12/2013 17:00,3.000000024,180,,South,Clear,4,-24,11,1016,1.3,-9999,-24
29/12/2013 18:00,2.000000016,180,,South,Clear,2,-24,13,1016,-0.1,-9999,-24
29/12/2013 19:00,3.000000024,220,,SW,Clear,4,-23,12,1017,1.3,-9999,-23
29/12/2013 20:00,2.000000016,190,,South,Unknown,1,-23,15,1017,-1.3,8,-23
29/12/2013 21:00,2.000000016,0,,Variable,Unknown,4,-23,12,1017,2.2,8,-23
29/12/2013 22:00,1.000000008,0,,Variable,Unknown,-3,-18,31,1017,-999,7,-18
29/12/2013 23:00,0,0,,North,Unknown,-2,-17,31,1017,-999,7,-17
30/12/2013 0:00,5.00000004,290,,WNW,Clear,3,-23,13,1017,-1.2,-9999,-23
30/12/2013 1:00,6.000000048,280,,West,Clear,2,-23,14,1017,-2.9,-9999,-23
30/12/2013 2:00,7.000000056,290,,WNW,Clear,3,-24,12,1017,-2.1,-9999,-24
30/12/2013 3:00,8.000000064,290,,WNW,Clear,3,-24,12,1017,-2.4,-9999,-24
30/12/2013 4:00,4.000000032,280,,West,Clear,1,-24,14,1016,-3,-9999,-24
30/12/2013 5:00,4.000000032,300,,WNW,Clear,1,-24,14,1016,-3,-9999,-24
30/12/2013 6:00,2.000000016,10,,North,Clear,0,-24,15,1016,-2.5,-9999,-24
30/12/2013 7:00,7.000000056,310,,NW,Clear,3,-23,13,1016,-2.1,-9999,-23
30/12/2013 8:00,7.000000056,300,,WNW,Clear,3,-23,13,1017,-2.1,-9999,-23
30/12/2013 9:00,7.000000056,300,,WNW,Clear,4,-23,12,1017,-0.8,-9999,-23
30/12/2013 10:00,9.000000072,300,34,WNW,Clear,5,-22,13,1017,-0.1,-9999,-22
30/12/2013 11:00,10.00000008,300,25,WNW,Clear,6,-23,11,1017,0.9,-9999,-23
30/12/2013 12:00,9.000000072,280,27,West,Clear,6,-22,12,1016,1.2,-9999,-22
30/12/2013 13:00,10.00000008,280,25,West,Clear,7,-22,11,1015,2.2,-9999,-22
30/12/2013 14:00,9.000000072,280,25,West,Clear,7,-21,12,1015,2.5,-9999,-21
30/12/2013 15:00,8.000000064,280,25,West,Clear,7,-23,10,1014,2.8,-9999,-23
30/12/2013 16:00,8.000000064,290,25,WNW,Clear,7,-23,10,1014,2.8,-9999,-23
30/12/2013 17:00,6.000000048,290,36,WNW,Clear,6,-22,12,1015,2.2,-9999,-22
30/12/2013 18:00,4.000000032,290,36,WNW,Clear,5,-22,13,1015,1.9,-9999,-22
30/12/2013 19:00,2.000000016,290,64,WNW,Clear,6,-22,12,1015,4.5,-9999,-22
30/12/2013 20:00,3.000000024,220,67,SW,Clear,5,-21,14,1015,2.5,-9999,-21
30/12/2013 21:00,2.000000016,0,72,Variable,Clear,3,-20,17,1015,1,-9999,-20
30/12/2013 22:00,3.000000024,190,88,South,Clear,3,-20,17,1014,0.1,-9999,-20
30/12/2013 23:00,2.000000016,220,84,SW,Clear,4,-21,15,1014,2.2,-9999,-21
31/12/2013 0:00,1.000000008,0,87,Variable,Clear,-2,-18,29,1013,-999,-9999,-18
31/12/2013 1:00,2.000000016,250,107,WSW,Clear,1,-20,20,1013,-1.3,-9999,-20
31/12/2013 2:00,1.000000008,0,129,Variable,Clear,-2,-18,29,1012,-999,-9999,-18
31/12/2013 3:00,2.000000016,360,109,North,Clear,-5,-16,43,1012,-8.3,-9999,-16
31/12/2013 4:00,2.000000016,280,113,West,Clear,-2,-16,34,1011,-4.8,-9999,-16
31/12/2013 5:00,2.000000016,150,83,SSE,Clear,-5,-15,46,1011,-8.3,-9999,-15
31/12/2013 6:00,3.000000024,280,71,West,Clear,2,-19,20,1010,-1.1,-9999,-19
31/12/2013 7:00,7.000000056,290,61,WNW,Clear,5,-20,15,1011,0.5,-9999,-20
31/12/2013 8:00,7.000000056,300,50,WNW,Clear,5,-19,16,1012,0.5,-9999,-19
31/12/2013 9:00,10.00000008,300,48,WNW,Clear,6,-19,15,1013,0.9,-9999,-19
31/12/2013 10:00,10.00000008,300,41,WNW,Clear,7,-18,15,1013,2.2,-9999,-18
31/12/2013 11:00,9.000000072,300,34,WNW,Clear,7,-19,14,1013,2.5,-9999,-19
31/12/2013 12:00,11.00000009,320,28,NW,Clear,9,-18,13,1012,-999,-9999,-18
31/12/2013 13:00,8.000000064,290,22,WNW,Clear,9,-18,13,1011,-999,-9999,-18
31/12/2013 14:00,8.000000064,300,19,WNW,Clear,9,-19,12,1011,-999,-9999,-19
31/12/2013 15:00,10.00000008,300,16,WNW,Clear,9,-18,13,1012,-999,-9999,-18
31/12/2013 16:00,10.00000008,300,21,WNW,Clear,9,-18,13,1012,-999,-9999,-18
31/12/2013 17:00,10.00000008,300,15,WNW,Clear,8,-19,13,1012,3.6,-9999,-19
31/12/2013 18:00,7.000000056,290,22,WNW,Clear,8,-19,13,1013,4.4,-9999,-19
31/12/2013 19:00,5.00000004,290,18,WNW,Clear,7,-19,14,1013,3.8,-9999,-19
31/12/2013 20:00,5.00000004,290,23,WNW,Clear,7,-21,12,1014,3.8,-9999,-21
31/12/2013 21:00,6.000000048,290,20,WNW,Clear,7,-21,12,1014,3.4,-9999,-21
31/12/2013 22:00,5.00000004,280,23,West,Clear,6,-21,13,1014,2.6,-9999,-21
31/12/2013 23:00,7.000000056,290,24,WNW,Clear,7,-20,13,1014,3.1,-9999,-20
